id,street,city,state,zip
10001,26 Belden Avenue,Norwalk,CT,06850
10002,340 Main Ave,Norwalk,CT,06851
10003,726 Connecticut Ave,Norwalk,CT,06854
10004,RT-95 Northbound (Between Exit 12-13),Darien,CT,06820
10005,RT-95 Northbound (Between Exit 21-22),Fairfield,CT,06824
10006,RT-95 Southbound (Between Exit 22-21),Fairfield,CT,06430
10007,536 Post Rd,Fairfield,CT,06430
10008,1900 Fairfield Ave,Bridgeport,CT,06605
10009,1835 Black Rock Tpke,Fairfield,CT,06825
10010,1700 Park Ave,Bridgeport,CT,06604-2520
10011,2439 Barnum Ave,Stratford,CT,06614
10012,411 Barnum Ave,Stratford,CT,06615
10013,1111 Washington Blvd,Ogden,UT,84404-4950
10014,2085 S 1100 W,West Haven,UT,84401
10015,1838 W 2700 N,Farr West,UT,84404
10016,2605 N Washington,North Ogden,UT,84414
10017,212 Front St,Evanston,WY,82930-3632
10018,1666 Snowy Range Rd,Laramie,WY,82070
10019,3000 Grand Ave,Laramie,WY,82070-5105
10020,14449 W Center Rd,Omaha,NE,68144
10021,11330 W Dodge,Omaha,NE,68154-2620
10022,3805 N 132nd St,Omaha,NE,68164
10023,3404 N 108th St,Omaha,NE,68164-2907
10024,10777 Q St,Omaha,NE,68127-2931
10025,3575 North 168th Court,Omaha,NE,68116
10026,18320 Wright St,Omaha,NE,68130
10027,3606 S 84th,Omaha,NE,68124-3900
10028,17805 Welch Plaza,Omaha,NE,68135
10029,7717 W Dodge,Omaha,NE,68114-3636
10030,1525 N 205th St,Omaha,NE,68022
10031,4912 S 202nd Ave,Omaha,NE,68135
10032,122 S 40th St,Omaha,NE,68131-3004
10033,1925 N 72nd St.,Omaha,NE,68134
10034,3909 S 42nd,Omaha,NE,68107
10035,2410 Cuming St,Omaha,NE,68131-1630
10036,2760 S 13th St,Omaha,NE,68108
10037,4635 N 72nd St,Omaha,NE,68134
10038,4404 N 30th,Omaha,NE,68111
10039,9009 Old Military Ave,Omaha,NE,68134
10040,1607 W Broadway,Council Bluffs,IA,51501-3821
10041,610 30th Ave,Council Bluffs,IA,51501
10042,251 Bennett Ave,Council Bluffs,IA,51503
10043,1406 S Lincoln,Knoxville,IA,50138-3425
10044,703 A Ave W,Oskaloosa,IA,52577-2031
10045,311 S. Marion Avenue,Washington,IA,52353
10046,315 S Tenney St,Kewanee,IL,61443-3451
10047,115 N Lewis Ave,Oglesby,IL,61348-9772
10048,285 W Front St,Braidwood,IL,60408
10049,2 South Broadway,Coal City,IL,60416
10050,103 South Creek Dr,Manteno,IL,60950
10051,1055 S Water Street,Wilmington,IL,60481-1666
10052,1705 E Commercial,Lowell,IN,46356-2110
10053,3150 E 181st Place,Hebron,IN,46341
10054,338 N Halleck,Demotte,IN,46310-9419
10055,1411 S Heaton St,Knox,IN,46534-2315
10056,10450 State Hwy 10,Argos,IN,46501
10057,561 S Main,Churubusco,IN,46723
10058,3611 Commerce Dr,Warsaw,IN,46580-3929
10059,315 N Detroit St,Warsaw,IN,46580-3040
10060,2473 Jalynn St,Warsaw,IN,46582
10061,200 E High St,Hicksville,OH,43526
10062,1740 E 2nd St,Defiance,OH,43512-2446
10063,1111 N Clinton St,Defiance,OH,43512-9785
10064,1040 W Mcpherson Hwy,Clyde,OH,43410
10065,100 Mcdonald'S Dr,Bellevue,OH,44811-9633
10066,199 Milan Ave,Norwalk,OH,44857-1135
10067,249 Benedict Ave,Norwalk,OH,44857-2346
10068,265 S Main St,Oberlin,OH,44074-1772
10069,550 N Center St,Lagrange,OH,44050
10070,412 Main St,Grafton,OH,44044
10071,1733 Pearl Rd,Brunswick,OH,44212
10072,3115 Center Rd,Brunswick,OH,44212-3848
10073,14615 Pearl Rd,Strongsville,OH,44136-5011
10074,134 West Steetsboro Rd,Hudson,OH,44236-2746
10075,6400 Macedonia Commons Blvd,Macedonia,OH,44067
10076,5020 Darrow Rd,Stow,OH,44224-1408
10077,2533 Aurora Rd,Twinsburg,OH,44087-2147
10078,5304 Royalton Rd,North Royalton,OH,44133-4008
10079,9439 Sr 14,Streetsboro,OH,44240
10080,199 W Garfield,Aurora,OH,44202-8859
10081,3921 Wheatley Rd,Richfield,OH,44286
10082,4618 E Royalton Rd,Broadview Heights,OH,44147
10083,10637 Main St,Mantua,OH,44255
10084,8027 State St,Garrettsville,OH,44231
10085,2487 Parkman Rd,Warren,OH,44485
10086,4291 Mahoning Ave,Warren,OH,44483-1928
10087,595 South St Se,Warren,OH,44483
10088,2171 Millennium Blvd,Cortland,OH,44410
10089,145 N Hermitage Rd,Hermitage,PA,16148
10090,2066 E State St,Hermitage Twp,PA,16148
10091,162 North Rd,Warren,OH,44484-4502
10092,2110 Niles Courtland Rd,Warren,OH,44484
10093,3629 Oh-5,Cortland,OH,44410
10094,67 W State St,Sharon,PA,16146-1301
10095,707 Main Street,Clarion,PA,16214-1122
10096,864 Clark St,Brockway,PA,15824
10097,1940 Lycoming Creek Rd,Williamsport,PA,17701
10098,1730 E 3rd St,Williamsport,PA,17701
10099,180 Montgomery Rd,South Williamsport,PA,17702
10100,298 Lycoming Mall,Muncy,PA,17756
10101,755 State Hwy 405,Hughesville,PA,17737
10102,746 San Souci Hwy,Wilkes Barre,PA,18702
10103,80 S Wyoming Ave,Edwardsville,PA,18704
10104,150 East Hampton,Wilkes Barre,PA,18701
10105,674 N River St,Plains,PA,18705
10106,744 Kidder St,Wilkes Barre,PA,18702
10107,900 Wilkes Barre Township Blvd,Wilkes Barre,PA,18702
10108,500 Union Street Luzerne,Luzerne,PA,18709
10109,913 Wyoming Ave,Wyoming,PA,18644
10110,306 Rt 315,Pittston,PA,18640
10111,498 Red Apple Ct (Woodbury Common),Central Valley,NY,10917
10112,501 Rt 17m,Monroe,NY,10950
10113,20 Welcher Ave,Peekskill,NY,10566
10114,605 Bedford Rd,Bedford Hills,NY,10507
10115,3481 Us Highway 202,Cortlandt Manor,NY,10567
10116,3078 East Main Street,Mohegan Lake,NY,10547
10117,80 Hawley Lane,Trumbull,CT,06611
10118,439 Bridgeport Avenue,Milford,CT,06460-4105
10119,1376 Boston Post Rd,Milford,CT,06460
10120,250 N Ave,Bridgeport,CT,06606
10121,4219 Main St,Bridgeport,CT,06606
10122,390 Monroe Tpke,Monroe,CT,06468
10123,617 Boston Post Rd,Guilford,CT,06437
10124,RT-95 Southbound (Between Exit 62-61),Madison,CT,06443
10125,108 W Main St,Clinton,CT,06413
10126,RT-95 Northbound (Between Exit 53-54),Branford,CT,06405
10127,280 Branford Road,North Branford,CT,06471
10128,424 W Main St,Branford,CT,06405
10129,687 Main St,East Haven,CT,06512
10130,280 Kimberly Ave,New Haven,CT,06519
10131,308 Ferry St,New Haven,CT,06510
10132,225 Foxon Blvd,New Haven,CT,06513
10133,1129 Campbell Ave,West Haven,CT,06516
10134,513 Sawmill Road,West Haven,CT,06516
10135,RT-95 Northbound (Between Exit 40-41),Milford,CT,06460
10136,RT-95 Southbound (Between Exit 41-40),Milford,CT,06460
10137,57 Boston Post Road,Orange,CT,06477-3237
10138,652 New Haven Ave,Derby,CT,06418
10139,250 Whalley Ave,New Haven,CT,06501
10140,1061 Boston Post Rd,Old Saybrook,CT,06475
10141,1925 Shastina Dr,Weed,CA,96094-9712
10142,3210 23rd St,Columbus,NE,68601-3126
10143,435 E 23rd St,Fremont,NE,68025
10144,7400 N 30th,Omaha,NE,68112
10145,1510 E 7th St,Atlantic,IA,50022-1907
10146,1318 N 1st Ave,Winterset,IA,50273
10147,1207 N Jefferson,Indianola,IA,50125-1455
10148,309 Oskaloosa St,Pella,IA,50219
10149,2520 Park Ave,Muscatine,IA,52761-5637
10150,1022 Oakwood Dr,Geneseo,IL,61254
10151,2139 N Main St,Princeton,IL,61356
10152,5251 Trompeter Road,Peru,IL,61354-9616
10153,924 Shooting Park Rd,Peru,IL,61354-1874
10154,800 W Dakota St,Spring Valley,IL,61362
10155,3020 E 8th Road,Utica,IL,61373
10156,127 E Norris Dr,Ottawa,IL,61350-1514
10157,1700 Division St,Morris,IL,60450-1125
10158,440 W. North Street,Manhattan,IL,60442-9245
10159,26953 West Eames,Channahon,IL,60410
10160,701 Oriole Dr,Peotone,IL,60468
10161,135 N Main St,Crown Point,IN,46307-4064
10162,501 E. 109th Place,Crown Point,IN,46307
10163,13312 Wicker Ave,Cedar Lake,IN,46303
10164,6002 W Monee Manhattan Rd,Monee,IL,60449
10165,901 Dixie Highway,Beecher,IL,60401
10166,9769 Wicker Ave,St. John,IN,46373
10167,10885 Randolph Street,Crown Point,IN,46307
10168,2010 N Michigan St,Plymouth,IN,46563-1048
10169,1435 Plymouth St,Bremen,IN,46506
10170,1540 E Market,Nappanee,IN,46550-2300
10171,828 E Albion St,Avilla,IN,46710
10172,211 W North St,Kendallville,IN,46755-1133
10173,902 S Huntington St,Syracuse,IN,46567
10174,1109 W 7th St,Auburn,IN,46706-2016
10175,533 W Main St,Butler,IN,46721
10176,1805 N Scott St,Napoleon,OH,43545
10177,1470 E Wooster Street,Bowling Green,OH,43402-3260
10178,1050 S Main St,Bowling Green,OH,43402-4719
10179,2014 State Route 53,Fremont,OH,43420
10180,1801 W State St,Fremont,OH,43420
10181,924 W Main Street,Woodville,OH,43469
10182,3511 Tiffin Ave,Sandusky,OH,44870
10183,908 W Perkins,Sandusky,OH,44870-4745
10184,4204 Milan Road,Sandusky,OH,44870-5832
10185,2118 Cleveland Rd W,Huron,OH,44839-1005
10186,11015 State Route 250 N,Milan,OH,44846
10187,500 Leavitt Rd,Amherst,OH,44001
10188,6400 Middle Ridge Rd,Lorain,OH,44053-3954
10189,4783 Liberty Ave,Vermilion,OH,44089
10190,595 Broad St,Elyria,OH,44035
10191,311 Midway Blvd,Elyria,OH,44035
10192,1010 E Broad St,Elyria,OH,44035-6304
10193,5250 Detroit Rd,Elyria,OH,44035-1439
10194,3221 Oberlin Ave,Lorain,OH,44052
10195,32528 Lorain Rd,North Ridgeville,OH,44039
10196,35900 Center Ridge Rd,North Ridgeville,OH,44039
10197,27322 Lorain Rd,North Olmsted,OH,44070-4034
10198,7505 Day Dr,Parma,OH,44129-5602
10199,6421 Pearl Rd,Parma Heights,OH,44130
10200,10400 Sprague Rd,Parma,OH,44130
10201,7245 Pearl Rd,Middleburg Heights,OH,44130
10202,5301 Pearl Rd,Parma,OH,44129-1503
10203,10700 Brookpark Rd,Brooklyn,OH,44130
10204,14841 Snow Rd,Brook Park,OH,44142
10205,1300 W Pleasant Valley,Parma,OH,44134-6715
10206,1787 Snow Rd,Parma,OH,44134
10207,4738 Ridge Rd,Brooklyn,OH,44144-3327
10208,18070 Bagley Rd,Middleburg Heights,OH,44130
10209,14235 Puritas Rd,Cleveland,OH,44135-2825
10210,9192 Pearl Road,Strongsville,OH,44136
10211,5616 Memphis Ave,Cleveland,OH,44144-2240
10212,6201 Brecksville Rd,Independence,OH,44131-3402
10213,12690 Rockside Rd,Garfield Heights,OH,44125
10214,5240 Turney Rd,Garfield Heights,OH,44125-2642
10215,15629 Broadway Avenue,Maple Heights,OH,44137
10216,10333 Northfield Rd,Northfield,OH,44067
10217,7195 Aurora Rd,Aurora,OH,44202-9600
10218,17638 Chillicothe Road,Bainbridge,OH,44023
10219,350 W Bagley Rd,Berea,OH,44017-1348
10220,22535 Lorain Rd,Fairview Park,OH,44126-2211
10221,23321 Broadway Ave,Oakwood Village,OH,44146
10222,25640 Miles Rd,Bedford Heights,OH,44128
10223,5114 Northfield Rd,Maple Heights,OH,44137-2107
10224,201 13th St,Franklin,PA,16323
10225,63 Hadley Rd,Greenville,PA,16125
10226,7028 Us Hwy 322,Cranberry,PA,16319
10227,5 Elm St,Oil City,PA,16301
10228,825 South St. Marys Street,Saint Marys,PA,15857
10229,1950 N Memorial Highway,Shavertown,PA,18708
10230,900 S Washington Ave,Scranton,PA,18519
10231,1236 Wyoming Ave,Scranton,PA,18509
10232,1201 Harry P Oneill,Dunmore,PA,18512
10233,1739 N Keyser Ave,Scranton,PA,18508
10234,452 Pa-590,Hamlin,PA,18436
10235,411 S Main St,Old Forge,PA,18518
10236,603 Rt 739,Hawley,PA,18428
10237,209 Us Hwy 6,Milford,PA,18337
10238,13 Rt 23 Rd,Montague,NJ,07827
10239,113 Dolson Ave,Middletown,NY,10940
10240,73 Brookside Ave (Rte 17m),Chester,NY,10918
10241,104 W Point Hwy,Highland Falls,NY,10928
10242,154 Route 6,Mahopac,NY,10541
10243,1931 Us Rte 6,Carmel,NY,10512
10244,1620 Route 22,Brewster,NY,10509
10245,67 Newtown Rd,Danbury,CT,06810
10246,178 Federal Rd,Brookfield,CT,06804
10247,3 Padanaram Rd,Danbury,CT,06811
10248,2 Lake Ave,Danbury,CT,06810
10249,255 Bank St,Seymour,CT,06483
10250,44 Division St,Derby,CT,06418
10251,365 Universal Dr,North Haven,CT,06473
10252,129 Washington Ave,North Haven,CT,06473
10253,2320 Dixwell Ave,Hamden,CT,06514
10254,1260 Dixwell Ave,Hamden,CT,06514
10255,1094 Whalley Ave,New Haven,CT,06515
10256,19 Chesterfield Rd,East Lyme,CT,06333-1252
10257,155 WATERFORD PARKWAY N (Walmart #2331),Waterford,CT,06385-1208
10258,406 Colman St,New London,CT,06320
10259,117 Boston Post Rd,Waterford,CT,06385
10260,561 Longhill Rd,Groton,CT,06340
10261,1678 Connecticut 12,Gales Ferry,CT,06335
10262,465 Liberty Street,Pawcatuck,CT,06379
10263,135 Granite St,Westerly,RI,02891
10264,2 Coogan Blvd,Mystic,CT,06355
10265,149 Old Tower Hill Rd,Wakefield,RI,02879
10266,902 S Main St,Brigham City,UT,84302-3162
10267,599 E 4th S,Green River,WY,82935-4570
10268,1687 Sunset Dr,Rock Springs,WY,82901-7061
10269,929 Washington,Blair,NE,68008
10270,100 N Willow Road,Missouri Valley,IA,51555
10271,33300 385th St,Shelby,IA,51570
10272,120 Se 7th St,Stuart,IA,50250
10273,710 Army Post Rd,Des Moines,IA,50309
10274,2901 Sunset,Norwalk,IA,50211
10275,4201 Fleur Dr,Des Moines,IA,50309
10276,3000 Se 14th St,Des Moines,IA,50320
10277,745 South 51st Street,West Des Moines,IA,50265
10278,2950 11th St,Rock Island,IL,61201-5218
10279,3102 W Locust,Davenport,IA,52804-3348
10280,1813 30th St,Rock Island,IL,61201-4728
10281,2110 W Kimberly Rd,Davenport,IA,52806-5368
10282,400 W 1st St,Milan,IL,61264-2715
10283,810 41st Ave Dr,Moline,IL,61265
10284,1733 E Kimberly Rd,Davenport,IA,52804
10285,727 Avenue Of The Cities,East Moline,IL,61244
10286,3433 Avenue Of The Cities,Moline,IL,61265-4418
10287,852 Middle Rd,Bettendorf,IA,52722
10288,2701 69th Avenue Court,Moline,IL,61265
10289,2185 53rd Ave,Bettendorf,IA,52722
10290,1503 13th Avenue,Mendota,IL,61342
10291,2701 E 12th St,Mendota,IL,61342
10292,1515 West Jefferson Avenue,Joliet,IL,60435
10293,1421 Riverboat Center Dr,Joliet,IL,60432
10294,4280 W Jefferson,Joliet,IL,60431
10295,508 E Cass St,Joliet,IL,60432-2905
10296,1704 Plainfield Rd,Crest Hill,IL,60403-1953
10297,1555 N Broadway,Joliet,IL,60435-2616
10298,631 Brookforest Ave,Shorewood,IL,60404
10299,2212 Essington Road,Joliet,IL,60435
10300,24061 W Eames,Channahon,IL,60410
10301,102 N Ridge Rd,Minooka,IL,60447
10302,2220 Illinois Rt 59,Joliet,IL,60544
10303,21011 S Lagrange Road,Frankfort,IL,60423-7753
10304,2151 E Laraway Road,New Lenox,IL,60451
10305,7215 W Lincoln Hwy,Frankfort,IL,60423
10306,11111 W 179th Street,Orland Park,IL,60467
10307,600 West Maple,New Lenox,IL,60451
10308,4855 W Sauk Trl,Richton Park,IL,60411
10309,4010 W 211th St,Matteson,IL,60443-2442
10310,2400 W Lincoln Highway,Olympia Fields,IL,60461
10311,3132 W 183rd St,Homewood,IL,60430-2807
10312,100 W Sauk Trl,South Chicago Heights,IL,60411
10313,19767 S Halsted Street,Chicago Heights,IL,60411
10314,1350 Steger Rd,Crete,IL,60417-1357
10315,17740 Halsted Street,Homewood,IL,60430-2010
10316,915 Joliet Road,Dyer,IN,46311
10317,1855 Us Hwy 41,Schererville,IN,46375-1601
10318,10326 Indianapolis Blvd,Highland,IN,46322
10319,9117 Indianapolis Blvd,Highland,IN,46322
10320,515 Ridge Rd,Munster,IN,46321
10321,3904 Ridge Road,Highland,IN,46322
10322,7915 East Ridge Rd,Hobart,IN,46342-2454
10323,6100 Mississippi Street,Merrillville,IN,46410
10324,1939 E 80th Avenue,Merrillvile,IN,46410
10325,6093 Broadway,Merrillville,IN,46410
10326,6075 Us Hwy 6,Portage,IN,46368
10327,2900 West 81st Avenue,Merrillville,IN,46410
10328,3520 Grant Street,Gary,IN,46408-1422
10329,2150 Morthland Dr,Valparaiso,IN,46383
10330,364 West Us Hwy 6,Valparaiso,IN,46383-7914
10331,2002 Calumet Avenue,Valparaiso,IN,46383-2706
10332,2610 La Porte Ave,Valparaiso,IN,46383
10333,800 N Flynn Rd,Westville,IN,46391
10334,801 Roosevelt Road,Walkerton,IN,46574
10335,2056 Us Hwy 31,Plymouth,IN,46563
10336,1010 E Waterford Street,Wakarusa,IN,46573
10337,2001 Lincolnway E,Goshen,IN,46526-6416
10338,1320 Lincolnway S,Ligonier,IN,46767
10339,1207 S Main St,Bryan,OH,43506
10340,1100 S Defiance Street,Archbold,OH,43502-1618
10341,1375 N Shoop,Wauseon,OH,43567-1826
10342,7228 Dutch Rd,Waterville,OH,43566
10343,14225 Airport Hwy,Swanton,OH,43558-1501
10344,122 E Water St,Oak Harbor,OH,43449
10345,26540 Dixie Hwy,Perrysburg,OH,43551
10346,10163 Fremont Pike,Perrysburg,OH,43551
10347,1016 Conant St,Maumee,OH,43537-2845
10348,3430 Libbey Rd,Perrysburg,OH,43551-9739
10349,22201 Woodville Rd,Genoa,OH,43430
10350,1700 E Perry St,Port Clinton,OH,43452-1426
10351,2102 River Ave,Sandusky,OH,44870-3954
10352,18 Ne Catawba Rd,Port Clinton,OH,43452-3701
10353,1725 Henderson Drive,Lorain,OH,44052
10354,25700 Detroit Rd,Westlake,OH,44145-2421
10355,21675 Center Ridge Rd,Rocky River,OH,44116-3917
10356,16407 Detroit Ave,Lakewood,OH,44107-3625
10357,30100 Detroit Rd,Westlake,OH,44145-1945
10358,3782 W 150th St,Cleveland,OH,44111-5801
10359,39100 Colorado Ave,Avon,OH,44011-1056
10360,32799 Walker Rd,Avon Lake,OH,44012-1442
10361,8210 Euclid Ave,Cleveland,OH,44103
10362,11420 Buckeye Rd,Cleveland,OH,44104
10363,1540 E 55th St,Cleveland,OH,44103-1347
10364,9101 Kinsman Ave,Cleveland,OH,44104-5141
10365,3050 Carnegie Ave,Cleveland,OH,44115-2631
10366,13705 Euclid Ave,East Cleveland,OH,44118-4219
10367,10411 Saint Clair Ave,Cleveland,OH,44108-1956
10368,6332 Broadway Avenue,Cleveland,OH,44105
10369,15110 Saint Clair,Cleveland,OH,44110-3720
10370,2224 Warrensville Center Rd,University Heights,OH,44118
10371,3211 Clark Ave,Cleveland,OH,44109-1147
10372,4159 Lee Rd,Cleveland,OH,44128-2462
10373,2500 Denison Ave,Cleveland,OH,44109-2600
10374,4500 Mayfield Rd,South Euclid,OH,44121-4017
10375,6225 Mayfield Rd,Mayfield Heights,OH,44124
10376,27570 Chagrin Blvd,Woodmere,OH,44122
10377,465 Richmond Rd,Richmond Heights,OH,44143-2745
10378,22291 Euclid Ave,Euclid,OH,44117-1616
10379,8329 Mayfield Rd,Chesterland,OH,44026-2519
10380,7015 Detroit Ave,Cleveland,OH,44102-3025
10381,1430 W 117th St,Lakewood,OH,44107-5102
10382,10710 Lorain Ave,Cleveland,OH,44111-5413
10383,15551 Kinsman Rd,Middlefield,OH,44062-9475
10384,1127 Northern Blvd,Clarks Summit,PA,18411
10385,161 W Tioga St.,Tunkhannock,PA,18657
10386,525 Scranton Carbondale Hwy,Eynon,PA,18403
10387,160 Brooklyn St,Carbondale,PA,18407-2208
10388,1187 Texas Palmyra Highway,Honesdale,PA,18431
10389,1511 Scranton Carbondale Hwy,Dickson City,PA,18508
10390,481 Rt 211 E,Middletown,NY,10940
10391,347 Broadway,Newburgh,NY,12550
10392,65 N Plank,Newburgh,NY,12550
10393,1403 Rt 300,Newburgh,NY,12550
10394,2639 Route 32,New Windsor,NY,12553
10395,2083 State Hwy Rt 208 S,Montgomery,NY,12549
10396,453 Us Rte 9 (Duchess Mall),Fishkill,NY,12524
10397,100 Main St North,Southbury,CT,06488
10398,48 Danbury Rd,New Milford,CT,06776
10399,718 Rubber Ave,Naugatuck,CT,06770
10400,571 New Haven Rd,Naugatuck,CT,06770
10401,564 Straits Tpke,Watertown,CT,06795
10402,45 Thomaston Ave,Waterbury,CT,06702
10403,850 S Main St,Cheshire,CT,06410
10404,533 South Broad St,Meriden,CT,06450
10405,608 N Colony,Wallingford,CT,06492
10406,412 W Main St,Meriden,CT,06450
10407,894 Meriden Waterbury,Plantsville,CT,06479
10408,783 E Main St,Meriden,CT,06450
10409,530 Reidville Dr,Waterbury,CT,06705
10410,325 Union St,Waterbury,CT,06706
10411,881 Wolcott St,Waterbury,CT,06705
10412,914 Washington,Middletown,CT,06457
10413,611 S Main,Middletown,CT,06457
10414,375 S Main St,Colchester,CT,06415
10415,1951 Norwich New London Turnpike,Montville,CT,06382
10416,109 Salem Tpke,Norwich,CT,06360-6476
10417,78 Town St,Norwich,CT,06360
10418,14 Kingston Road,Wyoming,RI,02898
10419,288 E Main Rd,Middletown,RI,02842
10420,1425 W Main Rd,Middletown,RI,02842
10421,263 E Main St,Teaticket,MA,02536
10422,1806 Fort Jones Rd,Yreka,CA,96097-9532
10423,25 S 800 East,Hyrum,UT,84319
10424,1607 Elk St,Rock Springs,WY,82901
10425,125 Laurel St,Waukee,IA,50263
10426,2820 Grand Prairie Pkwy,Waukee,IA,50263
10427,1320 Jordan Creek Pkwy,West Des Moines,IA,50266
10428,4900 Nw Urbandale Dr,Urbandale,IA,50322-6337
10429,11400 Forest Ln,Clive,IA,50325-7031
10430,1530 22nd St,West Des Moines,IA,50266
10431,5494 Nw 86th St,Johnston,IA,50131
10432,3610 Merle Hay Road,Des Moines,IA,50310-1245
10433,4825 Merle Hay Rd,Des Moines,IA,50322
10434,6125 Grand Ave,Des Moines,IA,50312-1418
10435,101 Gateway Dr,Grimes,IA,50111
10436,3002 Forest Ave,Des Moines,IA,50311
10437,1345 E Euclid,Des Moines,IA,50316-1259
10438,601 University Ave,Des Moines,IA,50314
10439,1404 Des Moines St,Des Moines,IA,50316
10440,2540 E University Ave,Des Moines,IA,50317
10441,3275 Euclid Ave E,Des Moines,IA,50317-3845
10442,2625 Sw State Street,Ankeny,IA,50021
10443,3734 8th St Sw,Altoona,IA,50009
10444,1055 Sherrylynn Blvd,Pleasant Hill,IA,50317
10445,2951 Adventureland Dr,Altoona,IA,50009-9571
10446,4400 South 22nd Ave E,Newton,IA,50208
10447,235 Evans St E,Williamsburg,IA,52361-0780
10448,2440 Mormon Trek Blvd,Iowa City,IA,52240
10449,804 S Riverside Dr,Iowa City,IA,52240
10450,618 1st Ave,Coralville,IA,52241-2102
10451,2794 Commerce Drive,Coralville,IA,52241
10452,610 South Downey,West Branch,IA,52358
10453,1861 Lower Muscatine Rd,Iowa City,IA,52244
10454,7522 Northwest Blvd,Davenport,IA,52806
10455,621 E Leclaire Rd,Eldridge,IA,52748
10456,5002 Welcome Way,Davenport,IA,52806
10457,2955 N Plainview Rd,Walcott,IA,52773-8522
10458,5221 Competition Dr,Bettendorf,IA,52722
10459,1403 Eagle Ridge Rd,Le Claire,IA,52753
10460,120 Indian Springs Dr,Sandwich,IL,60548
10461,13546 State Route 30,Plainfield,IL,60544
10462,12501 S Route 59,Plainfield,IL,60544
10463,15810 S Rt 59,Plainfield,IL,60544
10464,16519 W 159th Street,Lockport,IL,60441
10465,1152 State St,Lemont,IL,60439-4213
10466,1039 E 9th St,Lockport,IL,60441-3245
10467,14298 S Bell Rd,Homer Glen,IL,60491
10468,645 N Independence Blvd,Romeoville,IL,60446
10469,12704 E Route 34,Plano,IL,60545
10470,2007 S Bridge St,Yorkville,IL,60560
10471,3 W Veterans Pky,Yorkville,IL,60560
10472,3417 Orchard Way,Oswego,IL,60543
10473,675 N Weber Rd,Romeoville,IL,60446-3938
10474,778 S Weber Road,Romeoville,IL,60446
10475,2885 W Plainfield Rd,Joliet,IL,60435
10476,295 N Weber Rd,Bolingbrook,IL,60490-1567
10477,13630 S Cicero Ave,Crestwood,IL,60418-1937
10478,5441 W 159th St,Oak Forest,IL,60452-3275
10479,14601 S Pulaski Ave,Midlothian,IL,60445-2826
10480,15920 S Harlem,Tinley Park,IL,60477-1610
10481,4239 W 167th Street,Country Club Hills,IL,60478
10482,7100 W 127th St,Palos Heights,IL,60463
10483,3010 West 159th Street,Markham,IL,60426-4026
10484,14702 Dixie Hwy,Harvey,IL,60426
10485,11850 South Pulaski Avenue,Alsip,IL,60803
10486,17171 S Harlem Ave,Tinley Park,IL,60477-3369
10487,9110 W 159th St,Orland Park,IL,60462-5648
10488,11920 S Western Ave,Blue Island,IL,60406-1117
10489,12700 S Ashland,Calumet Park,IL,60827
10490,10533 S Cicero,Oak Lawn,IL,60453-5273
10491,14445 S Lagrange Rd,Orland Park,IL,60462-2505
10492,11050 Southwest Hwy,Palos Hills,IL,60465-2322
10493,226 Sibley Blvd,Dolton,IL,60419
10494,801 East 162nd St,South Holland,IL,60473-2441
10495,2004 Sibley Blvd,Calumet City,IL,60409-2115
10496,I-294 Lincoln Oasis,South Holland,IL,60473
10497,600 E 115th St,Chicago,IL,60628-5702
10498,11421 S Halsted,Chicago,IL,60628-5201
10499,656 River Oaks Dr,Calumet City,IL,60409-5712
10500,17810 S Torrence,Lansing,IL,60438-1836
10501,761 S Lake Street,Gary,IN,46403-2916
10502,6321 Ameriplex Drive,Portage,IN,46368
10503,6120 Central Avenue,Portage,IN,46368-3602
10504,243 Melton Road,Burns Harbor,IN,46304
10505,480 Indian Boundary Line Rd,Chesterton,IN,46304-1513
10506,1527 W 5th Ave,Gary,IN,46402
10507,1811 E Columbus Drive,East Chicago,IN,46312-2825
10508,3639 169th St,Hammond,IN,46323
10509,4745 Indianapolis Blvd,East Chicago,IN,46312-3327
10510,7420 Kennedy Avenue,Hammond,IN,46323
10511,5816 S Franklin St,Michigan City,IN,46360
10512,3507 S Franklin,Michigan City,IN,46361
10513,4615 Calumet Ave,Hammond,IN,46327
10514,6437 Columbia Ave,Hammond,IN,46320-2747
10515,1822 Indianapolis Blvd,Whiting,IN,46394-1327
10516,4047 East 106th Street,Chicago,IL,60617-6341
10517,164 Pine Lake Rd,La Porte,IN,46350
10518,200 Boyd Boulevard,La Porte,IN,46350
10519,5021 Western Avenue,South Bend,IN,46619-2311
10520,2771 Lincolnway E,Mishawaka,IN,46544-3535
10521,3520 Bremen Highway,Mishawaka,IN,46544-6500
10522,1011 W Mckinley,Mishawaka,IN,46545
10523,1850 Lincolnway E,South Bend,IN,46613-3423
10524,4711 S Miami,South Bend,IN,46614-3225
10525,2001 S Michigan St,South Bend,IN,46613-2317
10526,416 N Michigan St,South Bend,IN,46601-1228
10527,1519 North Ironwood Drive,South Bend,IN,46635
10528,1706 Elkhart Rd,Goshen,IN,46526-1940
10529,3429 S Main Street,Elkhart,IN,46517-3125
10530,18423 Us 20,Goshen,IN,46528
10531,21879 State Hwy 120,Elkhart,IN,46514
10532,1430 S Nappanee St,Elkhart,IN,46516
10533,130 N Main St,Elkhart,IN,46514
10534,57900 State Hwy 13,Middlebury,IN,46540
10535,613 Detroit St,Lagrange,IN,46761
10536,3021 W Maumee,Angola,IN,46703
10537,1100 E Main St,Montpelier,OH,43543-1266
10538,1650 N Wayne St,Angola,IN,46703
10539,2908 Navarre Ave,Oregon,OH,43616
10540,2700 Woodville Rd,Northwood,OH,43619-1447
10541,90 Main St,Toledo,OH,43605-2032
10542,1540 Broadway St,Toledo,OH,43609-2855
10543,1520 Cherry St,Toledo,OH,43608-2912
10544,835 Lime City Rd,Rossford,OH,43460-1613
10545,3008 Monroe St,Toledo,OH,43606
10546,567 Manhattan Blvd,Toledo,OH,43608-1270
10547,6555 Airport Hwy,Holland,OH,43528-9394
10548,7159 W Central Ave,Toledo,OH,43617
10549,1401 Arrowhead Rd,Maumee,OH,43537
10550,36 N Reynolds Rd,Toledo,OH,43615-5214
10551,2130 S Reynolds Rd,Toledo,OH,43614-1411
10552,3005 N Holland-Sylvania Rd,Toledo,OH,43615
10553,1405 S Byrne Rd,Toledo,OH,43614
10554,3138 Secor Rd,Toledo,OH,43606-1513
10555,5057 Monroe St,Toledo,OH,43623-3603
10556,1205 W Sylvania Ave,Toledo,OH,43612-1705
10557,7575 Auburn Rd,Concord Township,OH,44077
10558,430 Water St,Chardon,OH,44024-1208
10559,8775 Mentor Ave,Mentor,OH,44060-6209
10560,1582 Mentor Ave,Painesville,OH,44077-1705
10561,31115 Vine St,Willowick,OH,44095
10562,2841 Bishop Rd,Willoughby Hills,OH,44092
10563,36390 Euclid Ave,Willoughby,OH,44094-4454
10564,36141 Lakeshore Blvd,Eastlake,OH,44095
10565,8380 Broadmoor Road,Mentor,OH,44060-7508
10566,7700 Reynolds Rd,Mentor,OH,44060-5321
10567,350 E Main,Andover,OH,44003-9701
10568,1060 Park Ave,Meadville,PA,16335
10569,16830 Conneaut Lake Rd,Meadville,PA,16335
10570,420 S Franklin St,Titusville,PA,16354
10571,4360 Ny-42,Monticello,NY,12701
10572,Rte 52 West,Pinebush,NY,12566
10573,2577 South Road,Poughkeepsie,NY,12601
10574,1178 Route 9,Wappingers Falls,NY,12590
10575,1111 Ny-55,La Grangeville,NY,12540
10576,967 Rt 376,Wappingers Falls,NY,12590
10577,733 Main St,Poughkeepsie,NY,12603
10578,675 Queen St,Southington,CT,06489
10579,260 New Britian Ave,Plainville,CT,06062
10580,698 W Main Street,New Britain,CT,06051
10581,150 N Main St,Bristol,CT,06010
10582,646 Farmington Avenue,Bristol,CT,06011
10583,185 New Britain Rd,Berlin,CT,06037
10584,125 Berlin Rd,Cromwell,CT,06416
10585,40 Martin Luther King Jr Dr,New Britain,CT,06051
10586,30 Shunpike Rd,Cromwell,CT,06416
10587,2375 Berlin Tpke,Newington,CT,06111
10588,1994 Silas Deane Hwy,Rocky Hill,CT,06067
10589,184 Chase Ave,Waterbury,CT,06704
10590,321 Main St,Terryville,CT,06786
10591,15 E High St,East Hampton,CT,06424
10592,796 Norwich Road,Plainfield,CT,06374
10593,97 River Rd,Lisbon,CT,06351
10594,1100 Tiogue Ave,Coventry,RI,02816
10595,2500 New London Turnpike,East Greenwich,RI,02818
10596,1000 Division St,East Greenwich,RI,02818
10597,1853 S Main St,Fall River,MA,02724
10598,44 Wm S Canning Blvd,Fall River,MA,02721
10599,834 Brayton Ave,Fall River,MA,02721
10600,300 Plymouth Ave,Fall River,MA,02721
10601,135 Faunce Corner Rd,North Dartmouth,MA,02747
10602,179 Rocksdale Ave,South Dartmouth,MA,02714
10603,159 Hathaway Rd,New Bedford,MA,02746
10604,486 County St,New Bedford,MA,02740
10605,141 Coggeshall St,New Bedford,MA,02746
10606,1080 Kings Hwy,New Bedford,MA,02745
10607,14 Plaza Way,Fairhaven,MA,02719
10608,187 North Street,Hyannis,MA,02601
10609,654 Iyannough Road,Hyannis,MA,02601
10610,1060 Rt 28,South Yarmouth,MA,02664
10611,380 M St,Crescent City,CA,95531-4119
10612,2300 W Main St,Tremonton,UT,84337
10613,810 N Main St,Logan,UT,84321
10614,1035 S Hwy 89,Logan,UT,84321
10615,2225 Plaza Street,Rawlins,WY,82301-6027
10616,3525 Nw State Street,Ankeny,IA,50023
10617,401 Ankeny Blvd,Ankeny,IA,50023
10618,2502 Se Delaware Ave,Ankeny,IA,50021
10619,726 1st Avenue E,Newton,IA,50208-3306
10620,706 West St,Grinnell,IA,50112
10621,675 Pacha Parkway,North Liberty,IA,52241
10622,1804 Lincoln Way,Clinton,IA,52732
10623,606 E Lincoln Way,Morrison,IL,61270
10624,1003 1st Avenue,Rock Falls,IL,61071-1680
10625,2415 E Lincoln Way,Sterling,IL,61081-3049
10626,2095 W. Galena Blvd,Aurora,IL,60506
10627,350 W Galena Boulevard,Aurora,IL,60506
10628,339a Douglas Road,Oswego,IL,60543
10629,190 Hansen Boulevard,North Aurora,IL,60542
10630,1023 N Lake St,Aurora,IL,60506-2415
10631,711 E New York St,Aurora,IL,60505
10632,523 N State Route 47,Sugar Grove,IL,60554
10633,2890 Rt 34,Oswego,IL,60543
10634,1185 N Farnsworth,Aurora,IL,60505
10635,1298 S Naper Blvd,Naperville,IL,60540-8312
10636,892 W 75th St,Naperville,IL,60540
10637,1520 N Naper Blvd,Naperville,IL,60563-1502
10638,516 N River Rd,Naperville,IL,60540
10639,1019 Maple Ave,Lisle,IL,60532-2330
10640,4440 Fox Valley Shctr,Aurora,IL,60507
10641,2310 W 75th St,Woodridge,IL,60517-2301
10642,2401 63rd St,Woodridge,IL,60517
10643,100 N Bolingbrook Dr,Bolingbrook,IL,60440
10644,1376 N Route 59,Naperville,IL,60563
10645,840 E Boughton Road,Bolingbrook,IL,60440
10646,3232 S Rt 59,Naperville,IL,60564
10647,2535 Ogden Ave,Downers Grove,IL,60515
10648,425 N Eola,Aurora,IL,60504
10649,2595 Ogden Ave,Aurora,IL,60504
10650,2230 S Eola Road,Aurora,IL,60503
10651,1505 Butterfield Road,Aurora,IL,60504
10652,809 Plainfield Rd,Darien,IL,60561-4215
10653,31 E 63rd St,Westmont,IL,60559-2601
10654,9101 S Kingery Hwy,Burr Ridge,IL,60527
10655,225 E Ogden Ave,Downers Grove,IL,60515-3144
10656,5701 S Lagrange Rd,Countryside,IL,60525-4063
10657,7920 West 79th St,Bridgeview,IL,60455
10658,7701 South Harlem,Bridgeview,IL,60455
10659,7620 W 95th St,Hickory Hills,IL,60457
10660,8611 S Harlem Avenue,Bridgeview,IL,60455
10661,100 N La Grange Rd,La Grange,IL,60525
10662,6720 W Archer Ave,Chicago,IL,60638
10663,935 N York Rd,Hinsdale,IL,60521-2905
10664,7900 S Martin Luther King Dr,Chicago,IL,60619
10665,7601 S Vincennes Ave,Chicago,IL,60620-1622
10666,29 E 87th St,Chicago,IL,60619-6603
10667,6900 S Lafayette,Chicago,IL,60621-3782
10668,8321 South Ashland,Chicago,IL,60620
10669,1443 E 87th St,Chicago,IL,60619-6546
10670,9560 S Halsted Street,Chicago,IL,60628-1028
10671,6560 S Stoney Island Ave,Chicago,IL,60637
10672,6336 S Ashland,Chicago,IL,60636-2725
10673,1637 W 95th St,Chicago,IL,60643
10674,7832 S Western,Chicago,IL,60620-5822
10675,2425 E 79th St,Chicago,IL,60649
10676,70 E Garfield,Chicago,IL,60615-4613
10677,1951 E 95th St,Chicago,IL,60617
10678,9156 S. Western Ave,Evergreen Park,IL,60805
10679,6515 S Western Ave,Chicago,IL,60636
10680,5200 S Lake Park,Chicago,IL,60615
10681,8715 S Kedzie,Evergreen Park,IL,60805-1025
10682,9211 S Commercial,Chicago,IL,60617-4509
10683,740 E 47th St,Chicago,IL,60653
10684,1454 W 47th St,Chicago,IL,60609-3235
10685,5733 S Kedzie Ave,Chicago,IL,60639
10686,10320 S Kedzie Ave,Chicago,IL,60655-2016
10687,8415 S Pulaski Rd,Chicago,IL,60652-3119
10688,4158 S Ashland,Chicago,IL,60609-2330
10689,6737 South Pulaski Avenue,Chicago,IL,60629-4152
10690,2844 W. 47th Street,Chicago,IL,60632
10691,207 E 35th St,Chicago,IL,60653
10692,5355 W 79th St,Burbank,IL,60459-1452
10693,9128 South Cicero Avenue,Oak Lawn,IL,60453
10694,6430 S Cicero,Chicago,IL,60638
10695,6034 W 95th St,Oak Lawn,IL,60453-2734
10696,5253 S Pulaski,Chicago,IL,60632
10697,4704 S Cicero Avenue,Chicago,IL,60638
10698,2404 E Michigan Blvd,Michigan City,IN,46360
10699,3402 Portage Ave,South Bend,IN,46628
10700,813 Front St,Buchanan,MI,49107
10701,18881 Laporte Rd,New Buffalo,MI,49117
10702,52665 Sr 933,South Bend,IN,46637
10703,5704 Grape Rd,Mishawaka,IN,46545
10704,1203 11th St,Niles,MI,49120
10705,12880 St Rd 23,Granger,IN,46530
10706,68889 M 62,Edwardsburg,MI,49112
10707,2808 N Cassopolis St,Elkhart,IN,46514-5532
10708,103 Us Hwy 131,White Pigeon,MI,49099
10709,405 South Centerville Road,Sturgis,MI,49091-2055
10710,6800 N Old Us 27,Fremont,IN,46737
10711,5810 W Alexis Rd,Sylvania,OH,43560-2365
10712,6158 Us Hwy 223,Ottawa Lake,MI,49267
10713,1560 E Alexis Rd,Toledo,OH,43612-3952
10714,5210 N Summit St,Toledo,OH,43611-2214
10715,831 W Alexis Rd,Toledo,OH,43612-4303
10716,1727 W Laskey Rd,Toledo,OH,43613
10717,3350 W Sterns Rd,Lambertville,MI,48144-9738
10718,95 Richmond St,Painesville,OH,44077-3251
10719,5745 Heisley Road,Mentor,OH,44060
10720,6083 Andrews Rd,Mentor,OH,44060-2821
10721,559 River St,Madison,OH,44057
10722,6626 N Ridge Rd,Madison,OH,44057-2554
10723,1807 S Broadway,Geneva,OH,44041-8397
10724,104 N Chestnut Street,Jefferson,OH,44047
10725,2849 Gh Drive,Austinburg,OH,44010
10726,104 S Main St,Coudersport,PA,16915
10727,12 Charleston St,Wellsboro,PA,16901
10728,120 N Main St,Mansfield,PA,16933
10729,491 Elmira St,Troy,PA,16947
10730,624 Golden Mile Rd,Towanda,PA,18848
10731,58 Sullivan Ave,Liberty,NY,12754
10732,49 N Main St,Ellenville,NY,12428
10733,261 Main St,New Paltz,NY,12561
10734,650 Us Hwy 9w,Hyland,NY,12528
10735,3460 North Rd,Poughkeepsie,NY,12601
10736,4258 Albany Post Rd,Hyde Park,NY,12538
10737,1620 Main St,Pleasant Valley,NY,12569
10738,3078 Route 22,Dover Plains,NY,12522
10739,693 N Main St,Torrington,CT,06790
10740,1858 E Main St,Torrington,CT,06790
10741,1799 Farmington Ave,Unionville,CT,06085
10742,22 Albany Tpke,West Simsbury,CT,06092
10743,214 Prospect Ave,Hartford,CT,06106
10744,507 Flatbush Ave,Hartford,CT,06106
10745,635 Hartford Road,New Britain,CT,06053-1526
10746,1303 Albany Ave,Hartford,CT,06112
10747,172 Washington St,Hartford,CT,06106
10748,76 Brainard Rd,Hartford,CT,06114
10749,273 Cottage Grove Rd,Bloomfield,CT,06002
10750,98 Weston St,Hartford,CT,06120
10751,2915 Main St,Glastonbury,CT,06033
10752,1261 Burnside Ave,East Hartford,CT,06108
10753,184-188 Spencer St,Manchester,CT,06040
10754,70 W Center Rd,Manchester,CT,06040
10755,1221 Tolland Tpke,Manchester,CT,06040
10756,769 John Fitch Blvd,South Windsor,CT,06074
10757,144 Deming St,Manchester,CT,06040
10758,89 Talcotville Rd,Vernon,CT,06066
10759,1464 W Main,Willimantic,CT,06226
10760,118 Storrs Rd,Mansfield Center,CT,06250
10761,554 Providence Rd Rte 6,Danielson,CT,06239
10762,876 Bald Hill Rd,Warwick,RI,02886
10763,1820 Plainfield Pike,Cranston,RI,02921
10764,1099 Reservior Ave,Cranston,RI,02910
10765,1377 Atwood Ave,Johnston,RI,02919
10766,770 Post Rd,Warwick,RI,02888
10767,923 Cranston St,Cranston,RI,02910
10768,50 Plainfield St,Providence,RI,02909
10769,181 James Reynolds Road,Swansea,MA,02777
10770,631 Gar Hwy,Swansea,MA,02777
10771,636 Metacom Ave,Warren,RI,02885
10772,250 Highland Ave,Seekonk,MA,02771
10773,3020 Cranberry Hwy,Buzzards Bay,MA,02532
10774,370 Macarthur Blvd,Bourne,MA,02532
10775,15 Meetinghouse Ln,Sagamore Beach,MA,02562
10776,1690 President Ave,Fall River,MA,02720
10777,2390 Warwick Ave,Warwick,RI,02889
10778,1481 Broad St,Providence,RI,02905
10779,343 Broad St,Providence,RI,02907
10780,721 Taunton Ave,East Providence,RI,02914
10781,180 N Main,Smithfield,UT,84335
10782,419 West 27th Street,Scottsbluff,NE,69361
10783,1855 10th St,Gering,NE,69341
10784,1246 N Lincoln,West Point,NE,68788
10785,325 1st St,Perry,IA,50220-1933
10786,8905 Runway Ct Sw,Cedar Rapids,IA,52404
10787,610 33rd Avenue Sw,Cedar Rapids,IA,52404-3925
10788,1720 11th St,Dewitt,IA,52742
10789,729 N 2nd St,Clinton,IA,52732-3837
10790,207 N Galena,Dixon,IL,61021-2119
10791,I-88 Dekalb Oasis,Dekalb,IL,60115
10792,545 E Lincoln Hwy,Dekalb,IL,60115
10793,805 W Lincoln Hwy,Dekalb,IL,60115
10794,1120 North 7th Street,Rochelle,IL,61068
10795,892 Ranger Rd,Rochelle,IL,61068
10796,932 Center Avenue,Elburn,IL,60119
10797,1812 S Randall Rd,Geneva,IL,60134
10798,1915 W Main St,St. Charles,IL,60174
10799,125 W Wilson,Batavia,IL,60510
10800,40w225 State Route 64,St Charles,IL,60175
10801,1190 E State St,Geneva,IL,60134-2439
10802,305 S Neltnor,West Chicago,IL,60185-2927
10803,3900 E Main St,St. Charles,IL,60174
10804,89 W North Ave,West Chicago,IL,60185
10805,2s606 Rt 59,Warrenville,IL,60555
10806,355 S Schmale Rd,Carol Stream,IL,60188
10807,215 North Ave.,Glendale Heights,IL,60139
10808,445 W Roosevelt Rd,Glen Ellyn,IL,60137
10809,2030 S Naperville Rd,Wheaton,IL,60187-8171
10810,1335 County Farm Rd,Carol Stream,IL,60188
10811,3s010 Route 53,Glen Ellyn,IL,60137-7337
10812,292 E Army Trail Rd,Glendale Heights,IL,60139
10813,540 W North Ave,Lombard,IL,60148
10814,72 Stratford Square Dr,Bloomingdale,IL,60108-2201
10815,300 E Roosevelt Rd,Lombard,IL,60148-4628
10816,350 E. St. Charles Rd.,Villa Park,IL,60181
10817,410 W North Ave,Addison,IL,60101-4912
10818,1 Yorktown Shopping Center,Lombard,IL,60148
10819,2111 Midwest Rd,Oak Brook,IL,60523
10820,190 E Butterfield Rd,Elmhurst,IL,60126-5120
10821,501 W Lake St,Addison,IL,60101-2306
10822,5707 St Charles Rd,Berkeley,IL,60163-1113
10823,920 N York Rd,Elmhurst,IL,60126-5115
10824,1 E NORTH AVE,NORTHLAKE,IL,60164-2517
10825,520 25th Street,Bellwood,IL,60104
10826,4012 Roosevelt Rd,Hillside,IL,60162-1824
10827,507 Roosevelt Road,Maywood,IL,60153
10828,6200 Broadview Village Square,Broadview,IL,60155
10829,11 N 1st Ave,Maywood,IL,60153-1601
10830,11110 West 31st Street,Westchester,IL,60154
10831,8327 W. North Ave.,Melrose Park,IL,60160
10832,420 Des Plaines Ave,Forest Park,IL,60130
10833,2627 N Mannheim Rd,Franklin Park,IL,60131-3136
10834,7135 W Roosevelt Rd,Berwyn,IL,60402
10835,626 N Harlem,River Forest,IL,60305-1933
10836,9450 W Grand Ave,Franklin Park,IL,60131
10837,7181 W Cermak Rd,Berwyn,IL,60402-2103
10838,7850 Ogden Ave,Lyons,IL,60534
10839,7217 W Grand Avenue,Elmwood Park,IL,60707
10840,6401 Cermak Rd,Berwyn,IL,60402-2309
10841,111 W Madison St,Oak Park,IL,60302-4205
10842,7031 Ogden Ave,Berwyn,IL,60402
10843,9449 W Irving Park Rd,Schiller Park,IL,60176
10844,5015 W Madison,Chicago,IL,60644
10845,5624 W Roosevelt Rd,Chicago,IL,60644
10846,5153 W Chicago Ave,Chicago,IL,60651-2904
10847,5500 W Cermak Rd,Cicero,IL,60804
10848,4334 West 26th Street,Chicago,IL,60623
10849,3200 W Roosevelt,Chicago,IL,60624-4332
10850,5133 W North Ave,Chicago,IL,60639-4435
10851,2827 S Cicero,Cicero,IL,60804
10852,4338 W North Ave,Chicago,IL,60639-4855
10853,2609 S Kedzie Ave,Chicago,IL,60623-4731
10854,3241 W North Avenue,Chicago,IL,60641
10855,2317 N Cicero,Chicago,IL,60639-3329
10856,23 N Western Avenue,Chicago,IL,60612-2200
10857,2315 W. Ogden Ave,Chicago,IL,60608
10858,2350 N Central,Chicago,IL,60639-2934
10859,2438 W Cermak,Chicago,IL,60623
10860,4601 W Diversey,Chicago,IL,60639
10861,2005 W Chicago Ave,Chicago,IL,60622-5549
10862,2754 N Narragansett,Chicago,IL,60639
10863,1951 N Western Ave,Chicago,IL,60647-4331
10864,2707 N Milwaukee Ave,Chicago,IL,60647
10865,111 W Jackson,Chicago,IL,60604
10866,23 S Clark,Chicago,IL,60603
10867,180 W Adams,Chicago,IL,60603-3602
10868,203 N Lasalle St,Chicago,IL,60601
10869,233 N Michigan,Chicago,IL,60601
10870,600 N Clark,Chicago,IL,60610-3702
10871,645 N Mcclurg Ct,Chicago,IL,60611-3000
10872,600 E GRAND AVE (Navy Pier),Chicago,IL,60611
10873,10 E Chicago Ave,Chicago,IL,60611-2009
10874,1035 W Randolph,Chicago,IL,60607
10875,2525 S Martin Luther King Dr,Chicago,IL,60616
10876,1380 W Lake Street,Chicago,IL,60607
10877,1664 S Blue Island,Chicago,IL,60608
10878,1563 N Wells,Chicago,IL,60610
10879,3020 S Halsted St,Chicago,IL,60608
10880,2635 N Clark St,Chicago,IL,60614-1524
10881,1737 W Fullerton,Chicago,IL,60614
10882,2834 N Ashland Ave,Chicago,IL,60657-4042
10883,3867 Archer Ave,Chicago,IL,60632-1005
10884,10280 Red Arrow Hwy,Bridgman,MI,49106
10885,575 Saint Joseph Rd,Berrien Springs,MI,49103
10886,717 E State St,Cassopolis,MI,49031
10887,1016 West Michigan Ave,Three Rivers,MI,49093-2165
10888,122 W Chicago,Quincy,MI,49082
10889,708 East Chicago Street,Bronson,MI,49028
10890,220 W Carleton Rd,Hillsdale,MI,49242-5034
10891,381 E Chicago St,Coldwater,MI,49036-2044
10892,503 S Meridian St,Hudson,MI,49247
10893,1080 East Us Highway 223,Adrian,MI,49221
10894,1235 N Main St,Adrian,MI,49221-1722
10895,511 E Adrian St,Blissfield,MI,49228
10896,1001 South Monroe Street,Monroe,MI,48161-3930
10897,1180 Dixie Highway,Monroe,MI,48161
10898,1533 N Telegraph Rd,Monroe,MI,48161-3341
10899,2424 E Prospect,Ashtabula,OH,44004-6358
10900,918 Lake Ave,Ashtabula,OH,44004-2926
10901,2 Loves Drive,Conneaut,OH,44030
10902,10541 Route 6n,Albion,PA,16401
10903,120 E Plum St,Edinboro,PA,16412
10904,61 N Main St,Union City,PA,16438
10905,314 W Columbus,Corry,PA,16407
10906,75 Market St,Warren,PA,16365
10907,494 Grow Ave,Montrose,PA,18801
10908,1550 Oliver Rd,New Milford,PA,18834
10909,555 Albany Ave,Kingston,NY,12401
10910,15 S Main St Rte 44,Winsted,CT,06098
10911,350 Bloomfield Ave,Windsor,CT,06095
10912,Hartford-Bradley Airport - BDL,Windsor Locks,CT,06096
10913,195 Turnpike Rd,Windsor Locks,CT,06096
10914,74 Reservoir Road,Rockville,CT,06066
10915,135 West Road,Ellington,CT,06029
10916,445 Putnam Pike,Greenville,RI,02828
10917,1141 Killingly Cmns,Killingly,CT,06241
10918,6 Providence Turnpike Rte 44,Putnam,CT,06260
10919,1920 Mineral Spring Ave,North Providence,RI,02904
10920,736 Branch Ave,Providence,RI,02904
10921,622 George Washington Hwy,Lincoln,RI,02865
10922,255 Mineral Springs Ave,Pawtucket,RI,02861
10923,649 N Main St,Providence,RI,02904
10924,282 Winthrop St,Taunton,MA,02780
10925,365 New State Hwy,Raynham,MA,02767
10926,14 E Clark St,Middleboro,MA,02346
10927,285 Armistice Blvd,Pawtucket,RI,02861
10928,72 Newport Ave,East Providence,RI,02916
10929,444 Washington Street,Attleboro,MA,02703
10930,100 Mendon Rd,Cumberland,RI,02864
10931,531 Pleasant St,Attleboro,MA,02703
10932,96 N Main St,North Carver,MA,02330
10933,RTE 3 South (Service Plaza),Plymouth,MA,02360
10934,815 Chetco Ave,Brookings,OR,97415-0250
10935,800 East Valley Highway,Torrington,WY,82240
10936,813 S 13th St,Norfolk,NE,68701-5747
10937,1205 Riverside Blvd,Norfolk,NE,68701
10938,2720 Iowa Ave N,Onawa,IA,51040
10939,912 W Highway 30 St,Carroll,IA,51401
10940,500 Hwy 39 N,Denison,IA,51442
10941,1227 S Marshall,Boone,IA,50036-5306
10942,3621 Lincoln Way,Ames,IA,50010-7534
10943,3402 S Center St,Marshalltown,IA,50158
10944,129 South Duff,Ames,IA,50010
10945,1815 B Ave S,Nevada,IA,50201
10946,4520 First Ave Ne,Cedar Rapids,IA,52402
10947,5725 Dry Creek Ln Ne,Cedar Rapids,IA,52402
10948,5493 Business Hwy 151,Marion,IA,52302
10949,5200 Edgewood Rd Ne,Cedar Rapids,IA,52411
10950,2615 Williams Blvd Sw,Cedar Rapids,IA,52404-1549
10951,1019 W Platt St,Maquoketa,IA,52060-2041
10952,211 S 4th St,Oregon,IL,61061
10953,1660 Dekalb Ave,Sycamore,IL,60178-2706
10954,453 Redington Drive,South Elgin,IL,60177
10955,255 S Randall Rd,Elgin,IL,60123
10956,100 N Mclean Blvd,South Elgin,IL,60177
10957,1480 Larkin Ave,Elgin,IL,60123
10958,1165 N Mclean Blvd,Elgin,IL,60123
10959,816 Saint Charles Rd,Elgin,IL,60120
10960,791 S Rt 59,Bartlett,IL,60103
10961,401 Summit St,Elgin,IL,60120
10962,91 W Irving Park Rd,Streamwood,IL,60107
10963,7455 Barrington Rd.,Hanover Park,IL,60133
10964,3067 Mannheim Road,Des Plaines,IL,60018-3605
10965,6150 N River Rd,Rosemont,IL,60018
10966,O'Hare Airport - ORD TERM 5 Arrivals,Chicago,IL,60666
10967,1101 Oakton Street,Des Plaines,IL,60018
10968,O'Hare Airport - ORD TERM 3 CONC L,Chicago,IL,60666
10969,1032 N Northwest Hwy,Park Ridge,IL,60068-1831
10970,O'Hare Airport - ORD TERM 3 CONC K,Chicago,IL,60666
10971,O'Hare Airport - ORD TERM 1 CONC B,Chicago,IL,60666
10972,O'Hare - ORD TERM 3 CONC H/K Food Court,Chicago,IL,60666
10973,O'Hare Airport - ORD TERM 3 CONC H,Chicago,IL,60666
10974,O'Hare Airport - ORD TERM 2 CONC E/F,Chicago,IL,60666
10975,O'Hare Airport - ORD TERM 1 CONC C,Chicago,IL,60666
10976,444 S River Rd,Des Plaines,IL,60016-4731
10977,4550 N Cumberland,Chicago,IL,60656
10978,8460 Dempster Ave,Niles,IL,60648
10979,7969 N Milwaukee Ave,Niles,IL,60648
10980,5022 N Harlem Ave,Harwood Heights,IL,60656
10981,1450 Busse Rd,Elk Grove Village,IL,60007-5324
10982,9815 N Milwaukee Ave,Glenview,IL,60016
10983,1912 E Higgins Rd,Elk Grove Village,IL,60007-2503
10984,302 W Irving Park Road,Bensenville,IL,60106
10985,725 W Golf Rd,Des Plaines,IL,60016-2414
10986,4104 N HARLEM AVE (Harlem Irving Plaza),Norridge,IL,60706-1244
10987,6125 N Milwaukee Ave,Chicago,IL,60646
10988,630 N Rt 83,Bensenville,IL,60106
10989,3540 N Harlem Ave,Chicago,IL,60634-3629
10990,6400 W Montrose,Harwood Heights,IL,60634
10991,10 Biesterfield Road,Elk Grove Village,IL,60007-3668
10992,1301 E Irving Park Rd,Itasca,IL,60143
10993,947 Meacham Rd.,Elk Grove Village,IL,60007
10994,45 E Golf Rd,Arlington Heights,IL,60005-4001
10995,439 E Irving Park Road,Roselle,IL,60172-2001
10996,1775 Algonquin Rd,Rolling Meadows,IL,60008-4112
10997,550 S Roselle Rd,Schaumburg,IL,60193
10998,955 E Golf Rd,Schaumburg,IL,60173
10999,101 E Lake St,Bloomingdale,IL,60108
11000,1070 Roselle Road,Hoffman Estates,IL,60169
11001,3140 Kirchoff Rd,Rolling Meadows,IL,60008
11002,1050 E Lake St,Hanover Pk,IL,60133-5408
11003,2545 W Schaumburg Rd,Schaumburg,IL,60193
11004,2580 W Golf Rd,Hoffman Estates,IL,60194
11005,2270 W Higgins Rd,Hoffman Estates,IL,60169
11006,6231 N Broadway,Chicago,IL,60660-1902
11007,5130 N Sheridan Rd,Chicago,IL,60640-3114
11008,6740 N Clark,Chicago,IL,60626-3211
11009,5614 N Clark St,Chicago,IL,60660-4109
11010,1831 W Devon,Chicago,IL,60660
11011,1004 W Wilson,Chicago,IL,60640-5615
11012,6900 N Western Ave,Chicago,IL,60645-4711
11013,1117 Howard Street,Evanston,IL,60202
11014,4844 N Lincoln Ave,Chicago,IL,60625-1934
11015,3610 N. Clark St.,Chicago,IL,60613
11016,3122 W Touhy Ave,Chicago,IL,60645-2836
11017,3241 W Peterson,Chicago,IL,60659
11018,3154 W Foster,Chicago,IL,60625-4107
11019,1919 W Dempster,Evanston,IL,60202-4069
11020,4546 N Kedzie Ave,Chicago,IL,60625
11021,2600 West Addison,Chicago,IL,60618-5905
11022,3855 W Lawrence Ave,Chicago,IL,60625-6228
11023,5360 Touhy Ave,Skokie,IL,60077-3246
11024,4946 N Milwaukee Avenue,Chicago,IL,60630-2115
11025,4320 N Cicero,Chicago,IL,60651
11026,4830 Dempster Street,Skokie,IL,60077-2253
11027,6309 West Dempster Street,Morton Grove,IL,60053
11028,5656 W Irving Park Rd,Chicago,IL,60634-2741
11029,3615 W Irving Park Rd,Chicago,IL,60618-4125
11030,3548 N Cicero Ave,Chicago,IL,60641
11031,4038 W Belmont Ave,Chicago,IL,60641-4702
11032,652 Spruce St,Dowagiac,MI,49047
11033,115 W Chicago St,Jonesville,MI,49250
11034,1206 West Chicago Blvd,Tecumseh,MI,49236
11035,542 Tecumseh St,Dundee,MI,48131-1054
11036,9123 West Ridge Rd,Girard,PA,16417
11037,312 State St,Conneaut,OH,44030-2572
11038,7200 Peach St,Erie,PA,16509
11039,2065 Interchange Rd,Erie,PA,16509-0015
11040,7855 Perry Hwy,Erie,PA,16509
11041,141 Main St,Bradford,PA,16701
11042,461 N Keystone Avenue,Sayre,PA,18840
11043,1600 Cedar St,Elmira,NY,14904
11044,7774 Nys Rt 434,Apalachin,NY,13732
11045,25008 Us-11,Halstead,PA,18822
11046,86 W Main St,Hancock,NY,13783
11047,1232 Ulster Ave,Kingston,NY,12401
11048,18 Main St,North Canaan,CT,06018
11049,214 College Hwy,Southwick,MA,01077
11050,97 Elm St,Enfield,CT,06082
11051,28 Hazard Ave,Enfield,CT,06082
11052,34 Enfield St,Enfield,CT,06082
11053,868 Suffield Street,Agawam,MA,01001
11054,585 Hazard Ave,Enfield,CT,06082
11055,89 W Stafford Rd,Stafford Springs,CT,06076
11056,44 E Main St,Webster,MA,01570
11057,515 E Main St,Southbridge,MA,01550
11058,200 Quaker Hwy,Uxbridge,MA,01569
11059,12 Eddie Dowling Hwy,North Smithfield,RI,02896
11060,1900 Diamond Hill Rd,Woonsocket,RI,02895
11061,1754 Mendon Rd,Cumberland,RI,02864
11062,226 E Washington Street,North Attleborough,MA,02760
11063,9 Taunton St,Plainville,MA,02762
11064,345 E Central St,Franklin,MA,02038
11065,947 Broadway,Raynham,MA,02767
11066,175 Mansfield Ave,Norton,MA,02766
11067,222 Broad Street,Bridgewater,MA,02324
11068,715 Belmont St,Brockton,MA,02301
11069,323 Bedford Street,Whitman,MA,02333
11070,143 Samoset St,Plymouth,MA,02360
11071,178 Summer St,Kingston,MA,02364
11072,318 Liberty St,Hanson,MA,02341
11073,1449 W 3rd Ave,Alliance,NE,69301-3127
11074,1620 Broad St,Story City,IA,50248-1565
11075,308 K Avenue South,Vinton,IA,52349
11076,698 Grain Lane,Center Point,IA,52213
11077,160 Chamber Dr,Anamosa,IA,52205
11078,1240 Chicago Ave,Savanna,IL,61074
11079,105 N Union Street,Byron,IL,61010
11080,704 E Main St,Genoa,IL,60135
11081,19 N 649 Us Rt 20,Hampshire,IL,60140
11082,12242 S Route 47,Huntley,IL,60142
11083,10711 Rt 47,Huntley,IL,60142
11084,227 W Northwest Hwy,Barrington,IL,60010-3168
11085,275 W Northwest Hwy,Palatine,IL,60067-2412
11086,653 S Rand Rd,Lake Zurich,IL,60047-2468
11087,775 E Algonquin Rd,Schaumburg,IL,60173
11088,1576 N. Rand Rd.,Palatine,IL,60074
11089,1660 Kennedy Dr,Carpentersville,IL,60110
11090,386 8th St,West Dundee,IL,60118-2248
11091,500 E Algonquin Rd,Algonquin,IL,60102
11092,2290 Randall Rd,Carpentersville,IL,60110
11093,840 Northwest Hwy,Fox River Grove,IL,60021
11094,125 S Randall Rd,Algonquin,IL,60102
11095,1920 N Arlington Heights Rd,Arlington Heights,IL,60004-3107
11096,15 E Dundee Rd,Arlington Heights,IL,60004-1539
11097,1570 E Northwest Hwy,Palatine,IL,60074-7609
11098,1355 Lake Cook Road,Wheeling,IL,60090
11099,1200 N Arlington Heights Rd,Buffalo Grove,IL,60089
11100,13 W Rand Rd,Mt Prospect,IL,60056
11101,188 E Dundee Rd,Wheeling,IL,60090-3033
11102,858 Greenbay Rd,Winnetka,IL,60093-1853
11103,200 Skokie Blvd,Northbrook,IL,60062
11104,530 S Waukegan Rd,Glenview,IL,60025
11105,50 S Waukegan Rd,Deerfield,IL,60015-5216
11106,1988 1st Ave,Highland Park,IL,60035-3135
11107,2741 Pfingsten Road,Glenview,IL,60026-1152
11108,1200 S Milwaukee,Wheeling,IL,60070-6310
11109,2587 Waukegan Road,Bannockburn,IL,60015
11110,2820 Niles Ave,St. Joseph,MI,49085
11111,2020 Pipestone Rd,Benton Harbor,MI,49022
11112,61678 County Road 687,Hartford,MI,49057-8678
11113,710 North Grand Street,Schoolcraft,MI,49087
11114,150 East Ryno Road,Coloma,MI,49038-9720
11115,15286 M60,Tekonsha,MI,49092
11116,306 S Main St,Brooklyn,MI,49230-9307
11117,7847 E Michigan Ave,Saline,MI,48176
11118,1177 Dexter Street,Milan,MI,48160
11119,27255 Telegraph Rd,Flat Rock,MI,48134-1010
11120,3355 West Rd,Trenton,MI,48183-2343
11121,3421 Biddle Ave,Wyandotte,MI,48192-6222
11122,16515 Fort Street,Southgate,MI,48195
11123,22172 West Rd,Woodhaven,MI,48183
11124,20815 Gibraltar Rd,Brownstown,MI,48183-5086
11125,19051 Telegraph Road,Brownstown Twp,MI,48174
11126,23333 Eureka Rd,Taylor,MI,48180
11127,4316 Buffalo Rd,Erie,PA,16510
11128,2529 Broad St,Erie,PA,16501
11129,1115 Sassafras St,Erie,PA,16501
11130,4319 Peach St,Erie,PA,16509
11131,909 Peninsula Dr,Erie,PA,16505
11132,2643 West 26th Street,Erie,PA,16506
11133,957 Fairmont Ave,Jamestown,NY,14701
11134,2803 North Main Extension,Jamestown,NY,14701
11135,704 Foote Ave,Jamestown,NY,14701
11136,2510 W State Street,Olean,NY,14760
11137,735 Broad St,Salamanca,NY,14779
11138,500 Bolivar Rd,Wellsville,NY,14895
11139,80 Denison Pky,Corning,NY,14830
11140,143 E High St,Painted Post,NY,14870
11141,410-15 N Main St,Elmira,NY,14901
11142,2152 Grand Central Avenue,Horseheads,NY,14845
11143,3327 Chambers Rd,Horseheads,NY,14845
11144,603 E Main St,Endicott,NY,13760
11145,560 Harry L Dr,Johnson City,NY,13790
11146,3136 Vestal Pky E,Vestal,NY,13850
11147,339 Main St,Johnson City,NY,13790
11148,167 Main St,Binghamton,NY,13905
11149,704 Front Street,Binghamton,NY,13905
11150,29 Hickories Park Rd,Owego,NY,13827
11151,488 490th Court St,Binghamton,NY,13904
11152,30 North Rd,Windsor,NY,13865
11153,205 Delaware St,Walton,NY,13856
11154,350 Rt 212,Saugerties,NY,12477
11155,182 N Elm St,Westfield,MA,01085
11156,299 E Main,Westfield,MA,01085
11157,1184 Thorndike St,Palmer,MA,01069
11158,Mass TPKE / I-90 East (Service Plaza),Ludlow,MA,01056
11159,364 Main St,Sturbridge,MA,01566
11160,Mass TPKE / I-90 East (Service Plaza),Charlton City,MA,01508
11161,352 Riverdale Rd,West Springfield,MA,01089
11162,2392 Main St,Springfield,MA,01107-1906
11163,660 Liberty St,Springfield,MA,01103
11164,429 Memorial Ave,West Springfield,MA,01089
11165,1361 Liberty St,Springfield,MA,01104-1170
11166,777 Meadow St,Chicopee,MA,01013
11167,782 State St,Springfield,MA,01105
11168,360 Main St,Springfield,MA,01105
11169,233 Whiting Farms Road,Holyoke,MA,01040
11170,771 Page Blvd,Springfield,MA,01104-3036
11171,2194 N Hampton St,Holyoke,MA,01040
11172,639 Memorial Drive,Chicopee,MA,01020
11173,350 Burnett Rd,Chicopee,MA,01020
11174,809 Boston Rd,Springfield,MA,01109
11175,1610 Boston Post Rd,Springfield,MA,01119
11176,1402 Allen Street,Springfield,MA,01118-1806
11177,420 Center St,Ludlow,MA,01056
11178,38 Worcester Road,Charlton,MA,01507
11179,Mass TPKE / I-90 West (Service Plaza),Charlton,MA,01507
11180,26 A Sutton Ave,Oxford,MA,01540
11181,1190 Providence Rd,Whitinsville,MA,01588
11182,139 S Main St,Milford,MA,01757
11183,143 Medway Rd,Milford,MA,01757
11184,272 Hartford St,Bellingham,MA,02019
11185,808 Main St,Millis,MA,02054
11186,908 N Montello St,Brockton,MA,02301
11187,664 Crescent St Route 27,Brockton,MA,02302
11188,8 Highland Ave,Randolph,MA,02368
11189,334 N Pearl St,Brockton,MA,02301
11190,117 Market St,Rockland,MA,02370
11191,422 Washington St,Stoughton,MA,02072
11192,12 Pearl St,Braintree,MA,02184
11193,212 North St,Foxboro,MA,02035
11194,595 Main St,Walpole,MA,02081
11195,1600 Providence Hwy,Norwood,MA,02062
11196,41 Washington St,Canton,MA,02021
11197,32 Broadway,Norwood,MA,02062
11198,1392 Washington St,Hanover,MA,02339
11199,59 Washington St (Ma-53),Norwell,MA,02061
11200,2121 Ocean St,Marshfield,MA,02050
11201,221 Fern Valley Rd,Medford,OR,97501
11202,295 E Barnett,Medford,OR,97501
11203,2481 Campus Dr,Klamath Falls,OR,97601-1102
11204,1874 Avalon Blvd,Klamath Falls,OR,97601
11205,617 Tomar Dr,Wayne,NE,68787
11206,1710 S West Ave,Freeport,IL,61032-6783
11207,1300 W Galena,Freeport,IL,61032
11208,103 Capriola Pky,Winnebago,IL,61088
11209,I-90 Belvidere Oasis,Belvidere,IL,61008-9260
11210,240 W Chyrsler Dr,Belvidere,IL,61008
11211,1313 N State St,Belvidere,IL,61008-2002
11212,1441 Kishwaukee St,Rockford,IL,61104-4844
11213,1032 E State St,Rockford,IL,61104
11214,3710 Auburn St,Rockford,IL,61101
11215,3237 11th St,Rockford,IL,61109-2203
11216,2622 Charles St,Rockford,IL,61108-1638
11217,4365 11th St,Rockford,IL,61109-3027
11218,4403 Harrison Avenue,Rockford,IL,61108-7927
11219,4623 State St,Rockford,IL,61108
11220,930 W Riverside Blvd,Rockford,IL,61103
11221,420 S Perryville Rd,Rockford,IL,61108-2528
11222,200 W Grant Hwy,Marengo,IL,60152
11223,314 N Mulford Rd,Rockford,IL,61107-5158
11224,6995 E Riverside Blvd,Rockford,IL,61114-4431
11225,3858 Northridge Dr,Rockford,IL,61114-4772
11226,6000 N 2nd St,Loves Park,IL,61111
11227,250 S Eastwood Dr,Woodstock,IL,60098
11228,230 N Rt 31,Crystal Lake,IL,60014
11229,678 Northwest Hwy,Cary,IL,60013
11230,600 W State Rd,Island Lake,IL,60042
11231,551 Crystal Point Dr,Crystal Lake,IL,60014-8005
11232,7617 Rt 14,Crystal Lake,IL,60012
11233,511 W Liberty St,Wauconda,IL,60084-2470
11234,302 South Route 31,Mchenry,IL,60050
11235,123 Quentin Road,Lake Zurich,IL,60047
11236,665 S Rt 83,Mundelein,IL,60060
11237,31667 Hwy 12,Volo,IL,60073
11238,894 Sheridan Rd,Highwood,IL,60040-1003
11239,450 Town Line Rd,Mundelein,IL,60060
11240,151 N Lake St,Mundelein,IL,60060-2203
11241,700 N Milwaukee,Vernon Hills,IL,60061
11242,1417 W Peterson,Libertyville,IL,60048
11243,1330 N Milwaukee Ave,Libertyville,IL,60048-1309
11244,450 Milwaukee Ave,Lincolnshire,IL,60069-3046
11245,I-94 Lake Forest Oasis,Mettawa,IL,60045
11246,28929 N Waukegan Rd,Lake Bluff,IL,60044
11247,30388 N Skokie Hwy,Lake Bluff,IL,60044
11248,2211 Greenbay Road,North Chicago,IL,60064-3006
11249,2601 Paul Jones St (Naval Station),Great Lakes,IL,60088
11250,21 W Monroe,Bangor,MI,49013
11251,829 S Kalamazoo,Paw Paw,MI,49079-9230
11252,5296 S 9th St,Kalamazoo,MI,49009-9503
11253,6820 W Main,Kalamazoo,MI,49009
11254,10280 Miller Drive,Galesburg,MI,49053
11255,3900 Sprinkle Rd,Kalamazoo,MI,49001
11256,8050 Portage Rd,Portage,MI,49081
11257,3320 S Westnedge,Kalamazoo,MI,49008-2903
11258,6925 S Westnedge Ave,Portage,MI,49002
11259,5530 Gull Rd,Kalamazoo,MI,49001-1017
11260,224 Kalamazoo Ave,Kalamazoo,MI,49007
11261,6079 B Dr N,Battle Creek,MI,49057
11262,2593 Capital Ave Sw,Battle Creek,MI,49015-4160
11263,1160 E Michigan Ave,Battle Creek,MI,49014
11264,15901 11 Mile Road,Battle Creek,MI,49014
11265,4310 Stadium Dr,Kalamazoo,MI,49007
11266,5394 W Main St,Kalamazoo,MI,49006
11267,812 W Columbia,Battle Creek,MI,49015-3030
11268,121 E Main St,Spring Arbor,MI,49283
11269,1260 W Michigan Ave,Marshall,MI,49068-1463
11270,1507 N Eaton St,Albion,MI,49224-9462
11271,1535 S Main,Chelsea,MI,48118-1410
11272,2601 Airport Rd,Jackson,MI,49202-1237
11273,1909 W Michigan,Jackson,MI,49202-4008
11274,1105 N West Ave,Jackson,MI,49202-2046
11275,407 W Prospect,Jackson,MI,49203-4008
11276,3425 Lansing Ave,Jackson,MI,49201
11277,3310 E Michigan Ave,Jackson,MI,49202-3854
11278,3536 Page Avenue,Jackson,MI,49203
11279,6011 Ann Arbor Rd,Jackson,MI,49201-8884
11280,101 Baker Rd,Dexter,MI,48130
11281,373 North Zeeb Road,Ann Arbor,MI,48103
11282,2310 W Stadium Blvd,Ann Arbor,MI,48103
11283,9777 Wayne Road,Romulus,MI,48174-1550
11284,8019 Merriman Rd,Romulus,MI,48174
11285,Detroit Metro Airport - DTW NORTH TERM,Romulus,MI,48242
11286,35111 Michigan Ave W,Wayne,MI,48184
11287,9273 Middlebelt Rd,Romulus,MI,48174-2510
11288,Detroit Metro Airpt - DTW MCNAMARA TERM,Romulus,MI,48242
11289,1675 S Wayne Rd,Westland,MI,48186
11290,40241 Michigan Ave,Canton Township,MI,48188
11291,33921 Ford Rd,Westland,MI,48185-3006
11292,26730 Eureka Rd,Taylor,MI,48180-4833
11293,10236 S Telegraph Road,Taylor,MI,48180-3330
11294,3001 Lohr Rd,Ann Arbor,MI,48108
11295,3325 Washtenaw,Ann Arbor,MI,48104
11296,3811 Carpenter Rd,Ypsilanti,MI,48197
11297,2675 Plymouth,Ann Arbor,MI,48105
11298,4775 Washtenaw Blvd,Ann Arbor,MI,48108
11299,5550 W Michigan Ave,Ypsilanti,MI,48197
11300,21300 Ecorse Rd,Taylor,MI,48180-1852
11301,10945 Allen Road,Allen Park,MI,48101-1141
11302,4145 S Telegraph Rd,Dearborn Heights,MI,48125
11303,15405 Southfield Rd,Allen Park,MI,48101
11304,2106 Dix Hwy,Lincoln Park,MI,48146-2219
11305,18787 Northline Rd,Southgate,MI,48195
11306,25341 Michigan Ave At Gulley,Dearborn,MI,48124
11307,4001 Oakwood,Melvindale,MI,48122
11308,1469 Fort St,Lincoln Park,MI,48146-1800
11309,4180 Fort St,Lincoln Park,MI,48146
11310,14845 Eureka Road,Southgate,MI,48195-2001
11311,16 Ecorse Rd,Ypsilanti,MI,48198-5711
11312,166 James L Hart Pkwy,Ypsilanti,MI,48197
11313,2193 Rawsonville Rd,Belleville,MI,48111
11314,10995 W Jefferson Ave,River Rouge,MI,48229
11315,1101 Springwells,Detroit,MI,48209-1928
11316,6003 West Vernor Highway,Detroit,MI,48209-2059
11317,45510 Michigan Ave,Canton,MI,48188
11318,10760 Belleville Road,Belleville,MI,48111
11319,44900 Ford Rd,Canton,MI,48187-2939
11320,12185 E Main Rd,North East,PA,16428
11321,97 Genesee St,Cuba,NY,14727
11322,141 Delaware Ave,Sidney,NY,13838
11323,3 Main St,Delhi,NY,13753
11324,149 Fairview Ave,Hudson,NY,12534
11325,7621 Ny-32,Cairo,NY,12413
11326,55 Maple Avenue Rte 9w,Catskill,NY,12414
11327,302 Stockbridge Rd,Great Barrington,MA,01230
11328,245 Housatonic St,Lee,MA,01238
11329,Mass TPKE / I-90 East (Service Plaza),Lee,MA,01238
11330,Mass TPKE / I-90 West (Service Plaza),Lee,MA,01238
11331,Mass TPKE / I-90 West (Service Plaza),Blandford,MA,01008
11332,Mass TPKE / I-90 East (Service Plaza),Blandford,MA,01008
11333,1460 Memorial Drive,Chicopee,MA,01020-3964
11334,148 N Main St,Belchertown,MA,01007
11335,121 N Hampton St,Easthampton,MA,01027
11336,285 Maple St,Holyoke,MA,01040
11337,221 King St,Northampton,MA,01060
11338,117 W St,Ware,MA,01082
11339,59 W Main St,Spencer,MA,01562
11340,595 Mill St,Worcester,MA,01603
11341,995 Main Street,Worcester,MA,01603-2418
11342,72 Auburn Street,Auburn,MA,01501-2458
11343,529 Southwest Cutoff,Worcester,MA,01607
11344,465 Shrewsbury St,Worcester,MA,01604
11345,225 Pond St,Ashland,MA,01721
11346,1245 WORCESTER ST (Natick Mall),Natick,MA,01760-1515
11347,343 Cochituate Rd,Framingham,MA,01701
11348,290 Worcester Street,Natick,MA,01760
11349,Mass TPKE / I-90 East (Service Plaza),Natick,MA,01760
11350,1223 Worcester Road,Framingham,MA,01701
11351,Mass TPKE / I-90 West (Service Plaza),Framingham,MA,01701
11352,340 Chestnut St,Needham,MA,02492
11353,31 Providence Hwy,Norwood,MA,02062
11354,1650 Vfw Pky,West Roxbury,MA,02132
11355,111 Needham Street,Newton,MA,02158
11356,I-95 / RTE 128 South (Service Plaza),Newton,MA,02462
11357,299 Turnpike Rd,Westboro,MA,01581
11358,166 East Main Street,Westboro,MA,01581
11359,1312 Hyde Park Ave,Hyde Park,MA,02136
11360,718 American Lgn Hwy,Roslindale,MA,02131
11361,605 Washington St,Dorchester,MA,02124
11362,515 Gallivan Blvd,Dorchester,MA,02124
11363,1513 Dorche Ster Ave,Dorchester,MA,02122
11364,3064 Washington St,Roxbury,MA,02119
11365,275 Hancock St,Quincy,MA,02171
11366,301 Warren St,Roxbury,MA,02119
11367,982 Grafton Street,Worcester,MA,01604-2034
11368,548 Lincoln St,Worcester,MA,01608
11369,766 W Boylston St,Worcester,MA,01606
11370,473 Southern Artery,Quincy,MA,02169
11371,715 Bridge St,North Weymouth,MA,02191
11372,90 Main St,Weymouth,MA,02188
11373,1610 Allen Creek Road,Grants Pass,OR,97527
11374,204 Ne Beacon Dr,Grants Pass,OR,97526-3842
11375,43 S 9th St,Central Point,OR,97502
11376,3611 Crater Lake Hwy,Medford,OR,97504
11377,1140 Biddle Rd,Medford,OR,97504
11378,7421 Crater Lake Hwy,White City,OR,97503
11379,2816 Singing Hills Blvd,Sioux City,IA,51111-1034
11380,2339 Jamestown Ave,Independence,IA,50644
11381,957 Gear St,Galena,IL,61036
11382,601 E North Ave,Stockton,IL,61085
11383,10101 N 2nd St,Machesney Park,IL,61115
11384,5195 Elevator Rd,Roscoe,IL,61073-9229
11385,774 Rollins Rd,Round Lake Beach,IL,60073
11386,40 S Rt 12,Fox Lake,IL,60020-1745
11387,431 E Grand,Lake Villa,IL,60046
11388,1275 N Rt 83,Grayslake,IL,60030
11389,2250 E Grand,Lindenhurst,IL,60046-7522
11390,4411 West Rt 120,Mchenry,IL,60050
11391,352 S Division,Harvard,IL,60033-3230
11392,1904 Richmond Rd,Mchenry,IL,60051-5402
11393,2451 Route 12,Spring Grove,IL,60081
11394,6380 Grand Ave,Gurnee,IL,60031
11395,1804 E Belvidere Rd,Grayslake,IL,60030
11396,5555 Grand Ave,Gurnee,IL,60031-4900
11397,1275 N Delany Road,Gurnee,IL,60031
11398,39105 Us Hwy 41,Wadsworth,IL,60083
11399,3900 FOUNTAIN SQUARE PLACE (Walmart),Waukegan,IL,60085
11400,3301 W Grand Ave,Waukegan,IL,60085-2205
11401,1939 N Lewis Ave,Waukegan,IL,60085
11402,3249 Belvidere Road,Park City,IL,60085
11403,304 North Sheridan Road,Waukegan,IL,60085-4232
11404,1010 S Waukegan Road,Waukegan,IL,60085
11405,39082 N Sheridan Rd,Beach Park,IL,60099-3787
11406,1025 South La Grange Road,South Haven,MI,49090-1939
11407,7900 Adobe Rd,Kalamazoo,MI,49009
11408,1218 M-89,Plainwell,MI,49080-1136
11409,1695 Michigan Ave,Battle Creek,MI,49017
11410,1085 Capital Ave Ne,Battle Creek,MI,49015
11411,8200 32nd St,Richland,MI,49083
11412,4997 Bird Industrial Drive,Stockbridge,MI,49285
11413,22100 Pontiac Trl,South Lyon,MI,48178-1620
11414,15110 Beck Rd,Plymouth,MI,48170
11415,220 Ann Arbor Road,Plymouth,MI,48170
11416,39555 Six Mile,Northville Township,MI,48167
11417,38015 Ann Arbor Rd,Livonia,MI,48150-3499
11418,38418 Ford Rd,Westland,MI,48185
11419,21050 Haggerty Road,Novi,MI,48375
11420,31355 Joy Rd,Westland,MI,48185
11421,11800 Middlebelt Rd,Livonia,MI,48154
11422,34900 Warren Ave,Westland,MI,48185-2772
11423,15399 Middlebelt Road,Livonia,MI,48154-3805
11424,19311 Farmington Rd,Livonia,MI,48152-1404
11425,25830 Plymouth Rd,Redford Township,MI,48239
11426,2205 Middlebelt Rd,Garden City,MI,48135-2814
11427,11310 Telegraph Rd,Redford,MI,48239
11428,15301 Telegraph Road,Redford,MI,48239
11429,26990 Grand River Ave,Redford,MI,48240
11430,11033 Whitmore Lake Road,Whitmore Lake,MI,48189-9380
11431,18137 Joy Rd,Detroit,MI,48228
11432,18403 Grand River Rd,Detroit,MI,48223-2316
11433,15501 Plymouth,Detroit,MI,48227-1617
11434,6412 N Telegraph Rd,Dearborn Heights,MI,48127-2204
11435,13676 Grand River Avenue,Detroit,MI,48227
11436,15550 W Mcnichols,Detroit,MI,48235-3762
11437,22021 West 8 Mile Road,Detroit,MI,48219
11438,14860 Michigan Ave,Dearborn,MI,48126-3445
11439,13158 Ford Rd,Dearborn,MI,48126-3325
11440,7300 Wyoming Rd,Dearborn,MI,48126-1623
11441,8825 E Jefferson,Detroit,MI,48214-2811
11442,10400 Gratiot Avenue,Detroit,MI,48218
11443,1000 Mack Ave,Detroit,MI,48207-2000
11444,4235 Woodward Avenue,Detroit,MI,48201
11445,2889 W Grand Blvd,Detroit,MI,48202-2611
11446,14271 Gratiot Ave,Detroit,MI,48205-2425
11447,19840 Van Dyke,Detroit,MI,48234
11448,18201 Mack Avenue,Detroit,MI,48224
11449,9815 Grand River Avenue,Detroit,MI,48204
11450,6876 Michigan Ave,Detroit,MI,48210-2870
11451,17121 Livernois Avenue,Detroit,MI,48221
11452,1321 W 8 Mile Rd,Detroit,MI,48220
11453,20405 Conant Avenue,Detroit,MI,48234-1230
11454,102 E Main,Westfield,NY,14787
11455,950 State Route 36,Hornell,NY,14843
11456,398 W Morris St,Bath,NY,14810
11457,372 Elmira Rd,Ithaca,NY,14850
11458,2972 New York Rt 11,Whitney Point,NY,13862
11459,12187 State Route 9w,West Coxsackie,NY,12192
11460,2939 Us Hwy 9,Valatie,NY,12184
11461,445 W Housatonic St,Pittsfield,MA,01201
11462,374 Russell St,Hadley,MA,01035
11463,1040 Main St,Clinton,MA,01510
11464,638 S Main St,Holden,MA,01520
11465,173 Washington St,Hudson,MA,01749
11466,155 Boston Post Rd W,Marlborough,MA,01752
11467,250 Maple St,Marlborough,MA,01752
11468,789 Main St,Waltham,MA,02453
11469,197 California St,Newton,MA,02458
11470,I-95 / RTE 128 North (Service Plaza),Lexington,MA,02421
11471,1750 Soldiers Fld Rd,Brighton,MA,02135
11472,4 Main Street,Maynard,MA,01754
11473,360 Western Ave,Brighton,MA,02135
11474,186 Ale Wife Brook Pky,Cambridge,MA,02138
11475,463 Massachusetts Ave,Cambridge,MA,02139
11476,1223 Commonwealth Ave,Allston,MA,02134
11477,14 Mcgrath Hwy,Sommerville,MA,02143
11478,540 Commonwealth Ave,Boston,MA,02215
11479,350 LONGWOOD AVE (Longwood Galleria),Boston,MA,02115
11480,100 Legends Way,Boston,MA,02114
11481,146 Tremont St,Boston,MA,02111
11482,128 Broadway,Everett,MA,02149
11483,329 Washington St,Boston,MA,02108
11484,700 Atlantic Ave (Train Station),Boston,MA,02110
11485,700 Atlantic Ave (Bus Station),Boston,MA,02110
11486,870 Massachusetts Ave,Boston,MA,02118
11487,178 Border St,East Boston,MA,02128
11488,472 Broadway,Chelsea,MA,02150
11489,170 Revere Beach Pky,Chelsea,MA,02150
11490,1018 Revere Beach Pkwy,Chelsea,MA,02150
11491,114 Broadway,Malden,MA,02148
11492,339 Squire Road,Revere,MA,02151
11493,780 LYNN WAY (Walmart #2139),Lynn,MA,01905
11494,1891 N 6th St,Grants Pass,OR,97526-1057
11495,110 Addison Ave West,Twin Falls,ID,83301
11496,305 Blue Lakes Blvd N,Twin Falls,ID,83301-4828
11497,3234 Kimberly Road,Twin Falls,ID,83301
11498,394 N Overland Ave,Burley,ID,83318-3433
11499,212 E Hwy 20,O'Neill,NE,68763
11500,100 N Derby Ln,North Sioux City,SD,57049
11501,729 Hamilton Blvd,Sioux City,IA,51103
11502,3093 Hamilton Blvd,Sioux City,IA,51104-2407
11503,600 Dakota Ave,South Sioux City,NE,68776
11504,607 Lewis Blvd,Sioux City,IA,51102
11505,4105 Morningside Ave,Sioux City,IA,51106-2945
11506,5707 Sunnybrook Dr,Sioux City,IA,51106
11507,2509 5th Ave S,Fort Dodge,IA,50501-5552
11508,107 Ave O W,Fort Dodge,IA,50501
11509,400 Fair Meadow Dr,Webster City,IA,50595-3161
11510,412 N Oak St,Iowa Falls,IA,50126
11511,350 Evansdale Dr,Evansdale,IA,50707
11512,1709 Laporte Rd,Waterloo,IA,50702-2717
11513,2222 Logan Ave,Waterloo,IA,50703
11514,2515 Main St,Cedar Falls,IA,50613-5124
11515,326 Brandilynn Blvd,Cedar Falls,IA,50613
11516,610 W 1st St,Cedar Falls,IA,50613-2616
11517,3695 University Ave,Waterloo,IA,50701
11518,3658 Kimball Ave,Waterloo,IA,50702-5731
11519,1510 9th Street Se,Dyersville,IA,52040
11520,2060 Holliday Drive,Dubuque,IA,52002
11521,1915 John F Kennedy Rd,Dubuque,IA,52002-3813
11522,620 Iowa St,Dubuque,IA,52001-4836
11523,2250 Flint Hill Dr,Dubuque,IA,52003-7993
11524,1443 Madison Rd,Beloit,WI,53511-4080
11525,45 State St,Beloit,WI,53511-6233
11526,15766 Manchester Rd,South Beloit,IL,61080
11527,2881 Milwaukee Road,Beloit,WI,53511
11528,2649 N Prairie,Beloit,WI,53511-2244
11529,13454 Quail Trail,Rockton,IL,61073
11530,10607 Main St,Richmond,IL,60071-9407
11531,10551 120th Ave,Pleasant Prairie,WI,53158
11532,1150 Main Street,Antioch,IL,60002
11533,12214 75th St,Kenosha,WI,53142
11534,4545 Il Route -173,Zion,IL,60099
11535,2028 Sheridan Rd,Zion,IL,60099-4119
11536,7530 Pershing Blvd,Kenosha,WI,53142-4316
11537,8056 Sheridan Rd,Kenosha,WI,53142
11538,7060 Green Bay Rd,Kenosha,WI,53144
11539,25555 75th St,Paddock Lake,WI,53168
11540,889 Marshall Street,Allegan,MI,49010-1650
11541,207 Lansing St,Charlotte,MI,48813-1605
11542,4500 N Hull,Leslie,MI,49251
11543,614 Kipp Rd,Mason,MI,48854
11544,9134 Spicerville Hwy,Eaton Rapids,MI,48827-8907
11545,30528 Lyon Center Dr E,New Hudson,MI,48165-8901
11546,49450 Grand River Ave,Wixom,MI,48393
11547,1184 M 36,Pinckney,MI,48169
11548,8515 North Grand River Road,Brighton,MI,48116
11549,42665 12 Mile Rd,Novi,MI,48377-3004
11550,200 Beck Rd,Walled Lake,MI,48390
11551,1212 W Maple Rd,Walled Lake,MI,48390
11552,515 Haggerty Rd,Walled Lake,MI,48390
11553,30161 Southfield Rd,Southfield,MI,48076
11554,24480 Telegraph Rd,Southfield,MI,48034
11555,26160 Greenfield Rd,Oak Park,MI,48237
11556,28670 Northwestern Hwy,Southfield,MI,48034
11557,30807 Woodward Ave,Royal Oak,MI,48073-6932
11558,2829 W 14 Mile Rd,Royal Oak,MI,48073-1767
11559,21000 Greenfield Rd,Oak Park,MI,48237-3025
11560,423 W 11 Mile Rd,Royal Oak,MI,48067-2240
11561,9437 Lee Rd,Brighton,MI,48116
11562,31325 Orchard Lake Rd,Farmington Hills,MI,48334
11563,35242 Grand River Ave,Farmington Hills,MI,48335
11564,29023 John R Rd,Madison Heights,MI,48071
11565,3300 Rochester Road,Royal Oak,MI,48073-2811
11566,32811 Stephenson Hwy,Madison Heights,MI,48071
11567,32797 John R Road,Madison Heights,MI,48071-4731
11568,2250 E 10 Mile Road,Warren,MI,48091-3701
11569,50 W 9 Mile,Hazel Park,MI,48030
11570,22525 Woodward Ave,Ferndale,MI,48220
11571,70 W Maple,Troy,MI,48084
11572,4240 E 14 Mile,Warren,MI,48092-4325
11573,28959 Mound Rd,Warren,MI,48092
11574,3039 Rochester Rd,Troy,MI,48083
11575,36895 Dequindre Road,Troy,MI,48083
11576,27480 Van Dyke Road,Warren,MI,48093-2804
11577,32155 Van Dyke Ave,Warren,MI,48093
11578,31255 Harper Avenue,St. Clair Shores,MI,48082
11579,22333 E 9 Mile Rd,St. Clair Shores,MI,48080
11580,32222 Gratiot Avenue,Roseville,MI,48066-1140
11581,27901 Gratiot Ave,Roseville,MI,48066
11582,26765 Gratiot Avenue,Roseville,MI,48066
11583,35025 Harper Avenue,Clinton Township,MI,48035
11584,17921 E 9 Mile Rd,Eastpointe,MI,48021
11585,15401 E 12 Mile Rd,Roseville,MI,48066-1840
11586,35243 Groesbeck Hwy,Clinton Township,MI,48035
11587,17800 East 8 Mile Road,Harper Woods,MI,48225
11588,25900 Crocker Boulevard,Harrison Township,MI,48045
11589,1617 S Gratiot,Clinton Township,MI,48043
11590,11631 10 Mile Rd,Warren,MI,48089
11591,30837 Schoenherr Road,Warren,MI,48093-6857
11592,23000 Van Dyke,Warren,MI,48089
11593,8280 15 Mile Rd,Sterling Heights,MI,48312
11594,15855 15 Mile Rd,Clinton Township,MI,48035
11595,37037 Mound Rd,Sterling Heights,MI,48310
11596,10365 Bennett Rd,Fredonia,NY,14063
11597,687 Route 5,Irving,NY,14081
11598,325 Buffalo St,Gowanda,NY,14070
11599,240 S. Cascade Drive,Springville,NY,14141
11600,700 W Main St,Arcade,NY,14009
11601,53 Maple St,Dansville,NY,14437
11602,59 North St,Dryden,NY,13053
11603,2350 N Triphammer,Ithaca,NY,14850
11604,877 Ny-13,Cortland,NY,13045
11605,165 S Broad St,Norwich,NY,13815
11606,4958 State Hwy 23,Oneonta,NY,13820
11607,61 Cheshire Road,Pittsfield,MA,01201
11608,223 Timpany Blvd,Gardner,MA,01440
11609,2 Sandy Pond Rd,Ayer,MA,01432
11610,340 New Lancaster Road,Leominster,MA,01453
11611,346 Great Rd,Bedford,MA,01730
11612,55 Middlesex Tpke,Burlington,MA,01803
11613,718 Boston Rd,Billerica,MA,01821
11614,187 Cambridge St,Woburn,MA,01801
11615,212 Main St,Wilmington,MA,01887
11616,273 Boston Rd,Billerica,MA,01821
11617,247 Mill St,Leominster,MA,01453
11618,302 N Main Street,Leominster,MA,01453
11619,114 Whalon St,Fitchburg,MA,01420
11620,55 Great Road,Acton,MA,01720
11621,333 Montvale Ave,Woburn,MA,01801
11622,413 Main St,Reading,MA,01867
11623,572 Main St,Wakefield,MA,01880
11624,43 Main St,North Reading,MA,01864
11625,738 BROADWAY (Rt 1 North),Saugus,MA,01906
11626,127 BROADWAY (Rt 1 South),Saugus,MA,01906
11627,60 Boston St,Lynn,MA,01904
11628,567 Lynnway,Lynn,MA,01905
11629,1 Traders Way,Salem,MA,01970
11630,210 ANDOVER STREET (Northshore Mall),Peabody,MA,01960
11631,135 Andover St,Danvers,MA,01923
11632,133 Main St,Peabody,MA,01960
11633,180 Endicott St,Danvers,MA,01923
11634,255 S Main St,Middleton,MA,01949-2444
11635,150 Canal St,Salem,MA,01970
11636,77 High St,Danvers,MA,01923-3145
11637,151 Littleton Rd,Westford,MA,01866
11638,230 Elliott St,Beverly,MA,01915
11639,706 Us Hwy 30,Buhl,ID,83316
11640,869 Pole Line Rd,Twin Falls,ID,83301
11641,2611 S Lincoln St,Jerome,ID,83338
11642,800 Seneca Street,Storm Lake,IA,50588
11643,1 1st Ave Se,Oelwein,IA,50662
11644,425 8th St,Monroe,WI,53566
11645,1310 Galena Street,Darlington,WI,53530
11646,2104 1st Center Ave,Brodhead,WI,53520
11647,1951 Center Ave,Janesville,WI,53546
11648,2610 W Court St,Janesville,WI,53545
11649,1244 Geneva St,Delavan,WI,53115-2002
11650,104 Wells St,Lake Geneva,WI,53147-2094
11651,110 Market St,Elkhorn,WI,53121-1167
11652,1622 Milton Ave,Janesville,WI,53545-1133
11653,835 15th Avenue,Union Grove,WI,53182
11654,240 E Jefferson Street,Burlington,WI,53105-1494
11655,1820 30th Avenue,Kenosha,WI,53144-1437
11656,3711 57th Avenue,Kenosha,WI,53144
11657,3926 52nd St,Kenosha,WI,53144
11658,4707 Taylor Ave,Racine,WI,53406-5521
11659,2610 S Green Bay Rd,Racine,WI,53406-4900
11660,1215 W State St,Hastings,MI,49058-9712
11661,1145 W Superior,Wayland,MI,49348-1264
11662,1515 N Patterson,Wayland,MI,49348
11663,285 E Lansing Rd,Potterville,MI,48876
11664,2775 Eaton Rapids Rd,Lansing,MI,48911
11665,2400 N Cedar St,Holt,MI,48842-2104
11666,805 Highview Drive,Webberville,MI,48892
11667,200 W Grand River Ave,Williamston,MI,48895-1320
11668,945 S Grand Ave,Fowlerville,MI,48836-9530
11669,730 N Cedar,Mason,MI,48854
11670,3477 N Okemos,Okemos,MI,48864-3923
11671,3781 E Grand River,Howell,MI,48843
11672,2205 W Grand River Rd,Howell,MI,48843
11673,1360 Burkhart Rd,Howell,MI,48843
11674,10600 Highland Rd,Hartland,MI,48353-2625
11675,2530 E Jolly Road,Lansing,MI,48911
11676,4700 S Cedar St,Lansing,MI,48910-5470
11677,6491 Highland Rd,White Lake,MI,48386
11678,9615 Highland Road,White Lake,MI,48386-2315
11679,7600 Cooley Lake Rd,Waterford,MI,48327-4190
11680,8300 Richardson Rd,Commerce Township,MI,48382
11681,5854 Highland Rd,Waterford,MI,48327-1827
11682,450 N Milford Rd,Highland,MI,48357-4540
11683,120 S Milford Rd,Milford,MI,48381-2741
11684,3205 Elizabeth Lake Rd,Waterford,MI,48328-3004
11685,2234 Orchard Lake Rd,Sylvan Lake,MI,48320-1750
11686,2450 Dixie Hwy,Waterford,MI,48328
11687,2209 S Telegraph,Bloomfield Hills,MI,48302-0258
11688,4772 Dixie Hwy,Waterford,MI,48329-3525
11689,44961 Woodward Ave,Pontiac,MI,48341
11690,22050 Hall Rd,Clinton Township,MI,48038
11691,45700 N Gratiot Ave,Macomb,MI,48042
11692,107 N Groesbeck,Mt Clemens,MI,48043
11693,24627 N River Rd,Mt Clemens,MI,48043
11694,18001 Hall Rd,Macomb,MI,48044
11695,41500 Garfield Rd,Clinton Township,MI,48038
11696,28320 23 Mile Road,Chesterfield,MI,48051-2320
11697,18250 23 Mile Rd,Macomb,MI,48044
11698,43180 Hayes Rd,Clinton Township,MI,48038
11699,35899 Green St,New Baltimore,MI,48047-2416
11700,1481 Opdyke Rd,Auburn Hills,MI,48321-4887
11701,520 East Walton,Pontiac,MI,48340
11702,3420 E Walton,Auburn Hills,MI,48321-4080
11703,2590 Crooks Rd,Rochester Hills,MI,48309-3603
11704,2985 Walton Blvd,Rochester Hills,MI,48309-1419
11705,91 W Auburn Rd,Rochester Hills,MI,48307
11706,4819 Rochester Road,Troy,MI,48098-4962
11707,2000 18 Mile Rd,Sterling Heights,MI,48310
11708,808 Roche Ster Road,Rochester,MI,48307-2740
11709,47475 Van Dyke Rd,Utica,MI,48317-3366
11710,7495 23 Mile Rd,Utica,MI,48316-4421
11711,40422 Van Dyke Road,Sterling Heights,MI,48313-3735
11712,45010 Utica Park Blvd,Utica,MI,48315-5911
11713,13640 Southcove Dr,Sterling Heights,MI,48313-1334
11714,700 Point Tremble Rd,Algonac,MI,48001-1610
11715,6890 Erie Rd,Derby,NY,14047
11716,2202 Ny-96,Ovid,NY,14521
11717,235 Lake St,Penn Yan,NY,14527
11718,158 Clinton Ave,Cortland,NY,13045
11719,60 Commons Dr,Cooperstown,NY,13326
11720,702 E Main St,Cobleskill,NY,12043
11721,132 Delaware Ave,Delmar,NY,12054
11722,1602 Western Avenue,Albany,NY,12203
11723,376 Feura Bush Rd,Glenmont,NY,12077
11724,161 Washington Ave Extension,Albany,NY,12205
11725,31 Holland Ave,Albany,NY,12209
11726,310 Troy Rd,Rensselaer,NY,12144
11727,65 Main Ave Rte 66,Wynantskill,NY,12198
11728,391 Central Ave,Albany,NY,12206
11729,1006 Central Ave,Albany,NY,12205
11730,2 Commercial St,Adams,MA,01220
11731,17 Union St,North Adams,MA,01247
11732,285 Federal St,Greenfield,MA,01301
11733,208 Mohawk Trl,Greenfield,MA,01301
11734,100 Brookside Rd,Athol,MA,01331
11735,235 Spring St,Winchendon,MA,01475
11736,334 John Fitch Highway,Fitchburg,MA,01420
11737,20 Main St,Townsend,MA,01469
11738,17 Drum Hill Rd,Chelmsford,MA,01824
11739,66 Plain St,Lowell,MA,01851
11740,1 Varnum Ave,Lowell,MA,01854
11741,1260 Bridge St,Dracut,MA,01826
11742,803 Rogers St,Lowell,MA,01852
11743,1915 Andover St,Tewksbury,MA,01876
11744,1928 Main St,Tewksbury,MA,01876
11745,195 N Main St,Andover,MA,01810
11746,599 Andover St,Lawrence,MA,01840
11747,660 Chickering Rd,North Andover,MA,01845-1903
11748,50 Maplewood Ave,Gloucester,MA,01930
11749,40 Enon St,Beverly,MA,01915
11750,4010 Plaza Drive,Casper,WY,82604
11751,1090 W Yellowstone Hwy,Douglas,WY,82633
11752,1180 W Hwy 20,Chadron,NE,69337
11753,702 N Dakota St,Vermillion,SD,57069-1405
11754,1001 Hawkeye Ave Sw,Le Mars,IA,51031
11755,1500 N 2nd St,Cherokee,IA,51012
11756,411 Central Avenue E,Hampton,IA,50441
11757,1203 4th Stsw,Waverly,IA,50677
11758,1775 Progressive Parkway,Platteville,WI,53818
11759,9 John Lindemann Dr,Evansville,WI,53536
11760,2922 N Pontiac Dr,Janesville,WI,53545-0372
11761,2526 Main St,East Troy,WI,53120
11762,815a Fox Lane,Waterford North,WI,53185-4511
11763,13343 Washington Ave,Mt. Pleasant,WI,53177-1527
11764,3037 N Douglas Ave,Racine,WI,53402-4177
11765,1520 State Street,Racine,WI,53404
11766,5125 Douglas Ave,Caledonia,WI,53402-2029
11767,2100 Lathrop Ave,Racine,WI,53405-4135
11768,6630 Washington Ave,Racine,WI,53406-3924
11769,762 Cabill Dr,Holland,MI,49423
11770,8531 Homestead Drive,Zeeland,MI,49464
11771,657 E 8th St,Holland,MI,49423-3064
11772,2626 84th St Sw,Byron Center,MI,49315
11773,1190 Washington Ave,Holland,MI,49423-5293
11774,213 N River Ave,Holland,MI,49424
11775,12645 Riley St,Holland,MI,49424
11776,9383 Cherry Valley Avenue Southeast,Caledonia,MI,49316
11777,1435 E Jordan Lake St,Lake Odessa,MI,48849
11778,712 E Saginaw Hwy,Grand Ledge,MI,48837
11779,10945 W Grand River Ave,Grand Ledge,MI,48837
11780,7240 W Saginaw Rd,Lansing,MI,48917-1129
11781,3220 E Saginaw Rd,Lansing,MI,48912-4714
11782,1024 E Grand River Rd,East Lansing,MI,48823-4542
11783,2120 N Larch,Lansing,MI,48906-4115
11784,2040 W Grand River Rd,Okemos,MI,48864-1707
11785,16827 Marsh Rd,Haslett,MI,48840
11786,3135 Martin Luther King Jr Blvd,Lansing,MI,48910-2939
11787,5225 N Grand River Ave,Lansing,MI,48917
11788,4015 W Saginaw,Lansing,MI,48917-2107
11789,13230 S Us 27,Dewitt,MI,48820-9325
11790,6300 St Joseph Hwy,Lansing,MI,48917-3907
11791,3216 Owen Road,Fenton,MI,48430-1758
11792,603 W Broad St,Linden,MI,48451
11793,15187 N Holly Rd,Holly,MI,48442-1140
11794,66500 Van Dyke,Washington,MI,48095-2015
11795,56915 Van Dyke,Shelby Twp,MI,48316
11796,9631 Dixie Hwy,Clarkston,MI,48348
11797,6695 Dixie Hwy,Clarkston,MI,48346-2918
11798,435 S Broadway,Lake Orion,MI,48362-2744
11799,4435 Lapeer Road,Auburn Hills,MI,48326
11800,3950 Baldwin Rd,Auburn Hills,MI,48326
11801,1155 S Carney Dr,St. Clair,MI,48079
11802,57065 Gratiot Ave,New Haven,MI,48048
11803,5625 Sashabaw Rd,Clarkston,MI,48346-3149
11804,67600 Main St,Richmond,MI,48062-1926
11805,5087 Camp Rd,Hamburg,NY,14075
11806,6035 S Park Ave,Hamburg,NY,14075
11807,3450 Mckinley Pkwy,Blasdell,NY,14219-2129
11808,3232 Orchard Park Rd,Orchard Park,NY,14127
11809,17 Ernst Pl,East Aurora,NY,14052
11810,2362 N Main St,Warsaw,NY,14569
11811,4162 Lakeville Rd,Geneseo,NY,14454
11812,13 E State St,Mt. Morris,NY,14510
11813,3700 State St,Schenectady,NY,12304
11814,1814 Central Ave,Albany,NY,12205
11815,106 Wolf Rd,Albany,NY,12205
11816,1673 Union St,Schenectady,NY,12309
11817,1224 State St,Schenectady,NY,12304
11818,1637 Altamont Ave,Schenectady,NY,12303
11819,500 Curry Rd,Schenectady,NY,12306
11820,780 Hoosick Rd,Troy,NY,12180
11821,170 Hoosick Street,Troy,NY,12180
11822,16th Street & Broadway,Watervliet,NY,12189
11823,42 Saratoga Ave,Waterford,NY,12188
11824,579 Troy Schenectady Rd,Latham,NY,12110
11825,256 Osborne Rd,Loudonville,NY,12211
11826,1517 Crescent Vischer Ferry Rd,Clifton Park,NY,12065
11827,85 Peterborough St,Jaffrey,NH,03452
11828,3 Northeastern Blvd,Nashua,NH,03062
11829,45 E Hollis St,Nashua,NH,03060
11830,75 Derry Rd,Hudson,NH,03051
11831,255 Daniel Webster Hwy,Nashua,NH,03060
11832,251 Lowell Rd,Hudson,NH,03051
11833,113 Bridge Street,Pelham,NH,03076
11834,599 Nashua St,Milford,NH,03055
11835,110 Pleasant Valley St,Methuen,MA,01844
11836,795 River St,Haverhill,MA,01832
11837,40 Jackson Street,Methuen,MA,01844
11838,53 S Main St,Bradford,MA,01835
11839,50 Broadway,Lawrence,MA,01840
11840,147 Pelham St,Methuen,MA,01844
11841,1180 N Main St,Haverhill,MA,01830
11842,225 S Broadway,Salem,NH,03079
11843,170 Haverhill St,Methuen,MA,01844
11844,155 Newburyport Tpk,Rowley,MA,01969
11845,37 Storey Ave,Newburyport,MA,01950
11846,124b Indian Rock Rd,Windham,NH,03087
11847,640 E Us Hwy 30,Bliss,ID,83314
11848,2440 Main Street,Gooding,ID,83330
11849,831 Yellowstone Hwy,Pocatello,ID,83201-4414
11850,4260 Yellowstone Avenue,Chubbuck,ID,83202-2400
11851,1011 S 5th,Pocatello,ID,83201-6636
11852,235 Mcfarlane Dr,Lander,WY,82520-2949
11853,40 Se Wyoming Blvd,Casper,WY,82609-1937
11854,600 W F St,Casper,WY,82601-1300
11855,101 W Highway 20,Valentine,NE,69201
11856,2301 Broadway Ave,Yankton,SD,57078-1204
11857,120 W Alona Ln,Lancaster,WI,53813
11858,1429 Hwy 51 W,Stoughton,WI,53589
11859,1029 N Main St,Oregon,WI,53575-1052
11860,225 N Main St,Fort Atkinson,WI,53538
11861,1069 W Main St,Whitewater,WI,53190-1616
11862,1117 Goede Rd,Edgerton,WI,53534
11863,1020 North Rochester Street,Mukwonago,WI,53149-8738
11864,S71w23460 National Ave,Big Bend,WI,53103-9647
11865,W189s7851 Racine Ave,Muskego,WI,53150-9546
11866,7501 W Rawson Ave,Franklin,WI,53132-9689
11867,9471 S 13th St,Oak Creek,WI,53154
11868,8800 S Howell Ave,Oak Creek,WI,53154-3802
11869,6000 S 108th St,Hales Corners,WI,53130-2523
11870,5890 S 27th St,Milwaukee,WI,53221
11871,6262 S 13th St,Milwaukee,WI,53221-5125
11872,5040 S 76th St,Greenfield,WI,53220-4308
11873,2715 S Chicago Ave,South Milwaukee,WI,53172-3129
11874,6163 S Packard Ave,Cudahy,WI,53110-3055
11875,2980 44th Street,Grandville,MI,49418
11876,5631 Byron Center Ave,Wyoming,MI,49418
11877,160 Chicago Dr,Jenison,MI,49428-9357
11878,2727 28th St Sw,Wyoming,MI,49509-2109
11879,920 W 44th St,Wyoming,MI,49509-4416
11880,1221 28th St Sw,Wyoming,MI,49509-2701
11881,531 68th St Sw,Grand Rapids,MI,49548
11882,3873 S Division St,Wyoming,MI,49548-3251
11883,1865 Baldwin Rd,Jenison,MI,49428
11884,1115 Chicago Dr Sw,Wyoming,MI,49519
11885,415 28th St Se,Grand Rapids,MI,49548
11886,4596 32nd Ave,Hudsonville,MI,49426-9499
11887,5105 28th Street Se,Grand Rapids,MI,49512
11888,2824 28th St Se,Kentwood,MI,49508
11889,1700 44th St Se,Kentwood,MI,49508-5004
11890,6095 Kalamazoo St,Grand Rapids,MI,49508-7017
11891,1240 S Division,Grand Rapids,MI,49508
11892,1300 W Main St,Lowell,MI,49331-1512
11893,2784 South State Street,Ionia,MI,48846-9475
11894,1432 E Grand River,Portland,MI,48875-1632
11895,3077 Lansing Rd,Perry,MI,48872
11896,8760 Lansing Rd,Durand,MI,48429
11897,3285 West Thompson,Fenton,MI,48430
11898,2330 W Grand Blanc Rd,Grand Blanc,MI,48507
11899,6015 Hill 23 Drive,Flint,MI,48507-3894
11900,9293 Holly Rd,Grand Blanc,MI,48439
11901,12237 S Saginaw,Grand Blanc,MI,48439-1469
11902,925 S Ortonville Rd,Ortonville,MI,48462
11903,655 N Lapeer,Oxford,MI,48371
11904,894 N Van Dyke,Almont,MI,48003
11905,1336 Wadhams Rd,St Clair,MI,48079
11906,1925 Gratiot Ave,Marysville,MI,48040-1278
11907,12755 Broadway,Alden,NY,14004
11908,453 Williams St,Buffalo,NY,14204
11909,390 Niagara St,Buffalo,NY,14201
11910,1338 Main St,Buffalo,NY,14209
11911,1028 Mc Kinley Pky,Buffalo,NY,14220
11912,262 Grider St,Buffalo,NY,14215
11913,2256 Clinton St,Cheektowaga,NY,14206
11914,1234 Abbott Rd,Lackawanna,NY,14218
11915,2156 Niagara St,Buffalo,NY,14207
11916,2058 Elmwood Ave,Buffalo,NY,14216
11917,2567 Union Rd,Cheektowaga,NY,14227
11918,1735 Walden Ave,Cheektowaga,NY,14225
11919,4993 Transit Road State Rte 78,Depew,NY,14043
11920,3815 Union Rd,Cheektowaga,NY,14225
11921,1154 Union Rd,West Seneca,NY,14224
11922,5150 Broadway Avenue,Depew,NY,14086
11923,4217 Genesee St,Cheektowaga,NY,14225
11924,6360 Transit St,Depew,NY,14043
11925,1970 Kensington Ave,Buffalo,NY,14215
11926,250 East Main St,Avon,NY,14414
11927,5965 Big Tree Rd,Lakeville,NY,14480
11928,17 Ellen Polimeni Blvd,Canandaigua,NY,14424
11929,307 Hamilton Street,Geneva,NY,14456
11930,2500 Mound Rd,Waterloo,NY,13165
11931,357 Genesee St,Auburn,NY,13021
11932,198 Grant Ave,Auburn,NY,13021
11933,5961 Rt 20,Lafayette,NY,13084
11934,168 Utica St (Ny-12b),Hamilton,NY,13346
11935,2300 Town & Country Plaza,Cazenovia,NY,13035
11936,3155 Us Hwy 20,Richfield Springs,NY,13439
11937,22 Dutchtown Plz,Palatine Bridge,NY,13428
11938,37 Riverside Dr,Fultonville,NY,12072
11939,241-243 Saratoga Road,Glenville,NY,12302
11940,829 Ny Rt 146,Clifton Park,NY,12065
11941,1487 Rt 9,Clifton Park,NY,12065
11942,1 Park Plaza,Mechanicville,NY,12118
11943,112 Northside Dr,Bennington,VT,05201
11944,1027 Putney Rd,Brattleboro,VT,05301
11945,317 Winchester St,Keene,NH,03431
11946,9 Dobson Rd,Merrimack,NH,03054
11947,2287 Brown Ave,Manchester,NH,03103
11948,45 Crystal Ave,Derry,NH,03038
11949,39 Nashua Rd,Londonderry,NH,03053
11950,100 Macy St,Amesbury,MA,01913
11951,710 Lafayette Road,Seabrook,NH,03874
11952,663 Lafayette Rd,Hampton,NH,03842
11953,280 Pruner Rd,Myrtle Creek,OR,97457
11954,813 N Federal Blvd,Riverton,WY,82501
11955,506 Allison Street,Charles City,IA,50616-3709
11956,729 W Milwaukee St,New Hampton,IA,50659
11957,602 S Marquette Rd,Prairie Du Chien,WI,53821-2124
11958,1101 N Main,Dodgeville,WI,53533-1149
11959,1301 Perimeter Rd,Mount Horeb,WI,53572-1892
11960,107 Horizon Dr,Verona,WI,53719
11961,4687 Verona Dr,Madison,WI,53711-2736
11962,6910 Odana Rd,Madison,WI,53719-1018
11963,2845 Fish Hatchery Rd,Fitchburg,WI,53713
11964,2402 S Park St,Madison,WI,53713-2008
11965,4800 Larson Beach Road,Mcfarland,WI,53558
11966,1102 Regent St,Madison,WI,53715-1251
11967,4905 Monona Dr,Monona,WI,53716
11968,1423 S Hwy 26,Jefferson,WI,53549-2910
11969,211 Hwy 83,Delafield,WI,53018
11970,801 Meadowbrook Rd,Waukesha,WI,53188
11971,1425 S West Ave,Waukesha,WI,53186-7414
11972,1635 E Main St,Waukesha,WI,53186-3958
11973,2047 Silvernail Rd,Waukesha,WI,53072
11974,2340 E Moreland Blvd,Waukesha,WI,53186-2908
11975,17155 W Cleveland Ave,New Berlin,WI,53151-3539
11976,3680 S Moorland Rd,New Berlin,WI,53151-5147
11977,300 N Moorland Rd,Brookfield,WI,53005-6037
11978,18695 W Bluemound Rd,Brookfield,WI,53045-2923
11979,10915 W National Ave,West Allis,WI,53227
11980,1550 S 108th,West Allis,WI,53214
11981,4550 S 108th St,Greenfield,WI,53228-2507
11982,12324 W North Ave,Wauwatosa,WI,53226
11983,3137 S 76th St,Milwaukee,WI,53219-3702
11984,8301 W Greenfield Ave,West Allis,WI,53214
11985,1120 Miller Parkway,West Milwaukee,WI,53214
11986,6409 W Blue Mound Rd,Milwaukee,WI,53213-4061
11987,2612 W Morgan Ave,Milwaukee,WI,53221-1442
11988,2520 W National Ave,Milwaukee,WI,53204-1055
11989,4275 S 27th St,Greenfield,WI,53221-1832
11990,1931 S 14th St,Milwaukee,WI,53204
11991,1575 W Washington,Milwaukee,WI,53204-2279
11992,2455 W Wisconsin Ave,Milwaukee,WI,53233-1827
11993,617 W Oklahoma,Milwaukee,WI,53215-4717
11994,6631 W North Ave,Wauwatosa,WI,53213-2049
11995,707 S 1st St,Milwaukee,WI,53204-1802
11996,830 E Potter Ave,Milwaukee,WI,53207-1868
11997,191 W Layton Ave,Milwaukee,WI,53207-5916
11998,1614 E North Ave,Milwaukee,WI,53202-1035
11999,920 W North Ave,Milwaukee,WI,53205-1329
12000,1617 S Beacon Blvd,Grand Haven,MI,49417-2613
12001,3030 Walker Ave,Walker,MI,49504
12002,4315 Lake Michigan Dr,Walker,MI,49534
12003,1100 W Leonard,Grand Rapids,MI,49504
12004,2652 Alpine Ave,Walker,MI,49504-1963
12005,1130 W Fulton St,Grand Rapids,MI,49504-6117
12006,3917 Alpine Ave Nw,Comstock Park,MI,49321
12007,417 Michigan Avenue,Grand Rapids,MI,49503-3316
12008,4133 W River Dr,Comstock Park,MI,49321-8924
12009,5371 Lake Michigan Dr,Allendale,MI,49401
12010,59 68th Street,Coopersville,MI,49404
12011,1246 Leonard St Ne,Grand Rapids,MI,49505
12012,3814 Plainfield Road Ne,Grand Rapids,MI,49505-2406
12013,5353 Northland Dr,Grand Rapids,MI,49505-1043
12014,7100 Fulton St,Ada,MI,49301
12015,920 S Us27,St. Johns,MI,48879
12016,2400 E Main St,Owosso,MI,48867-9073
12017,601 W Main St,Owosso,MI,48867-2609
12018,3060 Miller Rd,Flint,MI,48507-1354
12019,2145 S Linden Rd,Flint,MI,48532-4175
12020,1232 N Ballenger Hwy,Flint,MI,48504
12021,1500 W Bristol Rd,Flint,MI,48507
12022,3212 Clio Rd,Flint,MI,48504-7161
12023,4237 Elms Rd,Swartz Creek,MI,48473-1560
12024,G3391 S Saginaw St,Burton,MI,48529-1244
12025,4131 W Pierson Rd,Flint,MI,48504-1334
12026,5543 Fenton Rd,Flint,MI,48507-4030
12027,1831 S Dort Hwy,Flint,MI,48504
12028,6460 W Pierson Road,Flushing,MI,48433-2345
12029,1510 Stewart,Flint,MI,48505-3600
12030,1110 South State Road,Davison,MI,48423-1906
12031,7518 Lapeer Rd,Davison,MI,48423
12032,5375 E Court St,Burton,MI,48509
12033,486 S Main St,Lapeer,MI,48446-2427
12034,3989 S Lapeer,Metamora,MI,48455
12035,1217 Imlay City Road,Lapeer,MI,48446
12036,635 South Cedar,Imlay City,MI,48444-1343
12037,2445 Center Rd,Burton,MI,48519
12038,3719 Davison Road East,Flint,MI,48506-4205
12039,3180 N Genesee Rd,Flint,MI,48506
12040,2805 Wadhams,Smiths Creek,MI,48074-1433
12041,3189 Capac Rd,Capac,MI,48014
12042,4155 24th Ave,Fort Gratiot,MI,48059
12043,2509 Pine Grove Ave,Port Huron,MI,48060-2868
12044,1201 24th St,Port Huron,MI,48060-4849
12045,4987 Transit Rd,Williamsville,NY,14221
12046,2231 Grand Island Blvd,Grand Island,NY,14072
12047,820 Young St,Tonawanda,NY,14150
12048,3534 Delaware Ave,Kenmore,NY,14217
12049,1385 Niagara Falls Blvd,Amherst,NY,14226
12050,315 Meadow Dr,North Tonawanda,NY,14120
12051,3400 Sheridan Drive,Amherst,NY,14226-1544
12052,3120 Niagara Falls Blvd,Amherst,NY,14228
12053,3540 Main St,Amherst,NY,14226
12054,12976 Main St,Akron,NY,14001
12055,4138 W Main St,Batavia,NY,14020
12056,573 E Main St,Batavia,NY,14020
12057,5150 Sheridan Dr,Williamsville,NY,14221
12058,5316 Main St,Williamsville,NY,14221
12059,67 Main St,Le Roy,NY,14482
12060,7633 Ny-96,Victor,NY,14564
12061,4840 W Henrietta Rd,Henrietta,NY,14467
12062,2121 E Henrietta,Rochester,NY,14623
12063,6092 Rt 96,Farmington,NY,14425
12064,1241 Pittsford-Palmyra Road,Macedon,NY,14502
12065,4126 Ny Rt 96,Manchester,NY,14504
12066,8 Forgham St,Lyons,NY,14489
12067,531 W Union St,Newark,NY,14513
12068,5288 W Genesee St,Camillus,NY,13031
12069,3329 W Genesee St,Syracuse,NY,13219
12070,4733 Onondaga Blvd,Syracuse,NY,13219
12071,6105 S Salina,Syracuse,NY,13205
12072,2442 Erie Blvd E,Syracuse,NY,13224
12073,3207 Erie Blvd E,De Witt,NY,13214
12074,1804 Teall Ave,Syracuse,NY,13206
12075,400 Towne Drive,Fayetteville,NY,13066
12076,3918 Oneida St,Washington Mills,NY,13479
12077,37 Meadow St,Clinton,NY,13323
12078,103 N Caroline St,Herkimer,NY,13350
12079,30 E Clark St,Ilion,NY,13357
12080,158 Market St,Amsterdam,NY,12010
12081,220 5th Avenue Extension Rte 30,Gloversville,NY,12078
12082,220 North Comrie Ave,Johnstown,NY,12095
12083,201 Church Ave Rte 50,Ballston Spa,NY,12020
12084,519 Rte 67,Malta,NY,12020
12085,197 S Broadway,Saratoga Springs,NY,12866
12086,50 Albany St,Little Falls,NY,13365
12087,569 Mast Rd,Goffstown,NH,03045
12088,907 2nd St,Manchester,NH,03102
12089,196 S Willow St,Manchester,NH,03103
12090,907 Hanover St,Manchester,NH,03109
12091,1254 Hooksett Rd,Hooksett,NH,03106
12092,148 Portsmouth Ave,Exeter,NH,03833
12093,56 Calef Highway,Epping,NH,03042
12094,2 Essex Dr,Raymond,NH,03077
12095,1000 Lafayette Rd,Portsmouth,NH,03801
12096,63 Ocean Road,Greenland,NH,03840
12097,150 Roberts Creek Road,Roseburg,OR,97471
12098,755 Air Base Rd,Mountain Home,ID,83647
12099,2840 American Legion Blvd,Mountain Home,ID,83647
12100,1275 Parkway Dr,Blackfoot,ID,83221-1833
12101,1212 N Main Ave,Sioux Center,IA,51250
12102,101 34th Ave,Sheldon,IA,51201
12103,701 11th St Sw,Spencer,IA,51301
12104,1321 Hwy 169 N,Algona,IA,50511-1006
12105,2010 South Federal Avenue,Mason City,IA,50401
12106,1651 4th Street Sw,Mason City,IA,50401-1602
12107,2 Plaza Dr,Clear Lake,IA,50428-2031
12108,8308 Greenway Blvd,Middleton,WI,53562-3505
12109,2626 Allen Blvd,Middleton,WI,53562-2214
12110,4500 University Ave,Madison,WI,53705-2155
12111,651 W Main St,Waunakee,WI,53597-1105
12112,4502 E Washington Ave,Madison,WI,53704-3234
12113,2750 Prairie Lakes Drive,Sun Prairie,WI,53590
12114,401 W Cottage Grove,Cottage Grove,WI,53527-9323
12115,4020 Milwaukee St,Madison,WI,53704-1910
12116,505 A St,Sun Prairie,WI,53590-2066
12117,2733 E Washington Ave,Madison,WI,53704
12118,2901 Dryden Dr,Madison,WI,53704-3009
12119,4409 Hwy 19,Windsor,WI,53598-9621
12120,111 E Tyranena Pk Rd,Lake Mills,WI,53551-0048
12121,800 E Linmar Rd,Watertown,WI,53094-8506
12122,625 S Church St,Watertown,WI,53094-6298
12123,N56w15475 Silver Spring Dr,Menomonee Falls,WI,53051
12124,N83w15515 Appleton Ave,Menomonee Falls,WI,53051-3713
12125,11313 W Silver Spring Dr,Milwaukee,WI,53225
12126,3800 N 124th St,Wauwatosa,WI,53222
12127,N92 W17512 County Line Road,Germantown,WI,53022-4627
12128,3131 N Mayfair Rd,Wauwatosa,WI,53222-3201
12129,621 Ryan St,Pewaukee,WI,53072
12130,880 E Wisconsin Ave,Oconomowoc,WI,53066-3150
12131,W24 N6522 County Rd J,Sussex,WI,53089-3536
12132,1383 Capitol Dr,Pewaukee,WI,53072-1844
12133,5739 W Silver Spring Dr,Milwaukee,WI,53218
12134,8220 W Hampton Ave,Milwaukee,WI,53218
12135,76th And Good Hope Rd,Milwaukee,WI,53223
12136,4925 W Hampton Ave,Milwaukee,WI,53218
12137,7451 W Appleton Ave,Milwaukee,WI,53216-1005
12138,5265 W Fond Du Lac Ave,Milwaukee,WI,53216-1363
12139,5191 N Teutonia Ave,Milwaukee,WI,53209-5541
12140,7170 N Teutonia,Milwaukee,WI,53209-2320
12141,2700 W Capital Dr,Milwaukee,WI,53216-2641
12142,8100 W Brown Deer Rd,Milwaukee,WI,53223-1704
12143,5344 N Port Washington Rd,Glendale,WI,53217
12144,420 E Capitol,Milwaukee,WI,53212-1212
12145,1696 Sternberg Road,Muskegon,MI,49444
12146,406 W Savidge,Spring Lake,MI,49456
12147,730 West Norton Avenue,Norton Shores,MI,49441
12148,6564 Airline Rd,Fruitport,MI,49415
12149,450 W Division,Sparta,MI,49345-1044
12150,500 E Division,Rockford,MI,49341-1323
12151,1125 W State Rd,Belding,MI,48809
12152,409 South Maplewood,Greenville,MI,48838
12153,906 N Lafayette,Greenville,MI,48838-1130
12154,615 W Main St,Carson City,MI,48811
12155,12943 Brady Road,Chesaning,MI,48616-9561
12156,249 E State St,Montrose,MI,48457
12157,213 N State St,Otisville,MI,48463
12158,7370 Genesee St,Genesee,MI,48437
12159,8010 N Dort Highway,Mt Morris,MI,48458
12160,7252 N Saginaw Rd,Mt Morris,MI,48458
12161,4313 W Vienna Rd,Clio,MI,48420-9440
12162,105 Main St,Yale,MI,48097
12163,1726 Pine Ave,Niagara Falls,NY,14301
12164,8320 Niagara Falls Blvd,Niagara Falls,NY,14304
12165,5863 S Transit Rd,Lockport,NY,14094-6319
12166,44 Nichols St,Spencerport,NY,14559
12167,3303 Chili Ave,Rochester,NY,14624
12168,1965 Chili Ave,Gates,NY,14624
12169,35 Spencer Port Rd,Rochester,NY,14606
12170,1450 Lyell Avenue,Rochester,NY,14606
12171,1422-32 Mount Hope Ave,Rochester,NY,14620
12172,420 Monroe Avenue,Rochester,NY,14607
12173,45 Jay Scutti Blvd,Rochester,NY,14623
12174,3001 South Winton Road,Rochester,NY,14623
12175,275 Upper Falls Blvd,Rochester,NY,14605
12176,1701 East Ave,Rochester,NY,14610
12177,788 Lake Ave,Rochester,NY,14613
12178,820 Culver Rd,Rochester,NY,14609
12179,3280 Monroe Ave,Rochester,NY,14618
12180,657 East Ridge Rd,Rochester,NY,14621
12181,2191 Penfield Rd,Penfield,NY,14526
12182,6720 Pittsford Palmyra Rd,Fairport,NY,14450
12183,1854 Empire Blvd,Webster,NY,14580
12184,7505 Oswego Road,Liverpool,NY,13089
12185,3869 Route 31,Liverpool,NY,13090
12186,421 7th North Street,Liverpool,NY,13088
12187,3806 Brewerton Rd,North Syracuse,NY,13212
12188,2234 Downer Street Rd,Baldwinsville,NY,13027
12189,7893 Brewerton Road,Cicero,NY,13039
12190,6481 Thompson Rd,Syracuse,NY,13206
12191,5879 Rt 31,Cicero,NY,13039
12192,13 N Peterboro St,Canastota,NY,13032
12193,274 Genesee St,Oneida,NY,13421
12194,8522 Seneca Turnpike,New Hartford,NY,13413
12195,350 Oriskany Blvd,Yorkville,NY,13495
12196,171 N Genesee St,Utica,NY,13502
12197,1124 Mohawk St,Utica,NY,13503
12198,1700 Genesee St,Utica,NY,13501
12199,1249 Rt 29,Greenwich,NY,12834
12200,3003 Ny 50,Saratoga Springs,NY,12866
12201,188 Depot Street,Manchester,VT,05255
12202,316 West Main St,Hillsborough,NH,03244
12203,44 Concord Rd,Lee,NH,03857
12204,90 S Main St,Concord,NH,03301
12205,49 Gosling Rd,Newington,NH,03801
12206,335 Us Rte 1,Kittery,ME,03904
12207,2535 Nw Stewart Parkway,Roseburg,OR,97470
12208,511 Ne Garden Valley Rd,Roseburg,OR,97470-2081
12209,915 Short St,Decorah,IA,52101-2412
12210,875 Hwy 14 E,Richland Center,WI,53581-2919
12211,727 Us Hwy 12 Phillips Blvd,Sauk City,WI,53583
12212,981 W North St,Deforest,WI,53532-1971
12213,1450 E Sumner St,Hartford,WI,53027-2605
12214,3230b Pioneer Road,Richfield,WI,53076
12215,N112w15936 Mequon Road,Germantown,WI,53022
12216,11250 N Port Washington Rd,Mequon,WI,53092-3410
12217,2570 Washington St,Grafton,WI,53024
12218,W62n270 Washington St,Cedarburg,WI,53012-2763
12219,606 Falls Rd,Grafton,WI,53024-2619
12220,1831 Sherman Blvd West,Muskegon,MI,49441-3428
12221,190 Whitehall,North Muskegon,MI,49445
12222,1491 Apple Ave,Muskegon,MI,49442-3748
12223,2237 Holton Road,Muskegon,MI,49445
12224,1779 E Sherman Blvd,Muskegon,MI,49444
12225,3586 E Apple Ave,Muskegon,MI,49442
12226,4141 17 Mile Road,Cedar Springs,MI,49319-9451
12227,329 E Main,Stanton,MI,48888
12228,1352 E Center St,Ithaca,MI,48847-1608
12229,1000 Saginaw St,St. Charles,MI,48655
12230,8715 Main St,Birch Run,MI,48415-9700
12231,5947 N Lapeer Rd,North Branch,MI,48461
12232,3430 Main St,Marlette,MI,48453-1239
12233,174 S Howard,Croswell,MI,48422
12234,3929 Lockport Olcott Rd,Lockport,NY,14094
12235,11201 Maple Ridge Rd,Medina,NY,14103
12236,112 West Ave,Albion,NY,14411
12237,6500 Brockport Spencer Port Rd,Brockport,NY,14420
12238,140 South Ave,Hilton,NY,14468
12239,3700 Dewey Avenue,Greece,NY,14616
12240,729 Long Pond Rd,Rochester,NY,14612
12241,1571 Ridge Rd E,Rochester,NY,14621
12242,2341 Ridge Rd W,Rochester,NY,14626
12243,1204 Rt 104,Ontario,NY,14519
12244,1135 Ridge Road,Webster,NY,14580
12245,4090 Pearsall St,Williamson,NY,14589
12246,3781 Westridge Rd,Rochester,NY,14626
12247,5658 Whiskey Hill Rd,Wolcott,NY,14590
12248,9563 Brewerton Rd,Brewerton,NY,13029
12249,3001 East Ave,Central Square,NY,13036
12250,701 S 4th Street,Fulton,NY,13069
12251,1150 Erie Blvd W,Rome,NY,13440
12252,1707 Black River Blvd,Rome,NY,13440
12253,192 Corinth Road,Queensbury,NY,12804
12254,364 Broadway,Ft. Edward,NY,12828
12255,111 Main Street,South Glens Falls,NY,12803
12256,364 Dix Ave,Queensbury,NY,12804
12257,1 Chester Road,Springfield,VT,05156
12258,4 Nichols Mill Lane,Warner,NH,03278
12259,117 Loudon Rd,Concord,NH,03301
12260,111 Fisherville Rd,Concord,NH,03303
12261,912 Central Ave,Dover,NH,03820
12262,291 N Main St,Rochester,NH,03867
12263,161 Wakefield St,Rochester,NH,03867
12264,1881 Dover Rd,Epsom,NH,03234
12265,992 Post Rd,Wells,ME,04090
12266,3303 Broadway Avenue,North Bend,OR,97459-2201
12267,772 S Broadway,Coos Bay,OR,97420-1542
12268,1379 W Central,Sutherlin,OR,97479
12269,6737 South 45th West,Idaho Falls,ID,83402
12270,526 E 2nd St,Winner,SD,57580-1355
12271,1006 Stakeout Road,Okoboji,IA,51355
12272,N3240 County Rd J,Poynette,WI,53955-9445
12273,1540 James Street,Columbus,WI,53925
12274,1140 S Main St,West Bend,WI,53095-1923
12275,N168w22225 Main St,Jackson,WI,53037-9474
12276,1810 W Washington St,West Bend,WI,53095-2302
12277,1700 N Wisconsin Rd,Port Washington,WI,53074-1044
12278,656 E Green Bay Ave,Saukville,WI,53080
12279,3038 Colby Street,Whitehall,MI,49461-9637
12280,8175 S Mason,Newaygo,MI,49337
12281,807 Main St,Edmore,MI,48829
12282,9150 Howard City Edmore Rd,Lakeview,MI,48850
12283,115 W Washington Ave,St. Louis,MI,48880
12284,1625 Wright Ave,Alma,MI,48801-1021
12285,7778 Gratiot Ave,Saginaw,MI,48609-5017
12286,6331 Dixie Hwy,Bridgeport,MI,48722-9566
12287,3700 E Genesee St,Saginaw,MI,48601-4280
12288,3200 Holland Rd,Saginaw,MI,48601-6600
12289,3670 E Washington Rd,Saginaw,MI,48601
12290,1454 N Michigan Ave,Saginaw,MI,48602
12291,510 S Michigan Ave,Saginaw,MI,48602-1525
12292,120 W Saginaw St,Hemlock,MI,48626
12293,5008 State St,Saginaw,MI,48603-3708
12294,2745 Bay Road,Saginaw,MI,48603-3310
12295,933 W Huron,Vassar,MI,48768
12296,478 N Main St,Frankenmuth,MI,48734
12297,450 W Sanilac,Sandusky,MI,48471-1065
12298,819 Rte 9,Queensbury,NY,12804
12299,8644 State Hwy 22,Granville,NY,12832
12300,231 Washington St,Claremont,NH,03743
12301,20 John Stark Hwy,Newport,NH,03773
12302,822 Central St,Franklin,NH,03235
12303,2 Post Office Square,Kennebunk,ME,04043
12304,1439 Main Street,Sanford,ME,04073
12305,1008 Main St,Sanford,ME,04073
12306,1311 N Meridian Road,Kuna,ID,83634
12307,6190 South Five Mile Road,Boise,ID,83709
12308,1108 12th Ave Rd,Nampa,ID,83686-5739
12309,6574 S Federal Way,Boise,ID,83716
12310,720 N Main St,Hailey,ID,83333
12311,1485 W Broadway,Idaho Falls,ID,83402
12312,650 E 17th St,Idaho Falls,ID,83401
12313,1575 N Gate Mile,Idaho Falls,ID,83401
12314,3535 E Avalanche St.,Idaho Falls,ID,83401
12315,1875 South 25th East,Ammon,ID,83406
12316,1110 W Broadway,Jackson,WY,83001
12317,5201 S Louise Ave,Sioux Falls,SD,57108
12318,3200 S Minnesota Ave,Sioux Falls,SD,57105-5651
12319,4000 W 41st St,Sioux Falls,SD,57103
12320,7500 South Minnesota Ave,Sioux Falls,SD,57108
12321,2416 W 12th St,Sioux Falls,SD,57104-3813
12322,917 E 10th Street,Sioux Falls,SD,57103
12323,3101 E 26th St,Sioux Falls,SD,57103-4033
12324,8320 West 41st Street,Sioux Falls,SD,57106
12325,1214 N Main St,Viroqua,WI,54665
12326,1500 Main St,Reedsburg,WI,53959-1458
12327,1639 N Spring St,Beaver Dam,WI,53916-2206
12328,840 Park Ave,Beaver Dam,WI,53916-2206
12329,2860 New Pinery Rd,Portage,WI,53901-9223
12330,1157 Horicon St,Mayville,WI,53050-1443
12331,314 Pine St,Baraboo,WI,53913-1174
12332,1200 Wisconsin Dells Pkwy S,Baraboo,WI,53913
12333,108 Highland Dr,Fredonia,WI,53021
12334,102 Badger Rd Hwy 45,Kewaskum,WI,53040
12335,107 Lakeview Dr,Belgium,WI,53004
12336,1348 W Main St,Fremont,MI,49412-1465
12337,550 E Wright Ave,Shepherd,MI,48883
12338,7374 Midland Rd,Freeland,MI,48623-8803
12339,2930 Tittabawassee Road,Saginaw,MI,48604-9468
12340,6325 W Side Saginaw Road,Bay City,MI,48706-9385
12341,740 S State St,Caro,MI,48723-1735
12342,246 State Rt 104,Oswego,NY,13126
12343,230 W Bridge St,Oswego,NY,13126
12344,3362 Main St,Mexico,NY,13114
12345,3789 Ny-13,Pulaski,NY,13142
12346,3632 Main Street,Warrensburg,NY,12885
12347,5 Tilton Road,Tilton,NH,03276
12348,1231 Union Ave,Laconia,NH,03246
12349,15 Homestead Place,Alton,NH,03809
12350,388 Elm St,Biddeford,ME,04005
12351,524 N Main,Saco,ME,04072
12352,310 N 14th St,Reedsport,OR,97467
12353,16505 Reed Road,La Pine,OR,97739
12354,641 N Hwy 20,Hines,OR,97738
12355,2923 Cleveland Blvd,Caldwell,ID,83605-4425
12356,612 North 10th Ave,Caldwell,ID,83605
12357,16801 N Marketplace Blvd,Nampa,ID,83687
12358,148 Caldwell Blvd,Nampa,ID,83651-2333
12359,4412 Garrity Blvd,Nampa,ID,83687
12360,3415 W Cherry Lane,Meridian,ID,83642
12361,10474 W State St,Star,ID,83669
12362,1460 West Chinden Boulevard,Eagle,ID,83646
12363,1710 E Fairview Ave,Meridian,ID,83642
12364,3251 E Ustick Rd,Meridian,ID,83646
12365,3100 E Magic View Dr,Meridian,ID,83642
12366,195 E Central Dr,Meridian,ID,83642
12367,9804 Fairview Ave,Boise,ID,83704
12368,8571 W Franklin Rd,Boise,ID,83709
12369,7811 Fairview Ave,Boise,ID,83704
12370,178 S Eagle Rd,Eagle,ID,83616
12371,4825 North Glenwood Street,Boise,ID,83714-1323
12372,510 N Orchard,Boise,ID,83704
12373,2510 Fairview Ave,Boise,ID,83702
12374,7222 Overland Rd,Boise,ID,83709
12375,1185 Vista Ave,Boise,ID,83705-2430
12376,1375 South Broadway Avenue,Boise,ID,83706-3703
12377,611 Shoshoni St,Thermopolis,WY,82443
12378,1521 S Burr,Mitchell,SD,57301-4770
12379,4903 N Cliff Ave,Sioux Falls,SD,57104
12380,922 Splitrock Blvd,Brandon,SD,57005
12381,1001 S Kniss,Luverne,MN,56156
12382,1320 Ray Dr,Worthington,MN,56187
12383,2217 N State St,Fairmont,MN,56031-3633
12384,1202 Buccaneer Dr,Blue Earth,MN,56013
12385,840 Happy Trails Ln,Albert Lea,MN,56007
12386,1009 W Oakland Ave,Austin,MN,55912-2217
12387,1402 14th St Nw,Austin,MN,55912
12388,609 E Main St,Albert Lea,MN,56007-2936
12389,2808 Bridge Ave,Albert Lea,MN,56007-2082
12390,30 Commerce Street,Wisconsin Dells,WI,53965
12391,2325 Wisconsin Dells Parkway,Wisconsin Dells,WI,53965
12392,932 E Main St,Waupun,WI,53963-1502
12393,630 E Ave,Lomira,WI,53048-9572
12394,4256 W Polk Rd,Hart,MI,49420
12395,1020 S State St,Big Rapids,MI,49307-2254
12396,1963 E Remus Rd,Mt Pleasant,MI,48858
12397,904 E Pickard Ave,Mt Pleasant,MI,48858
12398,4885 Garfield Road,Auburn,MI,48611-9421
12399,601 Waldo Ave,Midland,MI,48642
12400,1711 South Saginaw Rd,Midland,MI,48640-2631
12401,2738 N M-30,Sanford,MI,48657
12402,4925 Eastman Road,Midland,MI,48640-8472
12403,5600 E Pickard Rd,Mt Pleasant,MI,48858
12404,1804 S Mission,Mt Pleasant,MI,48858
12405,5111 Mckinaw Road,Bay City,MI,48706
12406,2515 S Huron Ave,Kawkawlin,MI,48631
12407,918 N Euclid Ave,Bay City,MI,48706
12408,901 S Euclid,Bay City,MI,48706
12409,3840 E Wilder Rd,Bay City,MI,48706-2146
12410,314 Washington Ave,Bay City,MI,48708
12411,1495 Center Rd,Essexville,MI,48732
12412,510 North Tuscola Road,Bay City,MI,48708
12413,6180 Cass City Rd,Cass,MI,48726
12414,22 Washington Street Ext,Fair Haven,VT,05743
12415,195 Woodstock Ave,Rutland,VT,05701
12416,182 South Main St,Rutland,VT,05701
12417,249 Plainfield Rd (Rte 12a),West Lebanon,NH,03784
12418,45 Beswick Dr,White River Junction,VT,05001
12419,209 Daniel Webster Hwy,Meredith,NH,03253
12420,419 Gorham Rd,South Portland,ME,04106
12421,221 Us Hwy 1,Scarborough,ME,04074
12422,95 Main St,Westbrook,ME,04092
12423,332 Saint John St,Portland,ME,04102
12424,150 Waterman Dr,South Portland,ME,04106
12425,1208 Forest Ave,Portland,ME,04103
12426,1520 Gateway Blvd,Cottage Grove,OR,97424-1262
12427,850 University Blvd,Rexburg,ID,83440
12428,200 S Main,Chamberlain,SD,57325-1520
12429,1704 N Main St,Mitchell,SD,57301-1119
12430,2810 Losey Blvd S,La Crosse,WI,54601
12431,600 Mcevoy Rd,Mauston,WI,53948
12432,699 S Military Rd,Fond Du Lac,WI,54935-4702
12433,770 W Johnson St,Fond Du Lac,WI,54935-2016
12434,929 E Johnson St,Fond Du Lac,WI,54935-9399
12435,2111 Eastern Ave,Plymouth,WI,53073-4268
12436,1060 Hwy 32 N,Sheboygan Falls,WI,53085-2511
12437,3418 Kohler Memorial Dr,Sheboygan,WI,53081-8300
12438,2425 S Business Dr,Sheboygan,WI,53081-6134
12439,2307 North Ave,Sheboygan,WI,53083
12440,3626 S Taylor Dr,Sheboygan,WI,53081
12441,599 S Unionville Rd,Sebewaing,MI,48759
12442,871 N Van Dyke,Bad Axe,MI,48413
12443,58 W Church St,Adams,NY,13605
12444,7404 Turin Rd.,Lowville,NY,13367
12445,11 Ridgeview Lane,Plymouth,NH,03264
12446,2380 Nh-16,West Ossipee,NH,03890
12447,227 Us Hwy 1,Falmouth,ME,04105
12448,1335 S Washington,Emmett,ID,83617
12449,175 Valley River Dr,Rexburg,ID,83440
12450,186 6th St,Windom,MN,56101-1916
12451,2437 W George St,La Crosse,WI,54601
12452,9398 State Road 16,Onalaska,WI,54650
12453,3924 Circle Dr,Holmen,WI,54636
12454,620 S Black River St,Sparta,WI,54656-2216
12455,1701 East Bridge Street,New Lisbon,WI,53950
12456,206 N Pioneer Park Rd,Westfield,WI,53964-8868
12457,1113 W Fond Du Lac St,Ripon,WI,54971-9999
12458,1135 Service Rd,Kiel,WI,53042-1282
12459,4985 Park St,Reed City,MI,49677-9634
12460,821 W 7th St,Evart,MI,49631
12461,10295 S Clare Ave,Clare,MI,48617-9733
12462,766 E Pinconning Rd,Pinconning,MI,48650
12463,1148 Wicker St,Ticonderoga,NY,12883
12464,1869 Vt Route 66,Randolph,VT,05060
12465,790 Roosevelt Rail Rte 302,Windham,ME,04062
12466,154 Pleasant St,Brunswick,ME,04011
12467,1 Topsham Fair Mall,Topsham,ME,04086
12468,11 Gurnet Rd,Brunswick,ME,04011
12469,11 Mallet Dr,Freeport,ME,04032
12470,8 Main St,Gray,ME,04039
12471,2 Chandler Dr,Bath,ME,04530
12472,2060 Hwy 101,Florence,OR,97439
12473,1565 Mohawk Blvd,Springfield,OR,97477-3355
12474,5701 Main St,Springfield,OR,97477
12475,2855 Willamette,Eugene,OR,97401
12476,659 E Broadway,Eugene,OR,97403
12477,3555 W 11th St,Eugene,OR,97402
12478,1910 6th Ave W,Eugene,OR,97402-4308
12479,220 Sw Century Dr,Bend,OR,97702
12480,1151 Se 3rd,Bend,OR,97702
12481,2630 Ne Hwy 20,Bend,OR,97701
12482,2048 Ne 3rd St,Bend,OR,97701-3815
12483,1476 Sw 4th Ave,Ontario,OR,97914
12484,1690 E Idaho Ave,Ontario,OR,97914-3028
12485,1580 Elkhorn Ave,Payette,ID,83661
12486,1700 Big Horn Ave,Worland,WY,82401
12487,720 Cleveland St,Rapid City,SD,57701
12488,320 2nd St Nw,Madison,SD,57042
12489,609 8th Ave Se,Pipestone,MN,56164
12490,313 1st Ave S,St. James,MN,56081
12491,1306 Apache Dr Sw,Rochester,MN,55902
12492,1505 2nd St Sw,Rochester,MN,55902-0356
12493,1116 N Broadway,Rochester,MN,55906
12494,2121 Commerce Drive Nw,Rochester,MN,55901
12495,4636 Commercial Dr Sw,Rochester,MN,55902
12496,2180 Wheelock Drive Ne,Rochester,MN,55906
12497,5500 Bandel Rd Nw,Rochester,MN,55901
12498,955 High Point Drive Ne,Byron,MN,55920
12499,905 E Hwy 61,Winona,MN,55987
12500,1620 Service Dr,Winona,MN,55987-2177
12501,2015 N Superior Ave,Tomah,WI,54660
12502,453 S Main St,Adams,WI,53910
12503,N2545 Plaza Rd,Wautoma,WI,54982
12504,295 Broadway Street,Berlin,WI,54923-1703
12505,1995 Menard Dr,Oshkosh,WI,54901-6178
12506,2240 Westowne Ave,Oshkosh,WI,54904-9999
12507,1863 N Jackson St,Oshkosh,WI,54901-2203
12508,1123 E Chestnut,Chilton,WI,53014-1601
12509,5050 Hecker Rd,Manitowoc,WI,54221
12510,5389 W Us Hwy 10,Ludington,MI,49431
12511,612 N 1st St,Harrison,MI,48625-8401
12512,1107 Cedar St,Gladwin,MI,48624-1815
12513,515 S Us Hwy 23,Standish,MI,48658
12514,1809 State St,Watertown,NY,13601
12515,23339 Ny-12,Watertown,NY,13601
12516,7952 Route 11,Calcium,NY,13616
12517,924 Arsenal St,Watertown,NY,13601
12518,98 Bridge St,Carthage,NY,13619
12519,280 Court St,Middlebury,VT,05753
12520,112 Main St,Lincoln,NH,03251
12521,1750 White Mountain Hwy,North Conway,NH,03818
12522,5 Lumberyard Drive,Bridgton,ME,04009
12523,1502 Maine Street,Poland,ME,04274
12524,580 Lisbon Street,Lisbon Falls,ME,04252
12525,695 Bath Road,Wiscasset,ME,04578
12526,485 Main Street Rte 1,Damariscotta,ME,04543
12527,2125 Cubit St,Eugene,OR,97402
12528,91027 S Coburg Industrial Way,Coburg,OR,97408
12529,3405 Gateway St,Springfield,OR,97477-1057
12530,1580 Coburg Rd,Eugene,OR,97401-4802
12531,55 River Ave,Eugene,OR,97402
12532,2223 W Main St,Rapid City,SD,57702
12533,804 E North St,Rapid City,SD,57701-1689
12534,3919 Cheyenne Blvd,Rapid City,SD,57703
12535,680 Reagan Ave,Box Elder,SD,57719
12536,1411 Madison Ave,Mankato,MN,56001-5441
12537,1921 Adams St,Mankato,MN,56001
12538,150 W Lind Ct,Mankato,MN,56001-0400
12539,1105 W Frontage Rd,Owatonna,MN,55060
12540,6874 W Frontage Rd,Medford,MN,55049
12541,1600 N State St,Waseca,MN,56093-2713
12542,102 E Bell St,Neenah,WI,54956-4153
12543,705 Green Bay Rd,Neenah,WI,54956-3174
12544,570 W Ryan St,Brillion,WI,54110
12545,1414 Lake St,Two Rivers,WI,54241-3535
12546,3512 Calumet Ave,Manitowoc,WI,54220-5430
12547,2822 Route 7,Ferrisburgh,VT,05456
12548,478 S Barre Rd,Barre,VT,05641
12549,10 Forest Avenue,Woodsville,NH,03785
12550,138 Center St,Auburn,ME,04210
12551,828 Minot Ave,Auburn,ME,04210
12552,1035 Lisbon Street,Lewiston,ME,04240
12553,60 Camden St,Rockland,ME,04841
12554,158 New County Road,Thomaston,ME,04861
12555,355 W 10th,Junction City,OR,97448
12556,2456 S Hwy 97,Redmond,OR,97756-8874
12557,895 Sw Rimrock Way,Redmond,OR,97756
12558,1001 Railway Avenue,Sisters,OR,97759
12559,498 W 3rd St,Prineville,OR,97754
12560,406 E Main St,Weiser,ID,83672
12561,806 Camel Dr,Gillette,WY,82716-4923
12562,2112 Westover Rd,Gillette,WY,82718
12563,1605 6th St,Brookings,SD,57006
12564,1705 S Broadway,New Ulm,MN,56073
12565,525 Nw 4th Street,Faribault,MN,55021-5032
12566,2101 180th Ave,Zumbrota,MN,55992
12567,310 Nelson Dr,Arcadia,WI,54612
12568,851 State Highway 54,Black River Falls,WI,54615-5452
12569,110 Market St,Nekoosa,WI,54457-1122
12570,3301 W College Ave,Appleton,WI,54914-3921
12571,W6308 Walley Way,Greenville,WI,54942
12572,1281 Valley Rd,Menasha,WI,54952-1136
12573,212 Racine St,Menasha,WI,54952
12574,700 W Northland Ave,Appleton,WI,54914-1425
12575,401 Lawe St,Kaukauna,WI,54130-2019
12576,300 Moasis Drive,Little Chute,WI,54140
12577,840 Eisenhower Dr,Kimberly,WI,54136-2146
12578,2001 S Kensington Dr,Appleton,WI,54915
12579,3320 N Ballard Rd,Appleton,WI,54911-8987
12580,1630 S Us Hwy 31,Manistee,MI,49660
12581,6231 M 115,Cadillac,MI,49601
12582,8560 E 34 Road,Cadillac,MI,49601
12583,1991 W Houghton Lake Dr,Prudenville,MI,48651
12584,2940 Cook Rd,West Branch,MI,48661-9338
12585,605 East Lake Street,Tawas City,MI,48730
12586,26 Demars Blvd,Tupper Lake,NY,12986
12587,569 Lake Flower Rd,Saranac Lake,NY,12983
12588,2174 Saranac Ave,Lake Placid,NY,12946
12589,1332 Us Rte 302,Barre,VT,05641
12590,75 Old County Road,Littleton,NH,03561
12591,118 Main St,South Paris,ME,04281
12592,40 Bridge St,Gardiner,ME,04345
12593,85 Bangor St,Augusta,ME,04330
12594,209 Western Ave,Augusta,ME,04330
12595,2000 Hwy 20,Sweet Home,OR,97386
12596,480 E Hart St,Buffalo,WY,82834
12597,2351 Lazelle St,Sturgis,SD,57785
12598,610 W Sioux Ave,Pierre,SD,57501
12599,1865 Dakota Ave S,Huron,SD,57350-3932
12600,1200 E College Dr,Marshall,MN,56258-2010
12601,120 Saint Julien St,St. Peter,MN,56082
12602,1101 S Hwy 3,Northfield,MN,55057-3086
12603,2128 8th St S,Wisconsin Rapids,WI,54494-6153
12604,200 S Western Ave,Waupaca,WI,54981-9175
12605,1135 N Shawano St,New London,WI,54961
12606,1373 S Broadway,De Pere,WI,54115
12607,610 Depere Rd,Denmark,WI,54208-0754
12608,32 N Morey Rd,Lake City,MI,49651
12609,9307 W Lake City Rd,Houghton Lake,MI,48629
12610,2770 S M 33,Rose City,MI,48654
12611,5050 N Huron Rd,Oscoda,MI,48750
12612,118 E Main St,Gouverneur,NY,13642
12613,1125 Shelburne Rd,South Burlington,VT,05403
12614,214 Main St,Gorham,NH,03581
12615,282 Main St,Belfast,ME,04915
12616,125 S 14th St,Philomath,OR,97370
12617,300 Nw 3rd St,Corvallis,OR,97330
12618,2250 S Santiam Hwy,Lebanon,OR,97355-2481
12619,2005 17th St,Cody,WY,82414-4718
12620,131 Ryan Rd,Spearfish,SD,57783-1212
12621,1271 E Bridge St,Redwood Falls,MN,56283-1901
12622,101 Chalupsky Avenue Se,New Prague,MN,56071
12623,31675 65th Ave,Cannon Falls,MN,55009
12624,2770 N Service Dr,Red Wing,MN,55066-1985
12625,127 N Divison St,Stevens Point,WI,54481-1150
12626,2601 Plover Road,Plover,WI,54467
12627,1205 Commons Circle,Plover,WI,54467
12628,5625 Hwy 10 E,Stevens Point,WI,54481-9183
12629,140 E State Highway 54,Seymour,WI,54165
12630,1609 S Main St,Green Bay,WI,54302-2626
12631,1903 S Webster Ave,Green Bay,WI,54301-2255
12632,1125 Radisson St,Green Bay,WI,54302-1647
12633,2340 E Mason St,Green Bay,WI,54302-3746
12634,2421 Monroe Rd,De Pere,WI,54115-9217
12635,2340 S Oneida St,Green Bay,WI,54304-5231
12636,2721 Manitowoc Road,Green Bay,WI,54311
12637,1587 Shawano Ave,Green Bay,WI,54303-3218
12638,2625 W Mason St,Green Bay,WI,54303-4964
12639,2600 S Packerland Dr,Green Bay,WI,54313
12640,1022 Main Ave,De Pere,WI,54115-1308
12641,2420 Velp Ave,Green Bay,WI,54303-6534
12642,408 Center Dr,Luxemburg,WI,54217
12643,405 N 5th St,Roscommon,MI,48653
12644,741 Bear Swamp Rd,Peru,NY,12972
12645,106 Pearl St,Essex Junction,VT,05452
12646,71 Upper Main St,Essex,VT,05452
12647,44 S Park Dr,Colchester,VT,05446
12648,1205 Williston Rd,South Burlington,VT,05403
12649,79 Heineberg Rd,Colchester,VT,05446
12650,105 Morrisville Plz,Morrisville,VT,05661
12651,110 Broad Street,Lyndonville,VT,05851
12652,258 Main Street,Lancaster,NH,03584
12653,1029 Route 2,Rumford,ME,04276
12654,6 Commercial Way,Jay,ME,04239
12655,435 Kennedy Memorial Dr,Waterville,ME,04901
12656,9 China Rd,Winslow,ME,04901
12657,336 Main St,Waterville,ME,04901
12658,141 Us Route 1,Bucksport,ME,04416
12659,259 High Street,Ellsworth,ME,04605
12660,1300 N Coast Hwy,Newport,OR,97365-2445
12661,1820 Pacific Blvd Sw,Albany,OR,97321-3532
12662,3232 E Pacific,Albany,OR,97321
12663,2250 Nw 9th St,Corvallis,OR,97330-1555
12664,28 Ne Oak St,Madras,OR,97741
12665,100 S Canyon,West Yellowstone,MT,59758
12666,260 Triangle Ln,Jordan,MN,55352
12667,21044 Kenrick Ave,Lakeville,MN,55044-8585
12668,4655 Knutsen Dr,Farmington,MN,55024
12669,20158 Icenic Trl,Lakeville,MN,55044
12670,17645 Cedar Avenue,Lakeville,MN,55044
12671,604 Highway 10 E,Durand,WI,54736
12672,50656 Radcliffe St,Osseo,WI,54758
12673,1101 N Central,Marshfield,WI,54449-1504
12674,287 S Main St,Clintonville,WI,54929-1604
12675,920 County Hwy B,Pulaski,WI,54162
12676,1654 Benzie Hwy,Benzonia,MI,49616
12677,933 Us 31 S,Traverse City,MI,49684
12678,2236 Grayling Rd,Grayling,MI,49738-2003
12679,503 Morenci Ave,Mio,MI,48647
12680,105 East Main Street,Canton,NY,13617
12681,1134 Patterson St,Ogdensburg,NY,13669
12682,171 Market St,Potsdam,NY,13676
12683,5 Haydenberry Dr,Milton,VT,05468
12684,349 Cornelia St,Plattsburgh,NY,12901
12685,303 Main St,Farmington,ME,04938
12686,1988 Shaff Rd,Stayton,OR,97383
12687,760 Campbell St,Baker City,OR,97814
12688,111 N Evarts St,Powell,WY,82435
12689,2146 Coffeen Avenue,Sheridan,WY,82801
12690,410 Faxon Rd N,Norwood Young America,MN,55368
12691,2840 Chaska Blvd,Chaska,MN,55318-2294
12692,3990 12th Ave,Shakopee,MN,55379
12693,227 Marschall Rd,Shakopee,MN,55379-1674
12694,16831 Hwy 13 Se,Prior Lake,MN,55372
12695,14200 Grand Ave,Burnsville,MN,55337-5704
12696,7667 150th St W,Apple Valley,MN,55124-7166
12697,16205 Kenyon Avenue,Lakeville,MN,55044
12698,4565 Erin Lane,Eagan,MN,55121
12699,2901 W Hwy 13,Burnsville,MN,55337-1707
12700,3990 County Rd 42,Savage,MN,55378
12701,1995 Silver Bell Rd,Eagan,MN,55122-1102
12702,15035 Canada Ave,Rosemount,MN,55068-1758
12703,4000 W Old Shakopee Rd,Bloomington,MN,55437-2947
12704,1340 S Frontage Rd,Hastings,MN,55033-2426
12705,159 West Main Street,Ellsworth,WI,54011
12706,2702 Craig Rd,Eau Claire,WI,54701-6151
12707,3708 Gateway Dr,Eau Claire,WI,54702
12708,1513 S Hastings Way,Eau Claire,WI,54701-4464
12709,553 Hwy 153 E,Mosinee,WI,54455-1740
12710,1202 E Green Bay St,Shawano,WI,54166-2208
12711,2531 E Frontage Rd,Abrams,WI,54101
12712,1132 Green Bay Rd,Sturgeon Bay,WI,54235-0613
12713,3606 N Us 31 S,Traverse City,MI,49684
12714,5908 Us Hwy 31 N,Williamsburg,MI,49690
12715,710 E Front St,Traverse City,MI,49686
12716,640 S Cedar,Kalkaska,MI,49646-9460
12717,2468 S Airport Rd W,Traverse City,MI,49684
12718,424 Margaret St,Plattsburgh,NY,12901
12719,261 Madison Ave,Skowhegan,ME,04976
12720,525 Wilson St,Brewer,ME,04412
12721,441 Main St,Bangor,ME,04401
12722,632 Broadway,Bangor,ME,04401
12723,1105 Union St,Bangor,ME,04401
12724,30 Dublin Street,Machias,ME,04654
12725,227 E Ellendale Ave,Dallas,OR,97338-1511
12726,1315 Monmouth St,Independence,OR,97351
12727,4020 Commercial St Se,Salem,OR,97302-3839
12728,5090 Commercial St Se,Salem,OR,97306
12729,3995 Rickey St Se,Salem,OR,97301
12730,1110 Center St Ne,Salem,OR,97301-2523
12731,1011 Lancaster Drive Ne,Salem,OR,97301-2934
12732,1598 Hawthorne Ave,Salem,OR,97302
12733,570 Wallace Rd Nw,Salem,OR,97304
12734,2590 N Main,Sheridan,WY,82801
12735,407 9th Ave Se,Watertown,SD,57201
12736,820 35th Street Cir,Watertown,SD,57201
12737,1706 E Hwy 7,Montevideo,MN,56265
12738,1098 Hwy 15 S,Hutchinson,MN,55350-3154
12739,910 Strong Dr,Waconia,MN,55387
12740,90 Lake Dr E,Chanhassen,MN,55317-9319
12741,8971 Crossroads Blvd,Chanhassen,MN,55317
12742,770 Excelsior Blvd,Excelsior,MN,55331-1968
12743,598 Prairie Center Dr,Eden Prairie,MN,55344-7917
12744,4637 Shady Oak Rd,Minnetonka,MN,55343-8838
12745,1120 Hazeltine Blvd,Chaska,MN,55318
12746,8030 Nicollet Ave,Bloomington,MN,55420-1230
12747,6645 Lyndale Ave S,Richfield,MN,55423
12748,Minn-St. Paul Airpt - MSP TERM 1 CONC D,St Paul,MN,55111
12749,7997 Southtown Ctr,Bloomington,MN,55431
12750,3220 Southdale Cir,Edina,MN,55435-2511
12751,9529 Lyndale Avenue South,Bloomington,MN,55420-4213
12752,4121 Hiawatha Ave,Minneapolis,MN,55406-3357
12753,2322 West 7th Street,St. Paul,MN,55116
12754,1351 Town Centre Dr,Eagan,MN,55123
12755,210 E Lake St,Minneapolis,MN,55408-2450
12756,3110 E Lake St,Minneapolis,MN,55406-2002
12757,9240 Bloomington Ferry Rd,Bloomington,MN,55438-1429
12758,5200 Excelsior Blvd,St. Louis Park,MN,55416
12759,6320 W Lake St,St. Louis Park,MN,55416
12760,5760 Cahill Ave,Inver Grove Hts,MN,55076
12761,3075 80th St E,Inver Grove Heights,MN,55076
12762,1759 Weir Dr,Woodbury,MN,55125-2242
12763,7355 Point Douglas Rd,Cottage Grove,MN,55016
12764,1273 S Robert St,West St. Paul,MN,55118
12765,1841 Suburban Ave,St. Paul,MN,55119
12766,2020 Dodd Rd,Mendota Heights,MN,55120
12767,3045 Holiday Ln,Eagan,MN,55121
12768,551 Jefferson Ave,St. Paul,MN,55102
12769,433 Commerce Dr,Woodbury,MN,55125
12770,1505 Paulson Rd,River Falls,WI,54022
12771,780 Baldwin Plaza Dr,Baldwin,WI,54002
12772,1505 N Broadway,Menomonie,WI,54751
12773,6251 Truax Ln,Eau Claire,WI,54703-9641
12774,2971 Commercial Blvd,Lake Hallie,WI,54729
12775,100 Prairie View Rd,Chippewa Falls,WI,54729-3655
12776,601 S 4th St,Abbotsford,WI,54405
12777,667 Maratech Avenue,Marathon,WI,54448
12778,2100 Volkman St,Schofield,WI,54476-1361
12779,225500 Rib Mountain Dr,Wausau,WI,54401-7644
12780,413 N Genesee St,Wittenberg,WI,54499
12781,105 Main St,Oconto,WI,54153-1928
12782,1212 Egg Harbor Rd,Sturgeon Bay,WI,54235-0613
12783,8497 N Us 131,Mancelona,MI,49659
12784,324 S Main St,Massena,NY,13662
12785,6098 State Hwy 37,Massena,NY,13662
12786,3375 State Route 11,Malone,NY,12953
12787,183 Swanton Rd,Saint Albans,VT,05478
12788,153 First St,Swanton,VT,05488
12789,41 Jayview Dr,Enosburg Falls,VT,05450
12790,4518 Us Rte 5,Derby,VT,05829
12791,9 Moosehead Trl,Newport,ME,04953
12792,665 Hogan Rd,Bangor,ME,04401
12793,993 Stillwater Ave,Old Town,ME,04468
12794,4060 N Hwy 101,Lincoln City,OR,97367
12795,4880 Ne River Rd,Keizer,OR,97303-4538
12796,2830 Broadway St Ne,Salem,OR,97309
12797,6025 Keizer Station Blvd Ne,Keizer,OR,97303
12798,4706 Portland Rd Ne,Salem,OR,97305
12799,3990 Devonshire Ave,Salem,OR,97305
12800,1049 N 1st St,Silverton,OR,97381
12801,1490 Babcock Blvd,Delano,MN,55328
12802,1450 E Wayzata Blvd,Wayzata,MN,55391-1919
12803,2705 Annapolis Cir,Plymouth,MN,55441
12804,11325 State Highway 55,Plymouth,MN,55441
12805,822 Hwy 55,Medina,MN,55340
12806,2410 W Industrial Blvd,Long Lake,MN,55356
12807,9315 Medicine Lake Rd,Golden Valley,MN,55427-3112
12808,6255 Sycamore Lane North,Maple Grove,MN,55369-6322
12809,730 N Winnetka Ave,Golden Valley,MN,55427-4530
12810,4201 Winnetka Ave,New Hope,MN,55428-4924
12811,4601 Lake Dr,Robbinsdale,MN,55422
12812,5400 W Broadway,Crystal,MN,55428-3506
12813,916 W Broadway,Minneapolis,MN,55411
12814,5525 Xerxes Ave N,Brooklyn Center,MN,55430-2856
12815,4435 Lyndale Ave N,Minneapolis,MN,55412-1436
12816,2929 Hennepin Ave S,Minneapolis,MN,55408-1955
12817,1100 University Ave Ne,Minneapolis,MN,55413-1222
12818,2400 Nicollet Ave S,Minneapolis,MN,55404-3449
12819,1797 Cope Ave,Maplewood,MN,55109-2608
12820,2935 Southlawn Dr,Maplewood,MN,55109
12821,7830 32nd St N,Oakdale,MN,55128
12822,1388 Maryland Avenue,St. Paul,MN,55106
12823,2730 Minnehaha Ave,Maplewood,MN,55119
12824,2070 E County Road East,White Bear Lake,MN,55110
12825,2260 Rice St,Little Canada,MN,55113
12826,1535 Rice Street,St. Paul,MN,55117
12827,2075 Snelling Ave N,Roseville,MN,55113
12828,471 Marion Street,St. Paul,MN,55103
12829,1313 W County Road E,Arden Hills,MN,55112
12830,2213 University Avenue,St. Paul,MN,55114
12831,729 Long Lake Rd,New Brighton,MN,55112-7770
12832,1440 Stinson Blvd,Minneapolis,MN,55413-1723
12833,1425 4th St Se,Minneapolis,MN,55414
12834,1193 70th Avenue,Roberts,WI,54023
12835,2411 Crest View Dr,Hudson,WI,54016-9498
12836,4605 Central Ave Ne,Minneapolis,MN,55421-2435
12837,1168 Silver Lake Rd,New Brighton,MN,55112-6325
12838,286 57th Avenue Ne,Fridley,MN,55432
12839,14545 60th St N,Stillwater,MN,55082-6314
12840,2601 Orleans Street,Stillwater,MN,55082
12841,604 S Broadway,Stanley,WI,54768
12842,101 W Hill,Thorp,WI,54771
12843,1205 Campus Dr,Wausau,WI,54401
12844,2002 W Stewart Ave,Wausau,WI,54401
12845,409 Forest St,Wausau,WI,54403
12846,116 S Division,Bellaire,MI,49615
12847,716 W Main St,Gaylord,MI,49735-1821
12848,2241 Us 23 S Bay,Alpena,MI,49707
12849,1424 M 32 West,Alpena,MI,49707
12850,1044 Rte 11,Champlain,NY,12919
12851,2910 Newburg Hwy,Woodburn,OR,97071-2819
12852,1540 Mount Hood Ave,Woodburn,OR,97071
12853,1565 W Main St,Molalla,OR,97038
12854,717 S 1st St,Willmar,MN,56201-3503
12855,1021 E Highway 12,Litchfield,MN,55355-2616
12856,303 7th St Ne,Buffalo,MN,55313-1744
12857,9530 Black Oaks Lane,Maple Grove,MN,55311
12858,13595 83rd Way,Maple Grove,MN,55369-4644
12859,9000 85th Ave North,Brooklyn Park,MN,55445-2153
12860,21300 Rogers Dr,Rogers,MN,55374-9540
12861,1 Central St,Circle Pines,MN,55014-1761
12862,2201 Hwy 10,Mounds View,MN,55112-4924
12863,610 Apollo Dr,Lino Lakes,MN,55014
12864,1081 Hwy 96,St. Paul,MN,55127
12865,9695 Xenia Avenue North,Brooklyn Park,MN,55443
12866,7685 West Broadway,Brooklyn Park,MN,55428
12867,3080 Coon Rapids Blvd,Coon Rapids,MN,55433-3474
12868,12321 Champlin Dr,Champlin,MN,55316-1906
12869,1480 85th Ave N,Brooklyn Park,MN,55444-1416
12870,1920 Gateway Drive,Coon Rapids,MN,55448
12871,3231 Northdale Blvd,Coon Rapids,MN,55433
12872,8100 University Ave Ne,Fridley,MN,55432-1864
12873,8124 Hwy 65,Spring Lake Park,MN,55432-2020
12874,10270 Baltimore Street Ne,Blaine,MN,55449
12875,11364 Foley Blvd Nw,Coon Rapids,MN,55448-3348
12876,12401 Ulysses St Ne,Blaine,MN,55434-3940
12877,4950 Hwy 61,White Bear Lake,MN,55110
12878,7110 Otter Lake Road,Lino Lakes,MN,55038
12879,243 N Knowles Ave,New Richmond,WI,54017
12880,2000 17th Avenue,Bloomer,WI,54724
12881,140 S 8th St,Medford,WI,54451-1518
12882,3400 E Main St,Merrill,WI,54452-9001
12883,2115 Neva Road,Antigo,WI,54409
12884,2291 Roosevelt Rd,Marinette,WI,54143-3800
12885,1232 10th Ave,Menominee,MI,49858-2719
12886,1112 Boyne Avenue,Boyne City,MI,49712
12887,120 South Lake Street,East Jordan,MI,49727
12888,1115 W Chisholm,Alpena,MI,49707-1617
12889,1063 W Main St,Dover Foxcroft,ME,04426
12890,191 North St,Calais,ME,04619
12891,1691 N Hwy 99 W,Mcminnville,OR,97128-2728
12892,225 Ne Norton Ln,Mcminnville,OR,97128
12893,3005 Portland Rd,Newberg,OR,97132-2074
12894,709 S West 1st St,Canby,OR,97013-3823
12895,29682 Sw Town Center Loop W,Wilsonville,OR,97070
12896,576 N Montana Street,Dillon,MT,59725
12897,211 Elm Street West,Annandale,MN,55302
12898,350 Central Ave E,St. Michael,MN,55376
12899,700 Dodge Ave,Elk River,MN,55330-1977
12900,100 Oakwood Dr,Monticello,MN,55362
12901,720 W Main St,Anoka,MN,55303-1581
12902,13731 Round Lake Blvd,Andover,MN,55304
12903,15232 Bluebird Street Nw,Andover,MN,55304
12904,1244 W Broadway,Forest Lake,MN,55025-1417
12905,100 Power St,Amery,WI,54001
12906,13 S Hwy 141,Crivitz,WI,54114
12907,1440 Bridge St,Charlevoix,MI,49720
12908,6800 Nyberg Rd,Tualatin,OR,97062
12909,19200 Sw Boones Ferry Rd,Tualatin,OR,97062
12910,16044 Lower Boones Ferry Road,Lake Oswego,OR,97034
12911,16200 Sw Pacific Hwy,Tigard,OR,97223
12912,12090 Sw Main,Tigard,OR,97223-6218
12913,11201 Sw 72nd,Tigard,OR,97223
12914,21355 Sherwood Blvd,Sherwood,OR,97140
12915,2100 8th Ct,West Linn,OR,97068
12916,12388 Sw Scholls Ferry Rd,Tigard,OR,97223-3335
12917,10050 Sw Barbur Blvd,Portland,OR,97219
12918,2010 Clackamette Dr,Oregon City,OR,97045
12919,820 E Berkeley St,Gladstone,OR,97027
12920,15870 Se Mcloughlin Blvd,Milwaukie,OR,97267
12921,1450 S Molalla,Oregon City,OR,97045-4004
12922,15960 Se 82nd Dr,Clackamas,OR,97015-9502
12923,12440 Se 82nd,Happy Valley,OR,97086
12924,10970 Se Oak St,Milwaukie,OR,97222-6695
12925,13470 Se Hwy 212,Clackamas,OR,97015
12926,11899 Se Sunnyside Road,Happy Valley,OR,97015
12927,37445 Se Hwy 26,Sandy,OR,97055-9250
12928,2308 Island Ave,La Grande,OR,97850
12929,12945 Rolling Ridge Road,Becker,MN,55308
12930,23100 Saint Francis Blvd,St. Francis,MN,55070
12931,330 Jefferson Blvd,Big Lake,MN,55309
12932,4811 E Viking Blvd,Wyoming,MN,55092
12933,638 Hwy 8,Turtle Lake,WI,54889
12934,2200 Glacier Rd,St. Croix Falls,WI,54024
12935,29575 Sportsman Dr,Chisago City,MN,55013
12936,360 E Division Ave,Barron,WI,54812
12937,747 Spring Street Us 131,Petoskey,MI,49770
12938,1178 Hwy 31 N,Petoskey,MI,49770
12939,6153 M68,Indian River,MI,49749
12940,290 S Bradley Hwy,Rogers City,MI,49779-2100
12941,23 Goding Ave,Lincoln,ME,04457
12942,1855 N Main St,Tillamook,OR,97141
12943,3315 Pacific Ave,Forest Grove,OR,97116-1914
12944,110 Se Baseline St,Hillsboro,OR,97123
12945,2090 Se Cypress St,Hillsboro,OR,97123-7246
12946,1215 Ne 48th,Hillsboro,OR,97124
12947,19525 Sw Tualatin Valley Hwy,Aloha,OR,97006-2340
12948,17555 Sw Farmington Rd,Aloha,OR,97007
12949,15975 Sw Regatta Ln,Beaverton,OR,97006
12950,2435 Nw Town Center Dr,Hillsboro,OR,97006-8948
12951,3519 Cedar Hills Blvd,Beaverton,OR,97005-2026
12952,13459 Nwcornell Rd,Portland,OR,97229
12953,6399 Nw Cornelius Pass Road,Hillsboro,OR,97124
12954,9475 Southwest Beaverton Hillsdale Highw,Beaverton,OR,97005
12955,1831 W Burnside,Portland,OR,97209
12956,3208 Nw Yeon,Portland,OR,97210-1524
12957,1520 Ne Grand,Portland,OR,97232-1153
12958,2875 Se Powell Blvd,Portland,OR,97202-2051
12959,900 Sw Highland Dr,Gresham,OR,97080-6373
12960,18320 Se Stark St,Portland,OR,97233
12961,12109 Ne Glisan Street,Portland,OR,97220
12962,2231 Ne 181st Ave,Portland,OR,97230-6924
12963,9100 Se Powell Blvd,Portland,OR,97266
12964,1525 Ne 103rd Ave,Portland,OR,97220
12965,5613 Se 82nd Ave,Portland,OR,97266-4813
12966,8149 Se Stark,Portland,OR,97215
12967,1567 Ne Burnside Rd,Gresham,OR,97030
12968,2555 Sw Cherry Park Rd,Troutdale,OR,97060
12969,12026 Ne Airport Way,Portland,OR,97230
12970,3330 Ne 82nd Ave,Portland,OR,97220-5230
12971,8151 Se Lamphier,Milwaukie,OR,97222
12972,2010 Ne Cesar E Chavez Blvd,Portland,OR,97212-5333
12973,1002 Nw Frontage Rd,Troutdale,OR,97060-9534
12974,1615 6th Ave Se,Aberdeen,SD,57401-5025
12975,403 N 2nd St,Aberdeen,SD,57401-2708
12976,210 2nd St S,Waite Park,MN,56387
12977,456 Great Oak Dr,Waite Park,MN,56387
12978,2120 W Division St,St. Cloud,MN,56301
12979,4311 Clearwater Rd,St. Cloud,MN,56301
12980,1180 E Elm Street,St Joseph,MN,56374
12981,840 E Saint Germain St,St. Cloud,MN,56304
12982,701 Northland Dr,Princeton,MN,55371
12983,412 Heritage Blvd Ne,Isanti,MN,55040-7109
12984,100 Garfield St S,Cambridge,MN,55008
12985,5835 St Croix Trail,North Branch,MN,55056
12986,1917 S Main St,Rice Lake,WI,54868-2919
12987,1001 W Lake Ave,Ladysmith,WI,54848
12988,1329 N 4th St,Tomahawk,WI,54487-2126
12989,9975 Nw Glencoe Rd,North Plains,OR,97133
12990,7487 N Ida Ave,Portland,OR,97203
12991,12005 N Center St,Portland,OR,97217-7816
12992,2110 E 4th Plain Blvd,Vancouver,WA,98661
12993,8011 Ne Martin Luther King Jr Blvd,Portland,OR,97211
12994,7010 Hwy 99,Vancouver,WA,98665
12995,3354 Ne 3rd Ave,Camas,WA,98607-2436
12996,2814 Ne Andresen Rd,Vancouver,WA,98661
12997,Portland Airport - PDX CONC C,Portland,OR,97218
12998,5517 Ne Gher Rd,Vancouver,WA,98684
12999,405 Se 131st Ave,Vancouver,WA,98683
13000,710 Ne 98th Cir,Vancouver,WA,98665
13001,2400 Se 165th Ave,Vancouver,WA,98683
13002,15813 Ne Fourth Plain Blvd,Vancouver,WA,98682
13003,341 Lone Pine Dr,The Dalles,OR,97058
13004,1315 W 6th,The Dalles,OR,97058-3517
13005,91485 Biggs-Rufus Hwy,Wasco,OR,97065
13006,900 Southgate,Pendleton,OR,97801-3950
13007,72489 Highway 331,Pendleton,OR,97801
13008,1503 W Main,Bozeman,MT,59715-4009
13009,103 Centennial Dr,Livingston,MT,59047
13010,601 E 8th Ave N,Columbus,MT,59019
13011,301 Se 4th Street,Laurel,MT,59044
13012,1124 Atlantic Ave,Morris,MN,56267
13013,120 Twin Rivers Ct,Sartell,MN,56377
13014,139 Highway 23 W,Foley,MN,56329-8533
13015,25 S Stevens St,Rhinelander,WI,54501
13016,1020 S Main St,Cheboygan,MI,49721-2273
13017,1 Sycamore Street,Millinocket,ME,04462
13018,13002 Ne Hwy 99,Vancouver,WA,98664
13019,33558 Havlik Dr,Scappoose,OR,97056
13020,515 W Main St,Battle Ground,WA,98604
13021,2101 Cascade Avenue,Hood River,OR,97031
13022,1049 Marina Way,Hood River,OR,97031-2378
13023,912 Simcoe Rd,Goldendale,WA,98620
13024,2115 Hwy 395,Stanfield,OR,97875
13025,207 Jefferson St,Belgrade,MT,59714
13026,822 Wheat Dr,Bozeman,MT,59715-2560
13027,910 Shiloh Crossing Blvd,Billings,MT,59102
13028,2333 Central Ave,Billings,MT,59102-4646
13029,3003 Grand Ave,Billings,MT,59102
13030,4902 Southgate Dr,Billings,MT,59102
13031,1046 Grand Ave,Billings,MT,59102-3304
13032,2711 Frontage Road,Billings,MT,59101
13033,401 Main St,Billings,MT,59105
13034,1225 N Crawford,Hardin,MT,59034
13035,1210 Timberlane Dr,Sauk Centre,MN,56378
13036,2378 Pine Rd Nw,Rice,MN,56367-9740
13037,104 River St,Spooner,WI,54801
13038,1140 S Stephenson Ave,Iron Mountain,MI,49801-4038
13039,401 Murray Rd Us2,Norway,MI,49870
13040,503 N Lincoln Rd,Escanaba,MI,49829-1424
13041,58771 S Columbia River Hwy,Saint Helens,OR,97051
13042,1601 Pacific Ave,Woodland,WA,98674
13043,1320 N 1st,Hermiston,OR,97838-1102
13044,408 S Main St,Milton Freewater,OR,97862-1058
13045,525 Wicks Lane,Billings,MT,59105
13046,853 State Hwy 29 N,Alexandria,MN,56308
13047,4910 Hwy 29 S,Alexandria,MN,56308-2905
13048,500 Highway 65,Mora,MN,55051
13049,1450 8th St Nw,Pine City,MN,55063-1137
13050,1130 4th Ave S,Park Falls,WI,54552
13051,8689 Hwy 51,Minocqua,WI,54548
13052,119 W Pine St,Eagle River,WI,54521
13053,2010 Lake Shore Dr,Gladstone,MI,49837-1252
13054,733 E Lakeshore Drive,Manistique,MI,49854
13055,928 W Us 2,St. Ignace,MI,49781
13056,225 S Roosevelt Dr,Seaside,OR,97138-6741
13057,814 S 9th,Walla Walla,WA,99362-3907
13058,3001 Harrison Avenue,Butte,MT,59701-3640
13059,1000 Grizzley Trail,Butte,MT,59701
13060,306 Lake Street South,Long Prairie,MN,56347
13061,104 Lemieur St,Little Falls,MN,56345
13062,203 Morris Ave,Hinckley,MN,55037
13063,10488 S Dakota Ave,Hayward,WI,54843
13064,645 Marine Drive,Astoria,OR,97103-4238
13065,2196 38th Ave,Longview,WA,98632
13066,729 Ocean Beach Highway,Longview,WA,98632
13067,300 Kelso Dr,Kelso,WA,98626-3111
13068,2700 S Quillan,Kennewick,WA,99337
13069,2130 E Isaacs Ave,Walla Walla,WA,99362-2216
13070,150 Van Buren St,Anaconda,MT,59711
13071,211 E Genesee St,Iron River,MI,49935
13072,110 North St,Houlton,ME,04730
13073,1040 Dougherty Dr Ne,Castle Rock,WA,98611-9046
13074,2200 Yakima Valley Hwy,Sunnyside,WA,98944-1282
13075,400 Vista Grande Way,Grandview,WA,98930
13076,103 Merlot Dr,Prosser,WA,99350-9500
13077,2751 Queensgate Drive,Richland,WA,99352
13078,101 D Wellsian Way,Richland,WA,99352-4150
13079,1275 George Washington Way,Richland,WA,99352
13080,1922 N Steptoe,Kennewick,WA,99336
13081,1409 N Kellogg St,Kennewick,WA,99336-7691
13082,7505 W Clearwater,Kennewick,WA,99336-1642
13083,4810 Rd 68,Pasco,WA,99301
13084,2721 W Kennewick Ave,Kennewick,WA,99336-3122
13085,2202 W Court St,Pasco,WA,99301-3937
13086,707 N First Street,Hamilton,MT,59840-2133
13087,105 N 12th St,Wahpeton,ND,58075-4135
13088,2085 College Way,Fergus Falls,MN,56537-1061
13089,9283 State Hwy 169,Garrison,MN,56450
13090,13921 State Hwy M28,Newberry,MI,49868
13091,100 16th St Se,Long Beach,WA,98631
13092,820 Zillah West Rd,Zillah,WA,98953-9542
13093,739 W 1st Ave,Toppenish,WA,98948-1186
13094,350 Bridge St,Clarkston,WA,99403-1929
13095,119 Thain Road,Lewiston,ID,83501
13096,711 21st Street,Lewiston,ID,83501-3322
13097,133 N Interchange,Deer Lodge,MT,59722
13098,1120 S Haynes,Miles City,MT,59301-5728
13099,20 Ash Ave Nw,Wadena,MN,56482
13100,521 W Washington St,Brainerd,MN,56401-2927
13101,505 Ne Washington St,Brainerd,MN,56401
13102,500 Park Place Drive,Moose Lake,MN,55767
13103,2326 S 1st St,Union Gap,WA,98903
13104,650 2nd St Ne,Aitkin,MN,56431
13105,337 East Cloverland Drive,Ironwood,MI,49938-1307
13106,840 Us Highway 41 W,Ishpeming,MI,49849-3181
13107,1001 M28 E,Marquette,MI,49855
13108,1105 W Washington,Marquette,MI,49855-4001
13109,3225 US HIGHWAY 41 W (Walmart),Marquette,MI,49855
13110,2850 I-75 Business Spur,Sault St. Marie,MI,49783
13111,100 Willapa Place,Raymond,WA,98577
13112,1400 Nw Louisiana Ave,Chehalis,WA,98532
13113,15 Ne Median,Chehalis,WA,98532
13114,120 Kirkland Rd,Chehalis,WA,98532-8724
13115,5910 Summitview Ave,Yakima,WA,98908-3043
13116,3907 River Rd,Yakima,WA,98902
13117,1601 W Lincoln,Yakima,WA,98902
13118,499 S 1st St,Selah,WA,98942
13119,19 E Yakima Avenue,Yakima,WA,98901
13120,1305 S 1st St,Yakima,WA,98901-3503
13121,3060 N Montana Ave,Helena,MT,59601-0551
13122,1901 Prospect Ave,Helena,MT,59601-3180
13123,100 Judd Street,Perham,MN,56573
13124,720 W Lake Shore Dr,Ashland,WI,54806-1440
13125,656 Main St,Presque Isle,ME,04769
13126,1201 Lum Rd,Centralia,WA,98531-1847
13127,19734 Old Hwy 99 Sw,Rochester,WA,98579
13128,400 Stadium Way N,Pullman,WA,99163
13129,1620 Grand Ave S,Pullman,WA,99163-4905
13130,1404 Moscow-Pullman Highway,Moscow,ID,83843
13131,862 Troy Road,Moscow,ID,83843
13132,11882 Hwy 93 South,Lolo,MT,59847
13133,150 Bismarck Expy,Bismarck,ND,58501-5086
13134,605 E Main Ave,Bismarck,ND,58501-4458
13135,2601 Memorial Hwy Se,Mandan,ND,58554
13136,5160 Charles Way S,Fargo,ND,58104
13137,415 E Frazee,Detroit Lakes,MN,56501-3605
13138,709 Hwy 33 S,Cloquet,MN,55720-2659
13139,9310 W Skyline Pky,Proctor,MN,55810
13140,428 N Central,Duluth,MN,55807-2530
13141,2115 E 2nd St,Superior,WI,54880-3650
13142,2105 London Rd,Duluth,MN,55812-2128
13143,2026 Tower Ave,Superior,WI,54880-2546
13144,110 E Central Entrance,Duluth,MN,55811-5510
13145,505 Yelm Ave W,Yelm,WA,98597
13146,445 E Main St,Othello,WA,99344-1146
13147,4560 N Reserve St,Missoula,MT,59808
13148,1565 Liberty Ln,Missoula,MT,59808
13149,3310 Brooks St,Missoula,MT,59801-8290
13150,8745 Highway 93 North,Missoula,MT,59808
13151,720 E Broadway,Missoula,MT,59802-4610
13152,212 Museum Dr,Dickinson,ND,58601-3932
13153,2631 State St,Bismarck,ND,58501-0668
13154,4000 Miriam Avenue,Bismarck,ND,58501
13155,1535 Burnt Boat Dr,Bismarck,ND,58501
13156,817 20th St Sw,Jamestown,ND,58401-6132
13157,1385 8th Ave. Sw,Valley City,ND,58072
13158,501 Main Ave E,West Fargo,ND,58078-1929
13159,220 8th St S,Moorhead,MN,56560-2811
13160,3009 Hwy 10 E,Moorhead,MN,56560-2549
13161,1220 19th Ave N,Fargo,ND,58102
13162,2424 S University Dr,Fargo,ND,58103-5735
13163,1001 38th St S,Fargo,ND,58106-2114
13164,3220 39th St S,Fargo,ND,58104
13165,4501 19th Ave Sw,Fargo,ND,58103
13166,5640 23rd Avenue South,Fargo,ND,58104
13167,101 S Park Ave,Park Rapids,MN,56470
13168,4301 Menard Dr,Hermantown,MN,55811
13169,127 Bennett Drive,Caribou,ME,04736
13170,701 Point Browne Ave Nw,Ocean Shores,WA,98569
13171,2501 Simpson Avenue,Hoquiam,WA,98550-3932
13172,1101 E Wishkah St,Aberdeen,WA,98520-4222
13173,1335 Cooper Point Road Sw,Olympia,WA,98502
13174,5601 Capitol Blvd,Tumwater,WA,98501
13175,2430 93rd Ave Sw,Tumwater,WA,98512
13176,2611 W Harrison,Olympia,WA,98503
13177,6000 Pacific Ave Se,Lacey,WA,98503
13178,4640 Whitman Ln Se,Lacey,WA,98513
13179,1325 Marvin Rd Ne,Lacey,WA,98516-3867
13180,520 Sleater Kinney Rd,Lacey,WA,98503
13181,715 Plum St Se,Olympia,WA,98501
13182,20315 Mountain Hwy E,Spanaway,WA,98387
13183,1304 Canyon Rd,Ellensburg,WA,98926
13184,907 W Main,Lewistown,MT,59457-2401
13185,1130 7th Ave,Two Harbors,MN,55616
13186,1565 Wilmington Drive,Dupont,WA,98327
13187,15004 Union Ave Sw,Lakewood,WA,98498
13188,8201 Steilacoom Blvd Sw,Lakewood,WA,98498-6156
13189,321 Washington Ave N,Orting,WA,98360
13190,4603 S Meridian,Puyallup,WA,98373-3541
13191,17301 Meridian E,Puyallup,WA,98375-6267
13192,804 S Hill Park Dr,Puyallup,WA,98373
13193,304 2nd St Ne,Puyallup,WA,98372
13194,1906 Main St,Sumner,WA,98390-1820
13195,17509 Canyon Pkwy E,Tacoma,WA,98446
13196,21007 Hwy 410,Bonney Lake,WA,98391
13197,10417 Pacific Hwy Sw,Tacoma,WA,98499
13198,6002 100th St Sw,Tacoma,WA,98499
13199,14900 Pacific Ave South,Spanaway,WA,98444-4657
13200,11012 Pacific Ave,Tacoma,WA,98444
13201,7413 Custer Road Sw,Lakewood,WA,98467
13202,11002 22nd Ave E,Tacoma,WA,98445
13203,7217 Pacific Ave,Tacoma,WA,98408-7114
13204,29360 Sr 410 E,Buckley,WA,98321
13205,110 Roosevelt Ave E,Enumclaw,WA,98022-8214
13206,702 West First Street,Cle Elum,WA,98922
13207,825 N Stratford Rd,Moses Lake,WA,98837-1511
13208,1795 Kittleson Rd,Moses Lake,WA,98837
13209,101 W Galbreath Way,Ritzville,WA,99169
13210,1300 W Memorial Dr,Houghton,MI,49931
13211,2507 Olympic Hwy N,Shelton,WA,98584-2935
13212,3802 Bridgeport Way W,University Place,WA,98466-4416
13213,5500 Olympic Drive,Gig Harbor,WA,98335-3638
13214,6700 19th St W,University Place,WA,98466
13215,6311 6th Ave,Tacoma,WA,98406-2021
13216,2203 N Pearl St,Tacoma,WA,98406-2549
13217,1975 S Union Avenue,Tacoma,WA,98405
13218,4814 Center St,Tacoma,WA,98409
13219,2916 S 38th Ave,Tacoma,WA,98409-5606
13220,802 Tacoma Ave S,Tacoma,WA,98402-2204
13221,1737 51st Ave E,Fife,WA,98424
13222,620 Meridian E,Milton,WA,98354
13223,34814 Pacific Hwy S,Federal Way,WA,98003
13224,1400 Lake Tapps Way,Auburn,WA,98092
13225,3920 A St Se,Auburn,WA,98002
13226,1304 Outlet Collection Way Sw,Auburn,WA,98001
13227,702 Auburn Way S,Auburn,WA,98002-6029
13228,1531 Auburn Way N,Auburn,WA,98002-3307
13229,2302 S 320th St,Federal Way,WA,98003
13230,24 F St Sw,Quincy,WA,98848
13231,1010 Basin St Sw,Ephrata,WA,98823-2078
13232,1221 Pokegama Ave S,Grand Rapids,MN,55744-5044
13233,77 E Main St,Fort Kent,ME,04743
13234,5050 Borgen Blvd,Gig Harbor,WA,98332
13235,1236 W Meeker,Kent,WA,98032-4322
13236,10125 Se 256th St,Kent,WA,98030-6405
13237,10715 Se 240th St,Kent,WA,98031-5380
13238,22644 Pacific Hwy S,Des Moines,WA,98198-5109
13239,8320 S 212th St,Kent,WA,98032-1927
13240,27515 Pacific Hwy S,Federal Way,WA,98003
13241,Seattle-Tacoma Airport - SEA,Seattle,WA,98158
13242,10715 Se 174th Street,Renton,WA,98055
13243,16501 S Center Pky,Tukwila,WA,98188-3306
13244,17431 S 272nd St,Covington,WA,98042-4950
13245,23225 Maple Valley Hwy,Maple Valley,WA,98038-8248
13246,14120 Se Petrovitsky Rd,Renton,WA,98058-8932
13247,26924 Maple Valley Hwy,Maple Valley,WA,98038
13248,201 Valley Mall Parkway,East Wenatchee,WA,98802-5321
13249,1024 Mission St,Wenatchee,WA,98801-1517
13250,1442 E 40th St,Hibbing,MN,55746
13251,24200 Wa-3,Belfair,WA,98528-9626
13252,233 Bravo Terrace Southeast,Port Orchard,WA,98367-9375
13253,4225 Se Mile Hill Dr,Port Orchard,WA,98366-3920
13254,3426 Kitsap Way,Bremerton,WA,98312-2861
13255,1305 Nw Gilman Blvd,Issaquah,WA,98027-5308
13256,5526 E Lake Sammamish Pky,Issaquah,WA,98029-6804
13257,9304 Rainier Ave S,Seattle,WA,98118-5502
13258,73 Rainier Ave S,Renton,WA,98057-2005
13259,401 S Grady Way,Renton,WA,98057-3212
13260,15210 Pacific Hwy W,Tukwila,WA,98188-2246
13261,9610 Des Moines Memorial Dr S,Seattle,WA,98108-5032
13262,1705 Ne 44th,Renton,WA,98056
13263,6305 Martin Luther King Jr Way S,Seattle,WA,98118
13264,3209 Ne 4th,Renton,WA,98056
13265,4411 Ne Sunset Blvd,Renton,WA,98056
13266,15620 1st Ave S,Burien,WA,98148-1209
13267,13049 Se 69th Way,Newcastle,WA,98055
13268,1516 Sw 114th Street,Burien,WA,98146-3550
13269,2580 Sw Barton St,Seattle,WA,98126
13270,6546 California Ave Sw,Seattle,WA,98136-1834
13271,3003 California Ave Sw,Seattle,WA,98116-3301
13272,4056 Factoria Blvd,Bellevue,WA,98006
13273,735 Mount Si Blvd,North Bend,WA,98045-8990
13274,2324 1st St,Cheney,WA,99004
13275,820 W Cameron,Kellogg,ID,83837
13276,63880 Us Hwy 93,Ronan,MT,59864
13277,2000 14th Street Sw,Great Falls,MT,59404
13278,1710 3rd Street Nw,Great Falls,MT,59404
13279,1721 10th Avenue S,Great Falls,MT,59405
13280,1245 Paul Bunyan Dr Nw,Bemidji,MN,56601-4123
13281,520 Paul Bunyan Dr,Bemidji,MN,56601
13282,710 Iron Miner Memorial Rd,Chisholm,MN,55719
13283,1350 S 12th Ave,Virginia,MN,55792-3232
13284,10444 Silverdale Way Nw,Silverdale,WA,98383-9411
13285,2904 PAMPANA ST (Naval Base),Silverdale,WA,98315
13286,6755 Sr 303 Ne,Bremerton,WA,98311
13287,3580 Wheaton Way,Bremerton,WA,98310-3545
13288,501 High School Rd Ne,Bainbridge Island,WA,98110-1622
13289,1401 156th Ave Ne,Bellevue,WA,98004
13290,13841 Ne 20th,Bellevue,WA,98005-2012
13291,3239 156th Ave Se,Bellevue,WA,98007-6528
13292,16975 Redmond Way,Redmond,WA,98052-4448
13293,615 228th Ave Ne,Sammamish,WA,98074
13294,8515 124th Ave Ne,Kirkland,WA,98033-5857
13295,2807 78th St Se,Mercer Island,WA,98040-2818
13296,5146 25th Ave Ne,Seattle,WA,98105-4121
13297,2336 25th Ave S,Seattle,WA,98144-5337
13298,1530 3rd Ave,Seattle,WA,98101-1612
13299,"140 4th Ave N, Suite 130",Seattle,WA,98109
13300,2401 4th Ave S,Seattle,WA,98134-1925
13301,23545 Ne Novelty Hill Rd,Redmond,WA,98053-5500
13302,5400 14th Ave Nw,Seattle,WA,98107-3733
13303,9000 Holman Rd Nw,Seattle,WA,98117
13304,1250 Hwy 2,Leavenworth,WA,98826
13305,12002 W Sunset Hwy,Airway Heights,WA,99001
13306,10511 W Aero Road,Spokane,WA,99224
13307,2903 E 29th Avenue,Spokane,WA,99223
13308,4647 S Regal St,Spokane,WA,99203
13309,15 S Havana St,Spokane,WA,99202
13310,517 W Third Avenue,Spokane,WA,99204
13311,1617 North Hamilton Street,Spokane,WA,99207
13312,1818 N Monroe,Spokane,WA,99205-4528
13313,3416 N Market St,Spokane,WA,99217
13314,4436 N Division Street,Spokane,WA,99207-1503
13315,10516 E Sprague Ave,Spokane Valley,WA,99206
13316,819 N Sullivan Rd,Veradale,WA,99037
13317,2222 N Argonne Road,Spokane,WA,99212-2337
13318,3530 N Sullivan Rd,Spokane,WA,99216
13319,1306 N Liberty Lake Rd,Liberty Lake,WA,99019
13320,1325 W Riverstone Drive,Coeur D Alene,ID,83814
13321,208 Appleway Ave,Coeur D Alene,ID,83814
13322,51154 Us Hwy 93,Polson,MT,59860-9729
13323,10977 Ne State Hwy 104,Kingston,WA,98346-9405
13324,20533 Viking Ave Nw,Poulsbo,WA,98370-9442
13325,15201 Aurora Ave N,Shoreline,WA,98133-6123
13326,10124 Edmonds Way,Edmonds,WA,98020-5130
13327,20227 Ballinger Way Ne,Seattle,WA,98155-1143
13328,2147 Northgate Way,Seattle,WA,98133-9006
13329,14507 Bothell Way Ne,Shoreline,WA,98155-7605
13330,21420 Hwy 99,Edmonds,WA,98026
13331,7234 Bothell Way,Bothell,WA,98011-3518
13332,13636 100th Ave Ne,Kirkland,WA,98033
13333,22110 17th Ave Se,Bothell,WA,98021-7402
13334,12440 Ne 144th,Kirkland,WA,98034
13335,12514 116th Ave Ne,Kirkland,WA,98034-4313
13336,17223 140th Ave Ne,Woodinville,WA,98072
13337,2608 196th St Sw,Lynnwood,WA,98036
13338,19808 44th Ave W,Lynnwood,WA,98036
13339,9305 N Newport Highway,Spokane,WA,99212
13340,12802 North Sr 395,Spokane,WA,99218
13341,14118 N Newport Hwy,Mead,WA,99021
13342,6321 N Monroe St,Spokane,WA,99208
13343,2211 W Wellesley Avenue,Spokane,WA,99205
13344,8827 North Indian Trail Road,Spokane,WA,99208
13345,3820 W 5th Ave,Post Falls,ID,83854
13346,1615 E Seltice Way,Post Falls,ID,83854
13347,340 W Hanley St,Coeur D'Alene,ID,83814
13348,7120 West Main St,Rathdrum,ID,83858
13349,1550 South Central Ave,Sidney,MT,59270-5519
13350,1811 University Ave,Crookston,MN,56716
13351,17531 Hwy 99,Lynnwood,WA,98037
13352,3717 Harbour Pointe Blvd Sw,Mukilteo,WA,98275
13353,14923 Hwy 99,Lynnwood,WA,98037-2315
13354,17422 Hwy 9 Se,Snohomish,WA,98296
13355,3316 132nd St Se,Mill Creek,WA,98012-5654
13356,917 Ave D,Snohomish,WA,98290-2336
13357,16320 Bothell Everett Hwy,Mill Creek,WA,98012
13358,316 S Everett Mall Way,Everett,WA,98204-2782
13359,530 128th Street Sw,Everett,WA,98204-7310
13360,19515 State Hwy 2,Monroe,WA,98272-1535
13361,7920 Evergreen Way,Everett,WA,98203
13362,33901 State Rte 2,Sultan,WA,98294
13363,900 S Main Ave,Deer Park,WA,99006
13364,2910 32nd Ave,Grand Forks,ND,58201-6024
13365,3900 S Washington St,Grand Forks,ND,58201
13366,4340 Gateway Dr,Grand Forks,ND,58201
13367,1125 S Washington St,Grand Forks,ND,58201-5430
13368,1212 Central Ave Ne,East Grand Forks,MN,56721-1603
13369,101 S Hwy 53,Cook,MN,55723
13370,107 S 7th Ave,Sequim,WA,98382-3602
13371,2001 Everett Ave,Everett,WA,98201-3650
13372,4020 Colby Ave,Everett,WA,98201-4929
13373,6323 33rd Ave Ne,Marysville,WA,98271
13374,507 Hwy 9,Lake Stevens,WA,98258
13375,1706 E Front,Port Angeles,WA,98362-4929
13376,310 Sims Way,Port Townsend,WA,98368-1830
13377,502 W Stanley St,Granite Falls,WA,98252
13378,3529 172nd St Ne,Arlington,WA,98223-8758
13379,9720 State Ave,Marysville,WA,98270-2232
13380,10510 Quil Ceda Blvd,Marysville,WA,98271
13381,7607 Ne 204th,Arlington,WA,98223
13382,715 Hwy 97,Brewster,WA,98812
13383,422 N Newport Ave,Newport,WA,99156
13384,1110 Hwy 2 W,Kalispell,MT,59901-3410
13385,505 1st Ave N,Glasgow,MT,59230
13386,303 Hwy 2 W,Wolf Point,MT,59201
13387,2222 2nd Ave W,Williston,ND,58801-3410
13388,124 4th St Sw,Devils Lake,ND,58301
13389,1547 Us-59,Thief River Falls,MN,56701-0403
13390,26713 72nd Ave Nw,Stanwood,WA,98292-9387
13391,841 Ne Midway Blvd,Oak Harbor,WA,98277
13392,205 Bonner Mall Way,Ponderay,ID,83852-9748
13393,2065 Hwy 2 E,Kalispell,MT,59901
13394,2310 Us Highway 93 North,Kalispell,MT,59901
13395,2115 15th St. Nw,Minot,ND,58701
13396,711 S Broadway,Minot,ND,58701
13397,1400 24th Ave Sw,Minot,ND,58701-6903
13398,101 31st Ave Sw,Minot,ND,58701
13399,2200 E College Way,Mount Vernon,WA,98273-5866
13400,2034 Marketplace Dr,Burlington,WA,98233-3207
13401,901 Engh Rd,Omak,WA,98841-9473
13402,905 Louisiana Ave,Libby,MT,59923-2109
13403,6495 Hwy 93 S,Whitefish,MT,59937-8238
13404,1301 Commercial St,Anacortes,WA,98221-2139
13405,876 Nevitt Rd,Burlington,WA,98233-3441
13406,1017 Hodgin Street,Sedro Woolley,WA,98284
13407,1103 S Main,Colville,WA,99114-9503
13408,331 W 1st,Havre,MT,59501-3409
13409,601 W Main St,Cut Bank,MT,59427-2829
13410,1700 17th St,International Falls,MN,56649
13411,112 Samish Way,Bellingham,WA,98225
13412,1914 King St,Bellingham,WA,98225-4237
13413,101 W Telegraph Rd,Bellingham,WA,98226-5560
13414,2433 E Bakerview Road,Bellingham,WA,98226
13415,903 Main Street,Baudette,MN,56623
13416,1688 Main St,Ferndale,WA,98248
13417,8106 Guide Meridian Rd,Lynden,WA,98264
13418,747 Grant Ave,Blaine,WA,98230
